branch_code,branch,sap_id,name,address,phone,latitude,longitude,zipcode
3168,UNIT BISNIS AMBON,CP01,KF Urimesing Ambon,Jl. Diponegoro no.66 Ahusen Si,082197621522,-3.700658,128.182242,97127
3168,UNIT BISNIS AMBON,CP02,KF Passo,"Jl. Wolter Mongonsidi, Passo,  Telu",082197606584,-3.633571,128.249721,97232
3102,UNIT BISNIS BALIKPAPAN,AB01,KF.0056,Jl. Jend. Achmad Yani No. 95 Gunung Sari,08115961954,-1.2635322,116.8360475,76121
3102,UNIT BISNIS BALIKPAPAN,AB02,KF.0068,Jl. Jend. Sudirman No. 2-3 Klandasan,081110678429,-1.276981,116.831976,76112
3102,UNIT BISNIS BALIKPAPAN,AB03,KF.0136,Jl.MT. HARYONO RT.24,081110678431,-1.267408,116.857572,76114
3102,UNIT BISNIS BALIKPAPAN,AB04,KF.0158 Markoni,Jl. Jend. Sudirman RT 51 No. 33 Markoni,081110678423,-1.27518,116.847881,76113
3102,UNIT BISNIS BALIKPAPAN,AB05,KF.0270,"Jl. Sukarno Hatta KM 2,5 No. 2",08115961921,-1.227222,116.840836,76125
3102,UNIT BISNIS BALIKPAPAN,AB06,KF.0293,Jl. Jend. A. Yani No. 23-Karang Rejo,08115962032,-1.246392,116.8326643,76124
3102,UNIT BISNIS BALIKPAPAN,AB07,KF.0329,Jl. Soekarno Hatta KM 5 No. 86,08115961987,-1.213002,116.85836,76129
3102,UNIT BISNIS BALIKPAPAN,AB08,KF.0349,Jl. Komplek Balikpapan Baru Blok C 7-8,08115962749,-1.238986,116.871103,76114
3102,UNIT BISNIS BALIKPAPAN,AB09,KF.0379 Pasar Baru,Jl. Jend Sudirman No.20A Pasar Baru,08115962062,-1.276723,116.839731,76113
3102,UNIT BISNIS BALIKPAPAN,AB10,KF.0426 Guntur,Jl. DI Panjaitan No. 2 Gunung Guntur,08115962059,-1.254035,116.843944,76122
3102,UNIT BISNIS BALIKPAPAN,AB11,KF.0425 Sepinggan,Jl. M.R Iswahyudi No.702 Sepinggan,081110678369,-1.257821,116.9077688,76115
3102,UNIT BISNIS BALIKPAPAN,AB12,KF.0434 Bahagia,Jl. Ruhui Rahayu Blok 1 NO.1 Gunung Bahagia,081110678436,-1.2419798,116.8811381,76114
3102,UNIT BISNIS BALIKPAPAN,AB13,KF.0435 Manggar,Jl. Mulawarman No.44 Manggar,081110678427,-1.2262546,116.961736,76116
3102,UNIT BISNIS BALIKPAPAN,AB14,KF.Bejo KF Bejo,Jl. Di Panjaitan No.21 Sumberejo,08115962455,-1.241396,116.846732,76124
3102,UNIT BISNIS BALIKPAPAN,AB15,KF.Ewalk,"Jl. Jend Sudirman RT.25 No.217, kelurahan gn bahagia. Kecamatan Balikpapan Selatan",081110678428,-1.27426,116.87041,76114
3102,UNIT BISNIS BALIKPAPAN,AB16,KF.Gumilang,"Jl. Mayjen Sutoyono. 92, Gunung Malang",08115961933,-1.273375,116.84607,76113
3102,UNIT BISNIS BALIKPAPAN,AB17,KF.Indrakila,Jl. Indrakila III Rt.35 Indrakila,08115961918,-1.237041,116.856624,23767
3102,UNIT BISNIS BALIKPAPAN,AB18,KF.Petung,Jl. Propinsi Km 17 Petung Penajam Paser Utara,08115962744,-1.351355,116.670177,68154
3102,UNIT BISNIS BALIKPAPAN,AB19,KF.Tarakan,Jl. Mulawarman Rt.43 Kel. Karang Anyar-Tarakan,081110678426,3.313516,117.580724,68132
3102,UNIT BISNIS BALIKPAPAN,AB20,KF.Grogot,Jl. Pengeran Hidayat Tana Grogot,081110678447,-1.908731,116.19338,76251
3102,UNIT BISNIS BALIKPAPAN,AB21,KF Bon Say,Jl. Letjen Suprapto No.25 Kebon Sayur,081110678430,-1.234435,116.82098,76131
3102,UNIT BISNIS BALIKPAPAN,AB22,KF Beurau,"Jl. Mangga II No. 2 Tanjung Redeb, Berau",081110678433,2.14993,117.497564,77315
3102,UNIT BISNIS BALIKPAPAN,AB23,KF Regency,Jl. Syarifuddin Yoes No. 3 Gunung Bahagia,081110678450,-1.232961,116.8860153,76114
3102,UNIT BISNIS BALIKPAPAN,AB24,KF KM 8,"jl. soekarnohatta km 8 no 235, batu ampar",08115962023,-1.20011,116.883842,76129
3102,UNIT BISNIS BALIKPAPAN,AB25,KF Ruhui,Jl. Ruhui Rahayu,08115962464,-1.250034,116.899985,76115
3102,UNIT BISNIS BALIKPAPAN,AB26,KF Batakan,Jl.  Marsma Iswahyudi Batakan,08115962747,-1.256776,116.92303,76115
3102,UNIT BISNIS BALIKPAPAN,AB27,KF Babulu,Jl.  Propinsi KM-48,08115962497,-1.500362,116.460838,76285
3102,UNIT BISNIS BALIKPAPAN,AB29,KF. Berau II,Jl. Durian III Tanjung Redab-Berau,08115962449,2.147406,117.486103,77311
3102,UNIT BISNIS BALIKPAPAN,AB30,KF. Sengkawit,Jl. Sengkawit Tanjung Selor Bulungan,08115962451,2.854991,117.369067,71252
3102,UNIT BISNIS BALIKPAPAN,AB31,KF. Juwata,Jl. Aki Balak-Juwata Tarakan,08115962493,3.337218,117.573388,77111
3102,UNIT BISNIS BALIKPAPAN,AB32,KF. Kusumah Bangsa,"Jl. Kusuma Bangsa, Pamusian",08115962496,3.303095,117.60757,77113
3102,UNIT BISNIS BALIKPAPAN,AB33,KF. PRAPATAN,Jl. Prapatan no 33 Balikpapan,08115995892,-1.2741816,116.820911,76111
3102,UNIT BISNIS BALIKPAPAN,AB34,KF. SIMPANG PAIT,Jl. Negara Km 90 RT 07 Simpang Pait Kab Tana Grogot,08115995894,-1.606905,116.163654,76282
3102,UNIT BISNIS BALIKPAPAN,AB36,KF PENAJAM,Jl. Provinsi Km. 2 Penajam Paser Utara,08115988713,-1.260476,116.766187,76141
3102,UNIT BISNIS BALIKPAPAN,AB37,KF NUNUKAN,"Jl. Pattimura Rt.6 No.99 Kec/Kab. Nunukan , Kel. Nunukan Timur",08115988714,4.1401175,117.6567452,77482
3102,UNIT BISNIS BALIKPAPAN,AB39,KF Berau III (Rinding),Jl. Marsama Iswahyudi kelurahan Rinding Kecamatan Teluk Bayur Kabupaten Berau Kalimantan timur,081110678432,2.1649956,117.4505488,77313
3102,UNIT BISNIS BALIKPAPAN,AB40,KF Bulungan Balikpapan,Jl. Kol. H. Soetadji RT 16 Tanjung Selor Ilir,081365696550,2.845304,117.36889,77212
3102,UNIT BISNIS BALIKPAPAN,AB41,KF Berau IV (Antasari),"Jl. Pangeran Antasari RT. 09 No. 1064, Tanjung Redep Kabupaten Berau Kalimantan Timur.",081110678425,2.156953,117.496816,45256
3102,UNIT BISNIS BALIKPAPAN,AB42,Klinik Mandiri KF Ria Kencana PKBI,"Jl. Letnan Jend Suprapto No. 1, Kel. Gn. Kelua, Kec. Samarinda Ulu, Samarinda, Kalimantan Timur 75123",,,,75111
3102,UNIT BISNIS BALIKPAPAN,AB44,KF Bandara BPN,"Jl. Marsma R. Iswahyudi, Sepinggan, Kecamatan Balikpapan Selatan, Balikpapan, Kalimantan Timur 76115",081159786721,-1.2658151,116.8977258,76115
3102,UNIT BISNIS BALIKPAPAN,AB45,KF A. Yani II,"JL. Jend. A. Yani No. 20, Kel. Gn. Sari Ilir Kec. Balikpapan Tengah, Kota Balikpapan",081255069304,-1.266137,116.837032,76121
3102,UNIT BISNIS BALIKPAPAN,AB46,KF MT. Haryono II,Jl. MT. Haryono RT.41 Damai Baru,081345779117,-1.254583321,116.868731,76114
3101,UNIT BISNIS BANDA ACEH,AA01,KF.0037 Diponegoro,Jl. Diponegoro No. 8,081362614585,5.553818,95.3194918,97572
3101,UNIT BISNIS BANDA ACEH,AA02,KF.0060 Arun,Jl. Merdeka No. 47 B - C,081110678321,5.18087,97.143713,71452
3101,UNIT BISNIS BANDA ACEH,AA03,KF.0081 Tm Zein,Jl. T.M. Zein No. 1 E,081110678299,4.470177,97.970868,24454
3101,UNIT BISNIS BANDA ACEH,AA04,KF.0092 Peunyoung,Jl. Chairil Anwar No. 13,082165895472,5.557803,95.321015,23122
3101,UNIT BISNIS BANDA ACEH,AA05,KF.0161 Seutui,Jl. Teuku Umar No. 201,081110678324,5.54077,95.310245,23243
3101,UNIT BISNIS BANDA ACEH,AA06,KF.0292 Daud Beureuh,Jl. Pocut Baren No 37 C-D Kota Banda Aceh,082275582005,5.562291,95.326384,23681
3101,UNIT BISNIS BANDA ACEH,AA07,KF.0397 Sigli,Jl. Perdagangan No. 1,081110678397,5.3845625,95.9603125,24115
3101,UNIT BISNIS BANDA ACEH,AA0712,PPO KF 397 Tijue,"Jl Banda Aceh-Medan , km 116 , Gp. Dayah Teungoh Tijue",081397609857,5.360944,95.959905,24151
3101,UNIT BISNIS BANDA ACEH,AA08,KF.0402 Lamprit,Jl. Tgk Daud Beureueh No. 167,081110678297,5.563752,95.335159,24472
3101,UNIT BISNIS BANDA ACEH,AA09,KF.0403 Bireun,Jl. T. Hamzah Bendahara No. 19,082274479004,5.204031,96.6995458,24251
3101,UNIT BISNIS BANDA ACEH,AA10,KF.Pel006 RSUD Zainul Abidin,"Kompleks New RSUD, Jl. Tgk Daud Beureueh No.108",081356861166,5.563397,95.338285,24472
3101,UNIT BISNIS BANDA ACEH,AA11,KF Unsyiah,"Jl. Teuku Nyak Arief, Banda Aceh",082274240511,5.572899,95.364112,23111
3101,UNIT BISNIS BANDA ACEH,AA12,KF.0482 QMC,Jl.Tgk. Daud Beureueh No. 44,081110678088,5.558187,95.326868,23681
3101,UNIT BISNIS BANDA ACEH,AA13,KF.Pel Simeuleu RSUD Simeulue,Jl. Teuku Raja Mahmud No.1 Kom,082299171850,2.465275,96.376409,23891
3101,UNIT BISNIS BANDA ACEH,AA14,KF.Darsa Darsa,Jl. Darussalam No. 49 B Lhokse,085262857545,5.183343,97.14533,24315
3101,UNIT BISNIS BANDA ACEH,AA15,KF.Lueng Bata Lueng Bata,Jl. Tengku Imuem lueng Bata No,081110678448,5.544886,95.3343768,24392
3101,UNIT BISNIS BANDA ACEH,AA16,KF.Ulka Ulka,"Jl. T. Iskandar, Banda Aceh",082362850232,5.552316,95.349054,23117
3101,UNIT BISNIS BANDA ACEH,AA17,KF. A. Yani Langsa 2,Jl. A. Yani No. 140 A-B Langsa,082261393010,4.474083,97.962133,24454
3101,UNIT BISNIS BANDA ACEH,AA19,KF. Lampeuneurut,Jl. Soekarno Hatta No. 22,081362338987,5.5170442,95.3165006,23238
3101,UNIT BISNIS BANDA ACEH,AA20,KF. Meulaboh,Jl. Gajah Mada No.63,081110678387,4.154698,96.130381,23652
3101,UNIT BISNIS BANDA ACEH,AA24,KF. BATOH,Jl. MR. Mohammad Has,085362001536,5.539729,95.330349,23245
3101,UNIT BISNIS BANDA ACEH,AA27,KlinikMandiriKFTapakTuan,Jln. Merdeka no. 70,08562310677,,,33414
3101,UNIT BISNIS BANDA ACEH,AA33,KF KEUTAPANG,"Jl. Mata Le, Keutapang - Banda Aceh",081110678279,5.514852,95.303493,23352
3101,UNIT BISNIS BANDA ACEH,AA34,KF DRIEN RAMPAK,"Jl. Nasional, Drien Rampak Meulaboh - Aceh",081110678391,4.15021,96.132909,23616
3101,UNIT BISNIS BANDA ACEH,AA35,KF NYAK MAKAM,"Jl. P. Nyak Makam, Ulee Kareng - Banda Aceh",082363265982,5.556179,95.344362,23117
3101,UNIT BISNIS BANDA ACEH,AA36,KF Pel RS Tapaktuan,Jl. Ben Mahmud No 86 A Tapak Tuan- Aceh,082331997447,3.286815,97.1575658,23711
3101,UNIT BISNIS BANDA ACEH,AA37,KF Prada,"Jl. Teuku Nyak Arif, Syiah Kuala, Banda Aceh",085372809997,5.575504,95.347002,23111
3101,UNIT BISNIS BANDA ACEH,AA38,KF Takengon,"Jln Lebe Kader, Kecamatan Bebesan, Kota Takengon, Aceh Tengah",081376893680,4.63358,96.842339,71452
3101,UNIT BISNIS BANDA ACEH,AA39,KF Kota Juang,"Jl. B. Aceh - Medan, Kota Juang, Bireuen",082370051086,5.202362,96.697461,24455
3101,UNIT BISNIS BANDA ACEH,AA41,KF Merdeka Tapaktuan,Jl. Merdeka No. 69-70,082164990692,3.255452,97.180347,23711
3101,UNIT BISNIS BANDA ACEH,AA42,KF Sultan Iskandar Muda,Jl. Nasional Meulaboh - Tapak Tuan,082155844208,4.11854,96.311115,20772
3101,UNIT BISNIS BANDA ACEH,AA4211,PPO RS SIM Nagan Raya,Jl. Meulaboh - Tapaktuan RS Sultan,085275290852,4.118741,96.311673,23661
3101,UNIT BISNIS BANDA ACEH,AA43,KF Punge,"Jl. Sultan Iskandar Muda, Desa Pung",,,,23231
3101,UNIT BISNIS BANDA ACEH,AA44,KF Alfayat,"Jl. Sultan Malikul Saleh No.26, Neusu Aceh, Kec. Baiturrahman, Kota Banda Aceh",,5.5364406,95.310749,23241
3101,UNIT BISNIS BANDA ACEH,AA45,KF Pel RSUD Teungku Peukan Blangpidie,"jln nasional padang, meurante susoh, Kecamaten Blang Pidie, Kabupaten Aceh Barat Daya, Aceh",,3.7391784,96.7967337,23764
3103,UNIT BISNIS BANDUNG,AC01,KF.0010,Jl. Braga No.6,08112157639,-6.92048416,107.6,40111
3103,UNIT BISNIS BANDUNG,AC02,KF.0011,Jl. Supratman No.72,08112157640,-6.904162,107.628706,40122
3103,UNIT BISNIS BANDUNG,AC03,KF.0012,Jl. Merdeka No. 6,08112157641,-6.907161,107.6109,40115
3103,UNIT BISNIS BANDUNG,AC04,KF.0014,Jl. Cihampelas No.7,08112157642,-6.905765,107.604086,40514
3103,UNIT BISNIS BANDUNG,AC05,KF.0043,Jl. Buah Batu No.259,08112157643,-6.945697,107.631542,40264
3103,UNIT BISNIS BANDUNG,AC06,KF.0051,Jl. Ir H. Juanda No.69 Bandung,08112157644,-6.90047,107.612158,67271
3103,UNIT BISNIS BANDUNG,AC07,KF.0058,Jl. Pasir kaliki No.235,08112157645,-6.897407,107.5966668,17350
3103,UNIT BISNIS BANDUNG,AC08,KF.0127,Jl. Raya Ujung Berung No.40,08112157646,-6.914145,107.697997,46156
3103,UNIT BISNIS BANDUNG,AC09,KF.0204,Jl. Abdul Rachmansaleh No. 39,08112157647,-6.907549,107.584005,40174
3103,UNIT BISNIS BANDUNG,AC10,KF.0240,Jl. Rancabolang No.69,08112157648,-6.941234,107.663586,40295
3103,UNIT BISNIS BANDUNG,AC11,KF.0289,"Jalan BKR no. 87, RT. 01 RW. 06",08112157649,-6.93803,107.61486,46198
3103,UNIT BISNIS BANDUNG,AC12,KF.0319,"Jl. Raya Venus No.27, Metro Marga Rahayu",08112157650,-6.941502,107.667472,40295
3103,UNIT BISNIS BANDUNG,AC13,KF.0320 Amanah,Jl. Raya Cinunuk No. 192,08112157651,-6.936844,107.730057,40624
3103,UNIT BISNIS BANDUNG,AC14,KF.0355 Pasteur,Jl. Lemah Neundeut No. 1E,08112157652,-6.882676,107.580994,40164
3103,UNIT BISNIS BANDUNG,AC15,KF.0356,Jl. Banteng No.96,08112157653,-6.933908,107.6225747,40264
3103,UNIT BISNIS BANDUNG,AC16,KF.0360,Jl. Prabu Geusan Ulun No.82 Sumedang,08112157654,-6.856398,107.921927,45311
3103,UNIT BISNIS BANDUNG,AC17,KF.0380 antapani,Jl. Terusan Jakarta No.341,08112157655,-6.9152257,107.6671725,40291
3103,UNIT BISNIS BANDUNG,AC18,KF.0405 Subang,Jl. Otista No. 199,08112157656,-6.557513,107.772009,53271
3103,UNIT BISNIS BANDUNG,AC19,KF.0495 Buah Batu,Jl.Terusan Buah Batu No. 265,08112157658,-6.962392689,107.6386812,40287
3103,UNIT BISNIS BANDUNG,AC20,KF.Gatsu,Jl. Gatot Subroto No. 235,08112157657,-6.928603,107.6375448,40283
3103,UNIT BISNIS BANDUNG,AC21,KF.0498 Sindang Laya,Jl. Raya Sukamiskin No. 126B,08112157659,-6.904892,107.67747,40293
3103,UNIT BISNIS BANDUNG,AC22,KF. MEKARGALIH,"Jl. Raya Rancaekek Dusun Dangdeur, Kel. Mekargalih, Jatinangor, Kab. Sumedang",08112157662,-6.955924,107.77502,43291
3103,UNIT BISNIS BANDUNG,AC23,KF.Setia Budi,"Jl. Setiabudi No. 36, Taman sari , Bandung Wetan",08112157660,-6.88267,107.6010798,44163
3103,UNIT BISNIS BANDUNG,AC24,KF.MELONG,"Jl, Melong Asih No.  67 Bandung",08112157663,-6.9195227,107.5639377,40213
3103,UNIT BISNIS BANDUNG,AC25,KF.Cibaduyut,"Jl, Raya Cibaduyut No. 69B Bandung",08112157661,-6.960158,107.593485,40239
3103,UNIT BISNIS BANDUNG,AC26,KF.Dago UNPAD,Jl. Ir H. Juanda No.248 Bandung,08112157665,-6.882816,107.6146788,40134
3103,UNIT BISNIS BANDUNG,AC27,KF.Sulanjana 4,Jl. Sulanjana No.4 Bandung,08112157664,-6.899894,107.6120876,67271
3103,UNIT BISNIS BANDUNG,AC28,KF.CIUMBULEUIT,Jl. Ciumbuleuit No.73 Bandung,08112157667,-6.88086,107.603546,41151
3103,UNIT BISNIS BANDUNG,AC29,KF Tubagus,Jl. Tubagus Ismail Raya No. 39A,08112157668,-6.884742,107.61901,40134
3103,UNIT BISNIS BANDUNG,AC30,KF Lengkong,Jl. LENGKONG N0.117,08112157670,-6.928741,107.613157,40261
3103,UNIT BISNIS BANDUNG,AC31,KF Bhakti Kencana,Jl. AH Nasution No. 258 C,081110678349,-6.919311873,107.7083914,40614
3103,UNIT BISNIS BANDUNG,AC33,Apotek KF. Jatinangor,Jl. Raya Jatinangor,08112157671,-6.936399,107.762301,41281
3103,UNIT BISNIS BANDUNG,AC34,Apotek KF. Lembang,Jl. Grand Hotel No. 23,08112157669,-6.8170346,107.621039,91413
3103,UNIT BISNIS BANDUNG,AC35,Apotek KF Geger Kalong,Jl. Gegerkalong No.33,08112157684,-6.870137,107.591391,40153
3103,UNIT BISNIS BANDUNG,AC37,Apotek KF 167,Jl. Raya Tagog No.515 Kota Cimahi,08112157672,-6.875343,107.544765,40523
3103,UNIT BISNIS BANDUNG,AC38,Apotek KF 429,Jl. Raya Padalarang No.506 Kab Bandung Barat,08112157675,-6.844604,107.48798,45255
3103,UNIT BISNIS BANDUNG,AC39,Apotek KF 497,Jl. Taman Kopo Indah Raya No. 99B RT 002 RW 003,08112157677,-6.96676,107.57539,40228
3103,UNIT BISNIS BANDUNG,AC40,Apotek KF 381,Jalan Kopo Bihbul No. 7 RT01 RW01,08112157673,-6.961308131,107.5790743,40225
3103,UNIT BISNIS BANDUNG,AC41,Apotek KF Arimbi,Jl. Gunung Batu No.93 Kota Bandung,08112157678,-6.890483,107.563455,21256
3103,UNIT BISNIS BANDUNG,AC42,KF Katapang,"Jl. Terusan Kopo Km. 11 No. 73, Rt.003 Rw.008, Kel. Cilampeni, Kec. Katapang",08112157679,-6.986979,107.559062,53271
3103,UNIT BISNIS BANDUNG,AC43,Apotek KF Cihanjuang,Jl. Daeng Muhamad Ardiwinata No.25 Kota Cimahi,08112157680,-6.876335,107.550265,40513
3103,UNIT BISNIS BANDUNG,AC44,Apotek KF Cijerah Pola,Jl. Cijerah Raya No.225 Kota Bandung,08112157681,-6.926408,107.5653708,40213
3103,UNIT BISNIS BANDUNG,AC45,Apotek KF Koposari,Jl. Kopo Cirangrang No.523 Kota Bandung,08112157682,-6.9548875,107.5838129,40227
3103,UNIT BISNIS BANDUNG,AC46,Apotek KF Sariwangi,Jl. Sariwangi Raya No.132D Parongpong Kab. Bandung Barat,08112157683,-6.8631388,107.5685532,40559
3103,UNIT BISNIS BANDUNG,AC47,KF BUAH BATU 2,Jl. Buah Batu No. 250,08112157686,-6.944396,107.629481,40265
3103,UNIT BISNIS BANDUNG,AC48,KF KOPO 75,Jl. Kopo No. 75,08112157688,-6.931165,107.5964133,40242
3103,UNIT BISNIS BANDUNG,AC49,KF MARGA CINTA,Jl. Marga Cinta No. 58,08112157687,-6.954825,107.643447,40287
3103,UNIT BISNIS BANDUNG,AC50,KF SOREANG,Jl. Raya Soreang,08112157689,-7.018653,107.543912,40914
3103,UNIT BISNIS BANDUNG,AC51,KF BOJONGSOANG,Jl. Bojong Soang No. 85A,08112157690,-6.980281,107.6337118,40512
3103,UNIT BISNIS BANDUNG,AC52,KF CIWIDEY,Jl. Bhayangkara No. 281,08112312071,-7.103789,107.464793,40973
3103,UNIT BISNIS BANDUNG,AC53,KF PARONGPONG,Jl. Raya Kol. Masturi No. 209 Bandung,08112312073,-6.8039395,107.5875915,40559
3103,UNIT BISNIS BANDUNG,AC54,KF M TOHA,Jl. Raya Moh Toha No. 274 Bandung,081110678346,-6.951804,107.610495,40243
3103,UNIT BISNIS BANDUNG,AC57,Apotek KF Stasiun Bandung,Jl. Stasiun Selatan No. 25,08112312076,-6.915825,107.602689,40181
3103,UNIT BISNIS BANDUNG,AC58,KF Mandalajati,Jl. AH Nasution No. 105 Rt.004 Rw.002,08112312470,-6.903931,107.666221,40195
3103,UNIT BISNIS BANDUNG,AC59,KF Cimareme,Jl. Raya Cimareme No.299,08112312476,-6.860253,107.49971,45464
3103,UNIT BISNIS BANDUNG,AC60,KF Padasuka,Jl. Raya Barat No.791,08112312075,-6.868882,107.529341,42173
3103,UNIT BISNIS BANDUNG,AC61,KF Holis,"Jl. Holis No.247, Babakan",085175004038,-6.93666,107.57037,40221
3103,UNIT BISNIS BANDUNG,AC62,KF Antapani 2,Jl.purwakarta no 162 RT/RW 01/04 kelurahan antapani kidul antapani,081110678362,-6.917406,107.657942,
3103,UNIT BISNIS BANDUNG,AC63,KF Parahyangan,"Ruko Pancawarna no 27 Kota Baru Parahyangan, Kelurahan Cipeundeuy",08112312072,-6.86809,107.4675852,40553
3169,UNIT BISNIS BANGKA BELITUNG,CQ01,KF 0118,Jl. Jend. A. Yani No.96Batin T,08117847841,-2.122221,106.10865,33121
3169,UNIT BISNIS BANGKA BELITUNG,CQ02,KF Pel.029 RSUD Pangkal Pinang,Jl. Mayor Syafri Rahman Komp.,,-2.143688,106.125029,33146
3169,UNIT BISNIS BANGKA BELITUNG,CQ03,KF.0503 Suta,Jl.Mentok No 48,08117853185,-2.13311,106.106911,75559
3169,UNIT BISNIS BANGKA BELITUNG,CQ04,KF.0539 Sudirman S Liat,Jl. Jend Sudirman Sungai Liat,08117853187,-1.880442,106.114429,33215
3169,UNIT BISNIS BANGKA BELITUNG,CQ05,KF Sungai Liat 2,,,,,
3169,UNIT BISNIS BANGKA BELITUNG,CQ06,KF Semabung Baru,,,,,
3169,UNIT BISNIS BANGKA BELITUNG,CQ07,KF Sijuk,,,,,
3169,UNIT BISNIS BANGKA BELITUNG,CQ08,KF Sriwijaya,,,,,
3107,UNIT BISNIS BANJARMASIN,AG01,KF.0061,Jl. Veteran No. 51,08115137810,-3.3199127,114.5967686,84119
3107,UNIT BISNIS BANJARMASIN,AG02,KF.0120,"Jl. A. Yani Km 3,5 No. 134",08115137811,-3.32852,114.60941,70235
3107,UNIT BISNIS BANJARMASIN,AG03,KF.0188,Jl. S. Parman No. 42,08115137812,-3.313134,114.589776,70114
3107,UNIT BISNIS BANJARMASIN,AG04,KF.0217,Jl. A. Yani Km 2 No. 136,08115137813,-3.323809,114.601876,29282
3107,UNIT BISNIS BANJARMASIN,AG05,KF.0246 CEMPAKA,Jl. Cempaka Besar No. 18,08115137814,-3.32346,114.58517,70112
3107,UNIT BISNIS BANJARMASIN,AG06,KF.0265,Jl. A. Yani No. 49,081110678364,-3.019471,114.389732,73513
3107,UNIT BISNIS BANJARMASIN,AG07,KF.0336 Antasari,Jl. Pangeran Antasari No. 91,08115137816,-3.327803,114.605813,70234
3107,UNIT BISNIS BANJARMASIN,AG08,KF 383 S.Parman-2,Jalan S.Parman No.161 RT 01/001,08115137817,-3.30455,114.58785,70112
3107,UNIT BISNIS BANJARMASIN,AG09,KF.0433 A Yani 59,"Jl. A.Yani, Pemurus Luar",08115137818,-3.359522,114.633507,70654
3107,UNIT BISNIS BANJARMASIN,AG10,KF 444 Gatsu,Jl. Gatot Subroto,08115137819,-3.3263055,114.6172311,70234
3107,UNIT BISNIS BANJARMASIN,AG11,KF.0546 SUTOYO,Jl. Sutoyo S No.176 B,08115137820,-3.321844,114.576678,70117
3107,UNIT BISNIS BANJARMASIN,AG12,KF.Zahri Saleh,Jl.Sultan Adam No.1 Rt.20 Rw.02,08115137821,-3.304938,114.602051,70122
3107,UNIT BISNIS BANJARMASIN,AG13,KF Handil,"Jl. Trans Kalimantan Handil Bakti Rt. 09 , Kab. Barito Kuala",08115137822,-3.269528,114.601564,70582
3107,UNIT BISNIS BANJARMASIN,AG14,KF Pramuka,Jl.  Pramuka RT 30 Pemurus Luar,08115137823,-3.342962,114.629004,70236
3107,UNIT BISNIS BANJARMASIN,AG15,KF GAMBUT,"Jl.  A. Yani KM 13,8 Gambut, Kab. Banjar",08115137824,-3.403261,114.667637,71315
3107,UNIT BISNIS BANJARMASIN,AG17,KF Belitung Darat,Jl. Belitumg Darat No.38,05114321526,-3.3052928,114.585682,70112
3107,UNIT BISNIS BANJARMASIN,AG18,ApotekKF.Pulpis,Jl. Wad Dhuha Komplek Perkantoran Pulang Pisau,085251959624,-2.793814,114.265232,74861
3107,UNIT BISNIS BANJARMASIN,AG19,ApotekKF.0111,Jl.AYaniTimurNo.10Km34,08115137825,-3.442511,114.827132,70714
3107,UNIT BISNIS BANJARMASIN,AG20,ApotekKF.0179Martapura,"Jl.AYaniKm39,5No.47",08115137826,-3.415487,114.850115,70613
3107,UNIT BISNIS BANJARMASIN,AG21,ApotekKF.0431Mistar,"Jl. H. Mistar Cokrokusumo No.3-4, RT.015/RW.003",08115137839,-3.44751,114.846869,70714
3107,UNIT BISNIS BANJARMASIN,AG22,ApotekKF.0517GuntungPayung,"HQ2X+3PM, Jl. Ahmad Yani Jl. A. Yani",08115137828,-3.449778,114.799343,70724
3107,UNIT BISNIS BANJARMASIN,AG23,ApotekKF.0622Amaco,Jl.PanglimaBaturBarat,081110678405,-3.43879,114.824087,70714
3107,UNIT BISNIS BANJARMASIN,AG25,ApotekKF.0732Pelaihari,Jl.H Boejasin Rt.21,081110678375,-3.80061,114.776536,70814
3107,UNIT BISNIS BANJARMASIN,AG26,ApotekKFKandangan,Jl.PanglimaBaturRt.015Rw.002,08115137831,-2.784411,115.267391,71211
3107,UNIT BISNIS BANJARMASIN,AG27,ApotekKFTanjung,Jl. Ir. PH. Moch. Noor,08115137832,-2.17151,115.41454,71571
3107,UNIT BISNIS BANJARMASIN,AG28,ApotekKFBatulicin,"JL Raya Batulicin NO 153 RT.05 RW.02 Kel. Kampung Baru Kec.Simpang Empat , Tanah Bumbu",08115137833,-3.4252273,116.0045451,29566
3107,UNIT BISNIS BANJARMASIN,AG29,KF LANDASAN ULIN,Jl. A. Yani KM 25 Banjarbaru,08115137834,-3.442725,114.74733,70723
3107,UNIT BISNIS BANJARMASIN,AG31,APT KIMIA FARMA SULTAN ADAM 2,Jl. Sultan Adam No.10,08115137835,-3.29237,114.59923,70123
3107,UNIT BISNIS BANJARMASIN,AG32,APT KIMIA FARMA KOTABARU,Jl. Veteran No.12,08115137836,-3.246135,116.222711,46156
3107,UNIT BISNIS BANJARMASIN,AG33,KF POS Barabai,Jl. IR PHM Noor,08115137837,-2.584491,115.383252,71313
3107,UNIT BISNIS BANJARMASIN,AG34,KF Balangan,Jl. A Yani Rt. 05 Rw.01,08115137838,-2.341548,115.46054,70565
3107,UNIT BISNIS BANJARMASIN,AG36,KF Sungai Danau,Jl. Jend. Ahmad Yani Sungai Danau,082155730970,-3.77778,115.40309,72275
3107,UNIT BISNIS BANJARMASIN,AG37,KF Plajau,"Jl. Transmigrasi Plajau, Baroqah, Kec. Simpang Empat, Kabupaten Tanah Bumbu, Kalimantan Selatan",,-3.4161,115.9886269,72275
3108,UNIT BISNIS BATAM,AH01,KF.0059 Nagoya,Jl. Imam Bonjol Lubuk Baja,081110678377,1.143176,104.01455,29444
3108,UNIT BISNIS BATAM,AH02,KF.0091,Jl. R. Patah No.6,081110678374,1.13732,104.016155,29441
3108,UNIT BISNIS BATAM,AH03,KF.0100,Jl. Seraya - Komp. Ruko Abaditama Blok A-10P,081110678404,1.14864,104.017818,29454
3108,UNIT BISNIS BATAM,AH04,KF.0128,Jl. Ir. Sutami Komp. Pertokoan Wijaya Blok A No.01-02 Sei Harapan,081250300760,1.108624,103.952001,28471
3108,UNIT BISNIS BATAM,AH05,KF.0137,Jl. Sambu Komplek Sagulung Mas Indah Blok B No.3 Batu Aji,081110678502,1.0482,103.951704,29439
3108,UNIT BISNIS BATAM,AH06,KF.0218,Jl. Laksamana Bintan Komp. Taman Santosa Indah Blok B -18 Sei Panas,082283539837,1.1382395,104.0271948,29433
3108,UNIT BISNIS BATAM,AH07,KF.0223,Jl. Gajah Mada Tiban Indah Lestari Blok A No.3 Tiban,082113613345,1.113014,103.983731,29426
3108,UNIT BISNIS BATAM,AH08,KF.0224,Jl. R Suprapto Komp. Muka Kuning Indah II Blok B2 No. 03 Aviari,085173257697,1.049243,103.969523,29438
3108,UNIT BISNIS BATAM,AH09,KF.0230,Jl. Jendral A. Yani Panbil Mall Blok A No.5 Muka Kuning,081110678573,1.073376,104.024864,29444
3108,UNIT BISNIS BATAM,AH10,KF.0269,Jl. Jend. Sudirman Batam Center,081110678462,1.131914,104.049333,29461
3108,UNIT BISNIS BATAM,AH12,KF.0413 Botania,Komplek Ruko Botania Garden Blok A1 No. 1 C,085175099619,1.127744,104.099573,29464
3108,UNIT BISNIS BATAM,AH13,KF.0455 Uban,Jl. Permaisuri Rt 001/007 Kel.  Tanjung Uban Kota Kec. Bintan  Utara,081266713440,1.065126,104.225091,29152
3108,UNIT BISNIS BATAM,AH14,KF.0463 Bengkong,"Jl. Bengkong Ratu , Komplek Bengkong City No. 11",081110678463,1.1558494,104.0237759,29458
3108,UNIT BISNIS BATAM,AH15,KF.0464 Spplaza,Jl. R Suprapto Komplek SP plaza Blok DD No. 8,08110678506,1.042388,103.981308,29439
3108,UNIT BISNIS BATAM,AH16,KF.0488 Tibanimpian,Jl. Gajahmada Komp. Ruko Tiban Impian Blok A - Tiban Batam,081110678499,1.108243,103.965564,29426
3108,UNIT BISNIS BATAM,AH17,KF.0481 Uniba,Jl. Abulyatama Komp. Pertokoan KDA Blok B no 34,081110678373,1.10604,104.081649,29464
3108,UNIT BISNIS BATAM,AH18,KF.634 Tanjung Ucang,"Komplek Tunas Regency Blok A5 No 3A, Kel. Sungai Binti, Sagulung- Batam",,1.047826733,103.9353169,29424
3108,UNIT BISNIS BATAM,AH19,KF S. Kara,Komplek Golden Land Housing Blok L No.03 Batam Center,,1.11036,104.04113,29432
3108,UNIT BISNIS BATAM,AH20,KF M. Legenda,Ruko Legenda Junction Blk BB2 N0.18,087870498858,1.100859,104.058124,29431
3108,UNIT BISNIS BATAM,AH21,KF Dapur 12-Batam,JL.Ruko Buana Niaga No.5-6 Sagulung Batam,,1.034166,103.959057,29439
3108,UNIT BISNIS BATAM,AH22,KF Baloi,Jl.Ruko Wahana 757 No.8 Baloi.,082171343859,1.127253,104.005433,29432
3108,UNIT BISNIS BATAM,AH23,KF TEMBESI,Komplek Pertokoan Buana Impian Blok DD No. 03-04 Kel. Tembesi Kec. Sagulung - Batam,085179906066,1.032065,104.003125,29439
3108,UNIT BISNIS BATAM,AH24,KF MEDITERANIA,Komplek Ruko Taman Mediterania Blok KK4 No. 06-07 RT 001 RW 008 Kel. Baloi Permai Kec. Batam Kota - Batam,085175093910,1.104181,104.06838,29431
3108,UNIT BISNIS BATAM,AH25,KF BENGKONG KOLAM,Komplek Ruko Mini Cahaya Garden Blok B3 No. 08-09 Kel. Sadai Kec. Bengkong - Batam,081110678466,1.145404,104.037234,29432
3108,UNIT BISNIS BATAM,AH26,KF AVIARI 2,Komplek Ruko City Makmur No. 8 Kel Kibing Kec. Batu Aji - Batam,081110678467,1.047387,103.982132,29422
3108,UNIT BISNIS BATAM,AH27,KF JODOH,Komplek Pertokoan Golden Gate Blok A No. 12 A-12 B Kel. Batu Selicin Kec. Lubuk Baja - Batam,07784885785,1.138947,104.001032,29441
3108,UNIT BISNIS BATAM,AH28,KF CIKITSU,Komplek Perumahan Graha Nusa Permai Blok C1 No. 14-15 RT 02 RW XIII Kel. Belian Kec. Batam Kota - Batam,081110678500,1.11528,104.091484,29464
3108,UNIT BISNIS BATAM,AH29,KF SERUNI BATAM,Jl. Raja Haji Fisabilillah Komplek Pertokoan Seruni Indah Blok I-2 No. 9 RT 03 RW 04 Kel. Teluk Tering Kec. Batam Kota - Batam,,1.129788,104.038949,29461
3108,UNIT BISNIS BATAM,AH30,Apotek KF Odessa,Jln. Tengku Sulung. Komplek Ruko Mas Odessa Blok C3 No. 20 - 21. Kelurahan Belian. Kecamatan Batam Kota.,081110678574,1.127317,104.100182,29464
3108,UNIT BISNIS BATAM,AH3011,PPO KF KEK Nongsa,"Jl. Hang Lekiu KM 2 Nongsa, Sambau,",,1.19184,104.09188,29465
3108,UNIT BISNIS BATAM,AH31,KF. CENTER POINT AVIARY,Komplek Ruko Perumnas Muka Kuning Permai I Blok B No. 17-17A Kel. Buliang Kec. Batu Aji - Batam,081110678501,1.052391,103.97194,29438
3108,UNIT BISNIS BATAM,AH32,KF Galaxy Park Marina,Komplek Ruko Galaxy Park Blok C No. 4-5 Kel. Kibing Kec. Batu Aji - Batam,081110678371,1.055624,103.95036,29425
3108,UNIT BISNIS BATAM,AH33,KF Penuin,Komplek Ruko Baloi Kusuma Indah Blok A No. 1 Kel. Lubuk Baja Kota Kec. Lubuk Baja - Batam,082289594919,1.133775,104.007735,29441
3108,UNIT BISNIS BATAM,AH36,KF Tiban Garden,"Komp Tiban Garden Blok C No. 26, Tiban Indah, Sekupang, Batam",085176777848,1.113843,103.977608,29427
3108,UNIT BISNIS BATAM,AH37,KF Golden Prawn,"Perum YKB Bengkong Laut Blok J No. 09, Bengkong Laut, Bengkong, Batam",081110678381,1.159962,104.034584,29458
3108,UNIT BISNIS BATAM,AH40,KF Newton,Komplek Nagoya Paradise Center,082268481281,1.1423229,104.005476,29432
3110,UNIT BISNIS BEKASI,AJ01,KF.0284 Narogong,"Jl. Siliwangi No.45,45 A Bekas",085893713917,-6.264933,106.995378,17114
3110,UNIT BISNIS BEKASI,AJ0111,KF. 284 RESEP SUZ,-,,,,17141
3110,UNIT BISNIS BEKASI,AJ02,KF.0330 Harapan Indah,Jl. Jl. Boulevard Hijau Blok B,081240006150,-6.185959,106.979248,24671
3110,UNIT BISNIS BEKASI,AJ03,KF.0340 Cikarang,"Jl. Kedasih Raya No. 112, Jaba",082130345119,-6.299775,107.160857,45392
3110,UNIT BISNIS BEKASI,AJ0311,KF. 340 RESEP UNI,-,,,,17121
3110,UNIT BISNIS BEKASI,AJ04,KF.0347 Pekayon,Jl. Jaka Setia Ruko Pekayon ka,081110678475,-6.274492,106.977326,17147
3110,UNIT BISNIS BEKASI,AJ05,KF.0367 Jati Asih,Jl. Jati Mekar No.3A Jati Asih,08118840367,-6.287523,106.952997,17423
3110,UNIT BISNIS BEKASI,AJ06,KF.0387 Pondok Gede,Jl. Raya Jatiwaringin No. 5 Po,08111460387,-6.276763,106.912862,17411
3110,UNIT BISNIS BEKASI,AJ07,KF.0400 Galaxy,Jl. Taman Galaxy Raya Blok A3,081110678400,-6.255305,106.968467,17147
3110,UNIT BISNIS BEKASI,AJ08,KF.0446 Narogong,"Jl. Raya Siliwangi, KM. 14 Pan",085156034912,-6.36076,106.976557,43363
3110,UNIT BISNIS BEKASI,AJ09,KF.0507 Cibitung,Jl. Imam Bonjol Rt 001 Rw 01 D,081110678417,-6.273134,107.104659,17530
3110,UNIT BISNIS BEKASI,AJ10,KF.0506 Galuh,"Jl. IR.H.Juanda no 28 B,Bekasi",0895622612778,-6.23948,107.002463,42361
3110,UNIT BISNIS BEKASI,AJ11,KF.0466 Granwis,Jl. Celebration Boulevard Ruko Blok AA 9 No. 51 Lambang Jaya Tambun Selatan,081110678484,-6.282136,107.046347,17510
3110,UNIT BISNIS BEKASI,AJ13,KF.0509 Kemang,Jl. Kemang Pratama AM 02C Rt 0,081110678412,-6.276309,106.988423,17116
3110,UNIT BISNIS BEKASI,AJ15,KF.0461 Tambun,Jl. Mangunjaya kp. Rukem no 94,081110678421,-6.244658,107.063925,45256
3110,UNIT BISNIS BEKASI,AJ16,KF.0534 Cahaya Amelia,Jl.Kh.Muchtar Tabrani No. 3-5,081218358258,-6.221544,107.003513,17122
3110,UNIT BISNIS BEKASI,AJ17,KF.0551 Bosih,"Jl. KH.Bosih Raya No. 80-80E ,",087805994099,-6.258153,107.08487,43273
3110,UNIT BISNIS BEKASI,AJ18,KF.0552 Pilar,Jl. KH.Dewantara No. 10 -11 Ru,082112362114,-6.250832,107.158219,17530
3110,UNIT BISNIS BEKASI,AJ19,KF.0583  Pasadena,"Jl.Tarum Barat Blok Q1 No. 23,",081382589234,-6.3115337,107.1627643,41374
3110,UNIT BISNIS BEKASI,AJ20,KF.0591  Zamrud,Jl. Zamrud Utara Kav. No. 1-2,081280869275,-6.308088,107.02812,17155
3110,UNIT BISNIS BEKASI,AJ21,KF.0624 GGC,"Jl.Ruko Grand Galaxy City, Jak",085814292161,-6.27276,106.973523,17147
3110,UNIT BISNIS BEKASI,AJ22,KF.0618 Kranggan,"Jl.Raya Kranggan No. 38, Kompl",02122853327,-6.372059,106.917824,17433
3110,UNIT BISNIS BEKASI,AJ23,KF.Bintara,"Jl.Bintara Raya No. 1 Bekasi,",081808048959,-6.229501,106.955543,17134
3110,UNIT BISNIS BEKASI,AJ24,KF.Citra Grand,Jl. Alternatif Cibubur City Walk III Blok CW No. 1-2 Cibubur,02122178251,-6.382541,106.924591,17435
3110,UNIT BISNIS BEKASI,AJ25,KF Kalimanggis,"Jl.Kalimanggis No. 24 Cibubur, Kota Bekasi",081399396506,-6.385755,106.912344,17435
3110,UNIT BISNIS BEKASI,AJ26,KF Jati Mekar,Jl. Raya Kudau No. 39 Jatimekar,081110678485,-6.292551,106.939747,40558
3110,UNIT BISNIS BEKASI,AJ27,KF Han Kam,Jln. Raya Hankam No. 2 Jatisampurna,02128671181,,,17421
3110,UNIT BISNIS BEKASI,AJ28,KF. Pejuang Jaya,Jl. Pejuang Jaya Ruko Permata Harapan Baru Blok H/44 Taman Harapan Baru,085947743482,-6.182844,106.988775,24671
3110,UNIT BISNIS BEKASI,AJ29,KF. Wisma Asri,Jl. Raya Perjuangan Blok M. Taman Wisma Asri,081286478050,-6.222195,107.022839,17121
3110,UNIT BISNIS BEKASI,AJ30,KF. Cibarusa,Jl. Raya Cibarusah RT 001 RW 003 Sukaresmi Cikarang Selatan,082123869127,-6.333185,107.121717,17530
3110,UNIT BISNIS BEKASI,AJ3011,PPO KF Suzuki Cikarang,PT. Suzuki Indomobil Motor Kawasan,,,,17340
3110,UNIT BISNIS BEKASI,AJ31,KF Kali Abang Bekasi,Jl.Kali Abang Raya Bekasi Utara.Kota Bekasi,082112578397,-6.202703,107.001869,17122
3110,UNIT BISNIS BEKASI,AJ3111,PPO KF Suzuki Pulogadung,"Jl. Raya Bekasi No.Km. 19, RW.2, Rw",,,,17121
3110,UNIT BISNIS BEKASI,AJ32,KF Jati Rahayu,Jl.Jati Rahayu Bekasi,081110678472,-6.292913,106.918814,17414
3110,UNIT BISNIS BEKASI,AJ35,Apotek KF Jatibening,Jl. Raya Jatibening No. 11 Kota Bekasi Jawa Barat,081110678415,-6.265408,106.944189,17412
3110,UNIT BISNIS BEKASI,AJ36,KF Rawa Lumbu,Jl. Dasa Darma Rawa Lumbu Kota Bekasi,081110679411,-6.278853,106.998989,17116
3110,UNIT BISNIS BEKASI,AJ37,KF Perumnas I,"Jl. Perumnas I, Kranji, Bekasi Barat",081110678402,-6.232788,106.982176,17144
3110,UNIT BISNIS BEKASI,AJ39,KF Kranji 1030,"Jl. Pemuda Kranji No.33, RT.005/RW.013",02189494553,-6.227181455,106.9794844,17133
3110,UNIT BISNIS BEKASI,AJ40,KF KALIMALANG,Jl. K.H. Noer Ali Rt008/005 Kel. Kayuringin Jaya Kec. Bekasi Selatan,081319293631,-6.248044,106.987178,17144
3110,UNIT BISNIS BEKASI,AJ41,KF ZAMRUD 2,"Jl. Zamrud Selatan Blok B1 No. 2, Kel. Padurenan, Kec. Mustika Jaya, Bekasi",081585030571,-6.320822,107.015967,59333
3110,UNIT BISNIS BEKASI,AJ42,KF MGT,"Mutiara Gading Timur II Blok R3 No.22, Kel. Mustika Jaya, Kec. Mustika Jaya, Bekasi",081110678422,-6.286273,107.032317,17158
3110,UNIT BISNIS BEKASI,AJ45,Apotek KF Summarecon,"Cluster Emerald Commercial Blok UA/019 Kel. Marga Mulya, Kec. Bekasi Utara",081110678414,-6.227437,107.003794,17142
3110,UNIT BISNIS BEKASI,AJ46,Apotek KF Fatahillah Bekasi,"Jl. Raya Fatahillah Rt. 003 Rw. 04 Kel. Kalijaya, Kec. Cikarang Barat, Kab. Bekasi",081110678399,-6.264608,107.13735,54352
3110,UNIT BISNIS BEKASI,AJ48,KF Bumi Anggrek,"Jln. Raya Karang Satria, Tambun Utara,Kab. Bekasi, Jawa Barat, - 17551",087783177666,-6.218991,107.033358,17510
3110,UNIT BISNIS BEKASI,AJ49,KF JGC Bekasi,"Jakarta Garden City Ruko Boulevard No 26, Kel. Cakung Timur",085217920982,-6.1742,106.95673,13910
3110,UNIT BISNIS BEKASI,AJ50,KF Mekarsari Bekasi,"Ruko Libersa Park, JI. Agus Salim RT. 003 RW. 007, Kel. Bekasi Jaya, Kec. Bekasi Timur - Kota Bekasi",085217920983,-6.231889923,107.0096603,17111
3112,UNIT BISNIS BOGOR,AL01,KF.0007 Juanda,Jl. Ir. H. Juanda No. 30,085779683857,-6.6000972,106.7944667,16122
3112,UNIT BISNIS BOGOR,AL02,KF.0050,Jl. Merdeka No. 24,081288937476,-6.594562,106.788489,16124
3112,UNIT BISNIS BOGOR,AL03,KF.0110,Jl. Kebon Pedes No. 45,081297211173,-6.5664979,106.7987113,43194
3112,UNIT BISNIS BOGOR,AL04,KF.0113 Tajur Lama,Jl. Raya Wangun No. 240 D,081110678486,-6.6473649,106.839956,46383
3112,UNIT BISNIS BOGOR,AL05,KF.0348 Dramaga,Jl. Dramaga KM 8,08811037001,-6.56669,106.73614,45191
3112,UNIT BISNIS BOGOR,AL06,KF.0362,Jl. Mayor Oking No.112C,087809281811,-6.4717628,106.8625962,16917
3112,UNIT BISNIS BOGOR,AL07,KF.0595 Tajur Baru,Jl. Raya Wangun No. 431,081110678361,-6.653173,106.845878,46383
3112,UNIT BISNIS BOGOR,AL08,KF.0628 Suka Hati,Jl. Raya Sukahati No. 3 Cibino,081110678479,-6.486138,106.817102,16913
3112,UNIT BISNIS BOGOR,AL09,KF.0655 Kusmayadi,Jl. Komplek Perum Cibinong Gri,081110678480,-6.472877,106.820293,16913
3112,UNIT BISNIS BOGOR,AL10,KF.0690,"Jl. Kapten Yusuf , Kota Batu R",081110678478,-6.630803,106.78081,34883
3112,UNIT BISNIS BOGOR,AL11,KF. Sukaraja,"Jl. Raya Pemda, desa Pasir Jambu, Kec. Sukaraja",081996415033,-6.529609,106.809953,16710
3112,UNIT BISNIS BOGOR,AL12,Klinik Cilendek,Jl. Brigjen Saptaji Hadiprawira,,,,
3112,UNIT BISNIS BOGOR,AL14,KF.Cileungsi,Jl.Raya Cileungsi Kabupaten Bogor,082123058998,-6.392032042,106.9572969,16720
3112,UNIT BISNIS BOGOR,AL15,KF Metland,Jl.Raya Cileungsi Kabupaten Bogor,081110678469,-6.40664,106.9759,16820
3112,UNIT BISNIS BOGOR,AL18,KF Cipayung,"Jl. Cipayung Cisarua, Kab. Bogor",087781628360,-6.649379532,106.8994671,16770
3112,UNIT BISNIS BOGOR,AL20,KF Cibanteng,"Jl. Cibanteng Ciampea, Kab. Bogor",082320679990,-6.559451,106.712915,16620
3112,UNIT BISNIS BOGOR,AL21,KF CITEUREUP,"Jl. Mayor Oking Jayaatmaja No. 31 Citeureup, Kab. Bogor",081311256210,-6.4870816,106.8758542,16810
3112,UNIT BISNIS BOGOR,AL22,KF PARUNG,Jl. Raya Parung Bogor,081110678488,-6.429575,106.731647,46185
3112,UNIT BISNIS BOGOR,AL2212,PPO Klinik KF Ya Rahman,Jl. Raya Parung Gunung Sindur No. 2,02518610195,-6.4187711,106.7299444,
3112,UNIT BISNIS BOGOR,AL23,KF Katili,Jl. Raya Dramaga Bogor,089652384590,-6.572664,106.747808,46383
3112,UNIT BISNIS BOGOR,AL24,KF Gunung Putri,"Jl. Raya Gunung Putri, Kab. Bogor",081319046123,-6.454324,106.903694,16962
3112,UNIT BISNIS BOGOR,AL25,Apotek KF Semplak,Jl. Raya Semplak Bogor,081380246991,-6.55955,106.762697,16114
3112,UNIT BISNIS BOGOR,AL26,KF Bojong Gede,Jl. Raya Bojong Gede Bogor,081110678481,-6.487556,106.795661,16922
3112,UNIT BISNIS BOGOR,AL28,KF Ciomas,Jl. Raya Ciomas Kreteg No. 1 Pagelaran Ciomas Bogor,085159433813,-6.601662,106.761034,16610
3112,UNIT BISNIS BOGOR,AL29,KF Ya Rahman,Jl Raya Parung - Gunung Sindur No 2,088297065813,-6.4184176,106.7294281,
3112,UNIT BISNIS BOGOR,AL30,KF Cilendek,"Jl. Brigjen Saptaji Hadiprawira, Kota Bogor Barat,Kota Bogor, Jawa Barat,",085711667027,-6.5741741,106.7699358,
3112,UNIT BISNIS BOGOR,AL31,KF Pasir Kuda,"Jl. RE Abdullah No 12 RT 001/001 ,",082219032800,-6.6006019,106.7768509,
3148,UNIT BISNIS CILEGON,BV01,KF.0140,Jl. SA Tirtayasa No. 12 C,087760096621,-6.014814,106.047806,42414
3148,UNIT BISNIS CILEGON,BV02,KF.0253,"Jl. Yusuf Martadilaga No. 114, Benggala",08979743905,-6.121548,106.155251,42117
3148,UNIT BISNIS CILEGON,BV03,KF.0268 PCI,"Jl. Raya Cilegon, Ruko PCI Blok A4/1",081110678471,-6.034306,106.080885,42422
3148,UNIT BISNIS CILEGON,BV04,KF.0472 A Ayani,Jl. Ahmad Yani No. 57,082210631318,-6.119071,106.162348,44113
3148,UNIT BISNIS CILEGON,BV05,KF.Rangkas Bitung,Jl Multatuli No 27 Rangkas Bitung,0252209385,-6.355661,106.246913,42311
3148,UNIT BISNIS CILEGON,BV06,KF.Pagebangan,Jl. Di Panjaitan No. 2 RT.001/001  Kel Sukmajaya Kec Jombang Pagebangan,08111055514,-6.021383,106.054978,42416
3148,UNIT BISNIS CILEGON,BV07,KF.Kramat Watiu,Jl. Raya Cilegon Serang KM 8,081994010525,-6.063884,106.119729,68218
3148,UNIT BISNIS CILEGON,BV08,KF.Kepandean,Jl. Raya Cilegon No. 40 A,02548487210,-6.110606,106.1443,56374
3148,UNIT BISNIS CILEGON,BV09,KF.Ramayana,Jl. A Yani No. 3    RT 005/003 Kel Sukmajaya Kec Jombang Cilegon,081112525710,-6.02215,106.064415,42416
3148,UNIT BISNIS CILEGON,BV10,KF CIPOCOK,"Jl. Ki Ajurum No.3, Cilaku",02547915673,-6.149488,106.177424,42171
3148,UNIT BISNIS CILEGON,BV11,KF. Ayip Usman,"Jl.Ayip Usman ,Kebaharan",081226502126,-6.100448,106.156144,62282
3148,UNIT BISNIS CILEGON,BV12,KF Bhayangkara Serang,"Jl. Bhayangkara No. 33 RT 04/9, Kel. Cipocok Jaya, Kec. Cipocok, Kota Serang, Banten",085779687120,-6.131238,106.174363,42438
3148,UNIT BISNIS CILEGON,BV13,Apotek KF Ciruas,"Jl. Raya Jakarta, Desa Ranjeng Rt01/Rw01, Kec. Ciruas, Kab. Serang",081119961555,-6.124714,106.228162,42182
3148,UNIT BISNIS CILEGON,BV14,KF Anyer,Jl. Raya Anyer Kab. Serang,082210353705,-6.049948,105.924202,42166
3148,UNIT BISNIS CILEGON,BV15,KF Sudirman Serang,Jl. Sudirman Kemang Serang,02547925365,-6.120593,106.184957,42118
3148,UNIT BISNIS CILEGON,BV16,KF A. Yani Pandeglang,Jl. A. Yani Pandeglang,085215205187,-6.301266,106.109084,42211
3148,UNIT BISNIS CILEGON,BV18,KF Cibeber Cilegon,Jl. Perumnas No. 9-10 Cibeber Cilegon Banten,081380145271,-6.031727,106.06597,42394
3148,UNIT BISNIS CILEGON,BV19,KF Ciceri,"Jl.K.H Fatah Hasan Blok J No.64 Rt.003 Rw.001 Kel. Cipare, Kec. Serang",081119960666,-6.124359,106.168234,42117
3148,UNIT BISNIS CILEGON,BV20,KF Rau,"Jl. Kyai H. Abdul Latif No.41, Cimuncang",081112525010,-6.112506,106.166584,42111
3114,UNIT BISNIS CIREBON,AN01,KF.0040,Jl. Parujakan No. 12,081110678406,-6.717193,108.559293,45118
3114,UNIT BISNIS CIREBON,AN02,KF.0141 Kesambi,Jl. Kesambi No. 132,08112010141,-6.737528,108.549466,45132
3114,UNIT BISNIS CIREBON,AN03,KF.0357,Jl. Siliwangi No. 119,081110678464,-6.70719,108.558828,45121
3114,UNIT BISNIS CIREBON,AN04,KF.0369 Tuparev,Jl. Tuparev No. 85 F,081110678465,-6.711283,108.542173,45153
3114,UNIT BISNIS CIREBON,AN05,KF.0422 Sumber,Jl. Dewi Sartika No. 36 Sumber,081110678378,-6.7586629,108.4759204,45611
3114,UNIT BISNIS CIREBON,AN06,KF.0493 GN Jati Kesambi,Jl. Skesambi No 167B Cirebon,081110678380,-6.731232,108.556323,62192
3114,UNIT BISNIS CIREBON,AN07,KF.0504 Kuningan,Jl. Siliwangi No. 28 Kuningan,081110678504,-6.970781,108.487097,45512
3114,UNIT BISNIS CIREBON,AN08,KF.0531 Perumnas,Jl. Ciremai Raya No.275 Cirebo,081110678372,-6.751221,108.56018,45142
3114,UNIT BISNIS CIREBON,AN09,KF.0594 Indramayu,Jl. Jendral Sudirman No. 95,081110678382,-6.332569,108.330908,45212
3114,UNIT BISNIS CIREBON,AN10,KF.0662 Cakra,"Jl. Pangeran Cakrabuana No.200 Talun Sumber, Talun,Kab. Cirebon, Jawa Barat, - 45171",081110678408,-6.75644,108.508113,45171
3114,UNIT BISNIS CIREBON,AN11,KF.0663 Klayan,"Jl. Raya Sunan Gunungjati No 85, Gunung Jati,Kab. Cirebon, Jawa Barat, - 45151",081110678503,-6.686946,108.548895,45151
3114,UNIT BISNIS CIREBON,AN12,KF.0698 Fatahilah,"Jl. Fatahillah No 12, Weru,Kab. Cirebon, Jawa Barat, - 45154",081110678376,-6.711283,108.504394,45154
3114,UNIT BISNIS CIREBON,AN13,KF.0709 Pemuda,"Jl. Pemuda No 18, Kesambi,Kota Cirebon, Jawa Barat, - 45132",081120035203,-6.7287767,108.5449423,45132
3114,UNIT BISNIS CIREBON,AN14,KF ARJAWINANGUN,"Jl. Palimanan-Jakarta No.24, Arjawinangun,Kab. Cirebon, Jawa Barat, - 45162",081110678505,-6.653954,108.411873,45162
3114,UNIT BISNIS CIREBON,AN15,KF.0780 Jatibarang,"Jl. Raya Bulak No.23 Jatibarang Indramayu, Jatibarang,Kab. Indramayu, Jawa Barat, - 45273",081197408800,-6.475613,108.313065,45273
3114,UNIT BISNIS CIREBON,AN16,KF.0815 Martadinata,"JJl. Re Martadinata No 160 Kab. Kuningan, Jawa Barat, - 45513",08112423092,-6.970042,108.503733,45514
3114,UNIT BISNIS CIREBON,AN17,KF.0829 Karangampel,"Jl. Raya Barat No. 06 , Karangampel,Kab. Indramayu, Jawa Barat, - 45283",081197304444,-6.465614,108.448393,45283
3114,UNIT BISNIS CIREBON,AN18,KF.0830 Jatiwangi,"Jl. Raya Ciborelang No. 86, Jatiwangi,Kab. Majalengka, Jawa Barat, - 45454",081197302222,-6.730927,108.26451,45454
3114,UNIT BISNIS CIREBON,AN19,KF.0923 Majalengka,"Jl. Ahmad Yani No 172, Majalengka,Kab. Majalengka, Jawa Barat, - 45411",081197301111,-6.835815,108.229642,45411
3114,UNIT BISNIS CIREBON,AN20,KF 955 Cikijing,Jl. KH Abdul Fatah No.14 Cikijing,,-7.016469436,108.366361,45466
3114,UNIT BISNIS CIREBON,AN21,KF.0975 Sudirman,"Jl. Jendral Sudirman No 31, Kuningan,Kab. Kuningan, Jawa Barat, - 45511",08112423091,-6.982909,108.479577,66171
3114,UNIT BISNIS CIREBON,AN22,KF Juanda Cirebon,Jl. Ir. H. Juanda No.22,08112423099,-6.708616,108.523636,45453
3114,UNIT BISNIS CIREBON,AN23,KF.1083 Sindang Laut,"Jl. Letjen M.T. Haryono No. 197 , Lemah Abang,Kab. Cirebon, Jawa Barat, - 45183",08112423094,-6.830195,108.626096,45183
3114,UNIT BISNIS CIREBON,AN24,KF Ciledug,Jl. Raya Ciledug,08112403710,-6.906788,108.741879,45188
3114,UNIT BISNIS CIREBON,AN25,KF Karangturi,Jl. Yos Sudarso Blok Karangturi,08112403708,-6.32157,108.32714,45211
3114,UNIT BISNIS CIREBON,AN26,KF Rajagaluh,Jl. Prapatan Rajagaluh,081110678379,-6.782973,108.345954,45472
3114,UNIT BISNIS CIREBON,AN29,KF Cipto,"Jl. Dr Cipto Mangunkusumo No. 22E Kel. Pekiringan, Kec. Kesambi, Cirebon",08112016494,-6.7165737,108.5505905,53355
3114,UNIT BISNIS CIREBON,AN30,KF Haurgelis,"Jl. Jend Sudirman No. 64 Kec. Haurgelis, Kab. Indramayu",08112144551,-6.454937,107.942967,45264
3114,UNIT BISNIS CIREBON,AN31,KF Sultan Ageng,Jl. Sultan Ageng Tirtayasa No.230,082219921446,-6.71128,108.52813,45153
3116,UNIT BISNIS DENPASAR,AP01,KF.0034,Jl. Diponegoro No.125,081138115341,-8.669885,115.215785,80114
3116,UNIT BISNIS DENPASAR,AP03,KF.0066 Pattimura,Jl. Patimura No.59,081138115342,-8.649056,115.22072,80231
3116,UNIT BISNIS DENPASAR,AP04,KF.0102 Tabanan,Jl. Ngurah Rai No.74A,081138200524,-8.552691,115.140811,52464
3116,UNIT BISNIS DENPASAR,AP05,KF.0108 Teuku Umar,Jl.Teuku Umar No.246,081138115344,-8.6811023,115.1986496,80113
3116,UNIT BISNIS DENPASAR,AP06,KF.0125 Singaraja,Jl. A. Yani No. 60,081138115345,-8.11044,115.087719,81116
3116,UNIT BISNIS DENPASAR,AP07,KF.0154 Gatsu,Jl. Gatsu Barat No.32 C,081138115346,-8.639305,115.204306,80118
3116,UNIT BISNIS DENPASAR,AP08,KF.0155,Jl. Hayam Wuruk No.32,081138115347,-8.65723,115.226593,80236
3116,UNIT BISNIS DENPASAR,AP09,KF.0173 Sanur,Jl. Bypass Ngurah Rai No. 214 Sanur,081138115348,-8.6773094,115.2586158,80227
3116,UNIT BISNIS DENPASAR,AP10,KF.0190 Ubud,Jl. Raya Peliatan No.100,081138115349,-8.521903,115.268253,80571
3116,UNIT BISNIS DENPASAR,AP11,KF.0192 G Sangiang,Jl. G.Sanghyang No.23 C,081110678454,-8.64854,115.184676,80117
3116,UNIT BISNIS DENPASAR,AP12,KF.0200 Tohpati,Jl.WR Supratman No.303,085337811316,-8.639326,115.25321,80237
3116,UNIT BISNIS DENPASAR,AP13,KF.0211 Sesetan,JL. RAYA SESETAN NO. 143 DENPASAR,08814687591,-8.693026,115.218233,80223
3116,UNIT BISNIS DENPASAR,AP14,KF.0235 Imam B,Jl. Iman Bonjol No.66,081138115353,-8.664916,115.207113,80119
3116,UNIT BISNIS DENPASAR,AP15,KF.0276 Manyar,Jl. Cokroaminoto. No.410,081138115354,-8.617887,115.196083,80116
3116,UNIT BISNIS DENPASAR,AP16,KF.0286 Padang Asri,Jl.Tangkuban Perahu I No. 70,081138115355,-8.66131,115.18104,80117
3116,UNIT BISNIS DENPASAR,AP17,KF.0414 Gunung Agung,Jl. Gunung Agung No. 88,081138115356,-8.652366,115.201543,80118
3116,UNIT BISNIS DENPASAR,AP18,KF.0520 TBN2,"JL. PAHLAWAN NO.15,",081110678457,-8.5399964,115.130126,82111
3116,UNIT BISNIS DENPASAR,AP19,KF.0532 SINGA2,Jl. Ngurah Rai No. 67 C Kel. B,081138115358,-8.112787,115.091166,81113
3116,UNIT BISNIS DENPASAR,AP20,KF.Monang Maning,Jl.Batu Karu No.72 Monang Mani,081138115359,-8.659296,115.203014,80119
3116,UNIT BISNIS DENPASAR,AP21,KF 0642 Danau Poso,Jl. Danau Poso No. 67 D,081138115360,-8.7055037,115.2523954,80227
3116,UNIT BISNIS DENPASAR,AP22,KF.Pakerisan,Jl.Tukad Pakerisan No.99X  Den,081138115361,-8.692966,115.226272,80225
3116,UNIT BISNIS DENPASAR,AP23,KF 677 Ubud 2 Teges,"Jl. Raya Teges No. 01A, Peliatan, Ubud Gianyar",081138115362,-8.524004,115.273479,80571
3116,UNIT BISNIS DENPASAR,AP24,KF. Ubud3 HANOMAN,Jl.Hanoman No.49 Ubud Gianyar,081138115363,-8.5173757,115.2634924,80571
3116,UNIT BISNIS DENPASAR,AP25,KF GATSU  2,Jl.Gatot Subroto No.18B Denpasar,081138115364,-8.635992,115.219333,80231
3116,UNIT BISNIS DENPASAR,AP26,KF 777 Klungkung,"Jln. Flamboyan No. 52A, Semarapura Kauh, Klungkung",081138115366,-8.5409198,115.3927055,80716
3116,UNIT BISNIS DENPASAR,AP27,KF TAMBLINGAN 2,Jl. Danau Tamblingan No.20 Sanur,081138115365,-8.6964591,115.263667,80228
3116,UNIT BISNIS DENPASAR,AP28,KF BATUBULAN,Jl.Raya Batu Bulan No.63 X Gianyar,081110678461,-8.6228233,115.2566752,84371
3116,UNIT BISNIS DENPASAR,AP29,KF TABANAN 3,Jl. Ahmad Yani No. 5 Kediri Tabanan,081138115368,-8.556036,115.144093,52464
3116,UNIT BISNIS DENPASAR,AP30,KF ABIANBASE,Jl. Raya Abianbase Kapal,081138115369,-8.600567,115.172953,80515
3116,UNIT BISNIS DENPASAR,AP31,KF Tukad Yeh Aya,Jl.Tukad Yeh Aya Renon Denpasar Selatan,081138115370,-8.676946,115.237867,80226
3116,UNIT BISNIS DENPASAR,AP32,KF 939 Tukad Balian,Jl. Tukad Balian No 123 Renon,081138115371,-8.6882223,115.2398456,80221
3116,UNIT BISNIS DENPASAR,AP33,KF Marlboro,Jl. Teuku Umar Barat,081138115372,-8.681853,115.19291,80119
3116,UNIT BISNIS DENPASAR,AP34,KF Danau Buyan,Jl. Danau Buyan No.13 Sanur,081138115374,-8.68161,115.25429,80228
3116,UNIT BISNIS DENPASAR,AP35,KF G. Sangiang 2,Jl. Gunung Sangiang,081138115373,-8.646383,115.173461,80361
3116,UNIT BISNIS DENPASAR,AP36,KF BATUAN GIANYAR,Jl. Raya Sakah No.27X Gianyar,081138115376,-8.5809549,115.2777288,69451
3116,UNIT BISNIS DENPASAR,AP37,KF TABANAN 4,Jl. Gatot Subroto No. 4 Sanggula,081138115375,-8.545066,115.141802,52464
3116,UNIT BISNIS DENPASAR,AP38,KF Celuk,Jl. Raya Celuk No. 81X,,-8.58602,115.26269,80582
3116,UNIT BISNIS DENPASAR,AP39,KF UBUD 5 PENGOSEKAN,Jl. Raya Pengosekan Ubud,081110678490,-8.524885,115.263674,80571
3116,UNIT BISNIS DENPASAR,AP40,KF SEMEBAUNG GIANYAR,Jl. Mahendradata No. 15 Gianyar,081139001509,-8.534957,115.307117,80581
3116,UNIT BISNIS DENPASAR,AP45,APT.KF.07 NANGKA UTARA,Jl. Nangka Utara No. 273A,081138002780,-8.628983,115.223985,80239
3116,UNIT BISNIS DENPASAR,AP46,APT.KF.IMAM BONJOL 2,Jl. Imam Bonjol No. 515B,081139001510,-8.6960926,115.1866658,80119
3116,UNIT BISNIS DENPASAR,AP47,KF Buana Raya,"Jl. Buana Raya No.18, Kel. Padang Sambian, Kec. Denpasar Barat, Denpasar",081138215642,-8.660061,115.187569,80117
3116,UNIT BISNIS DENPASAR,AP48,KF Monkey Forest,"Jl. Wanara Wana, Desa Ubud, Gianyar",081138301551,8.514743,115.260299,80571
3116,UNIT BISNIS DENPASAR,AP49,KF Karangasem,Jalan Untung Surapati No.88x,081138302038,-8.4439211,115.6008623,80811
3116,UNIT BISNIS DENPASAR,AP50,KF Danau Tamblingan 1,"Jl. Danau Tamblingan No. 80 Sanur,",081138302039,-8.6888342,115.2632251,80221
3116,UNIT BISNIS DENPASAR,AP51,KF Ubud Raya,Jl. Ubud Raya No.1,,-8.508559,115.26645,80571
3113,UNIT BISNIS DEPOK,AM01,KF.0143,Jl. Margonda Raya No. 154A,081110678334,-6.388452,106.826727,16423
3113,UNIT BISNIS DEPOK,AM02,KF.0202,Jl. Kejayaan Raya Blok IX No.2,081110678335,-6.391537,106.851822,16417
3113,UNIT BISNIS DEPOK,AM0212,PPO KF 202 T Iskandar,Jl.Tole Iskandar No.17,081399930204,-6.405127,106.8469191,16411
3113,UNIT BISNIS DEPOK,AM03,KF.0352 Margonda,Jl. Margonda Raya No. 326,081110678325,-6.3755,106.832461,16423
3113,UNIT BISNIS DEPOK,AM04,KF.0366 Maharaja,Ruko Maharaja Blok A1/03 Rt 001/002,081110678336,-6.394824,106.794152,21464
3113,UNIT BISNIS DEPOK,AM0411,PPO KF 366,Ruko Maharaja Blok A1 No. 03,,-6.39528,106.803802,16511
3113,UNIT BISNIS DEPOK,AM05,KF.0375 Kartini,Jl. Raya Citayam RT 001 RW 002,081110678337,-6.406097,106.819013,16436
3113,UNIT BISNIS DEPOK,AM06,KF.0382 K2,Jl. Akses UI No.45C,081110678339,-6.354643,106.845539,54474
3113,UNIT BISNIS DEPOK,AM0611,PPO KF 382,Jl. Komjen. Pol. M. Jasin No.59,08119980354,,,16451
3113,UNIT BISNIS DEPOK,AM07,KF.0389,Jl. Nusantara Raya No. 33,081110678340,-6.397878,106.81376,16432
3113,UNIT BISNIS DEPOK,AM08,KF.0391,Jl. Kemakmuran Raya No.8 RT 001 RW 001,081110678341,-6.400468,106.836453,38764
3113,UNIT BISNIS DEPOK,AM09,KF 0394 Melati,"Jl. Melati No.14, RT.004/RW.010, Depok, Kec. Pancoran Mas, Kota Depok, Jawa Barat",081110678394,-6.399471,106.821284,16431
3113,UNIT BISNIS DEPOK,AM10,KF.0456 Cinere,Jl. Limo Raya No 101 A-B,081110678342,-6.35091,106.776365,16515
3113,UNIT BISNIS DEPOK,AM11,KF.0494 Beji,JL. Nusantara Raya no.208 RT 04 RW 09 BEJI,081110678395,-6.385828,106.814476,57384
3113,UNIT BISNIS DEPOK,AM12,KF.0491 Sawangan,Jl. Raya Muchtar No. 76E,081110678343,-6.40640626,106.75663,16511
3113,UNIT BISNIS DEPOK,AM13,KF.0568 Bojong Sari,Jl. Raya Parung Ciputat RT 01/,081310664684,-6.399246,106.742878,16516
3113,UNIT BISNIS DEPOK,AM14,KF.YUSUF Depok,Ruko Pesona Khayangan Blok B No 6 RT 012 RW 028,0811902064,-6.381447,106.841781,38764
3113,UNIT BISNIS DEPOK,AM15,KF SENTOSA,Jl.  Sentosa Raya No 11 Sukmajaya Depok,081110678338,-6.394091,106.837088,38764
3113,UNIT BISNIS DEPOK,AM16,KF T ISKANDAR,Jl.Tole Iskandar No.17,081399930204,-6.405186,106.846957,42416
3113,UNIT BISNIS DEPOK,AM17,KF. 0757,Jl. Raya Sawangan No.RT 003/009,081110678327,-6.395888432,106.7774339,16434
3113,UNIT BISNIS DEPOK,AM18,KF PEKAPURAN,Perumahan Permata Arcadia Blok R No.6,081110678332,-6.402632124,106.882117,42186
3113,UNIT BISNIS DEPOK,AM19,KF Radar Auri,"Jl. Radar Auri, Kel Cisalak Pasar, Cimanggis, Kota Depok, Jawa Barat",085779492694,-6.372455675,106.8657579,16451
3113,UNIT BISNIS DEPOK,AM20,KF Raya Bogor,Jl. Raya Bogor KM 29 No 9 RT.004 RW.001,085311975773,-6.358281433,106.8594281,43273
3113,UNIT BISNIS DEPOK,AM21,KF Cilodong,Jl. Jatimulya No. 1 Toko No. 1B Rt 006/004,081110678330,-6.444148,106.829987,45595
3113,UNIT BISNIS DEPOK,AM22,KF KUKUSAN,Jl. KH. M. Usman No. 59,081110678331,-6.362151,106.816711,16425
3113,UNIT BISNIS DEPOK,AM23,KF TRANS STUDIO MALL,JL. Alternatif Cibubur No.29,082125989920,-6.375626244,106.9014493,16454
3113,UNIT BISNIS DEPOK,AM24,KF Ratu Jaya,"Jl, Raya Ratu Jaya Kel Ratu Jaya",08119221819,-6.413727562,106.8159859,16439
3113,UNIT BISNIS DEPOK,AM25,KF Pondok Duta,Jl. Pondok Duta Raya No.1 Rt. 05 Rw. 01,081290896654,-6.372153,106.853788,54474
3113,UNIT BISNIS DEPOK,AM26,KF RTM Tugu,Jl. RTM no.13,082213059309,-6.361854,106.84313,54474
3113,UNIT BISNIS DEPOK,AM27,KF Adelina Sawangan,Jl. H. Sulaiman No.1-2 RT 001/016,081110678328,-6.403558,106.770562,62271
3113,UNIT BISNIS DEPOK,AM2711,PPO KF Adelina Sawangan 0757,Jl. Raya Sawangan No.RT 003/009,081110678327,-6.395888432,106.7774339,16431
3113,UNIT BISNIS DEPOK,AM28,KF Boulevard GDC,Jl. Boulevard Kota Kembang Ruko No.12,081110678329,-6.420307969,106.8285874,16412
3113,UNIT BISNIS DEPOK,AM31,KF Adelina Tanah Baru,"Perumahan Exclusive Tanah Baru No. 2, RT.006/001",08119708994,-6.383228,106.80759,16421
3113,UNIT BISNIS DEPOK,AM32,KF Leuwinanggung,Jl. Kramat Rt 004 Rt 002,085175013798,-6.407177119,106.9046762,16451
3126,UNIT BISNIS GORONTALO,AZ01,KF.0251,Jl. A. Yani No. 25,081110678519,0.539828338,123.0607698,96115
3126,UNIT BISNIS GORONTALO,AZ02,KF.0272,Jl. Botutihe No. 1,082290142337,0.537574176,123.061049,96114
3126,UNIT BISNIS GORONTALO,AZ03,KF. HB JASSIN GORONTALO,Jl. HB. Yasin No. 005,081110678521,0.55525384,123.0493834,96128
3126,UNIT BISNIS GORONTALO,AZ04,KF.Limboto,"Jl. Ahmad A. Wahab, Kayubulan",082290142287,0.626726,122.984853,96272
3126,UNIT BISNIS GORONTALO,AZ05,KF.Telaga,Jl. Limboto Raya Desa Bulila K,081354762892,0.578971342,123.0457198,96266
3126,UNIT BISNIS GORONTALO,AZ06,KF JDS,Jl.  Pangeran Hidayat 1,081110678513,0.558712,123.0655576,96129
3126,UNIT BISNIS GORONTALO,AZ07,KF. Kartini,Jl. HB. Jasin Kel. Limba U2 Kec. Kota Selatan,085395602297,0.5435864,123.0576789,96115
3126,UNIT BISNIS GORONTALO,AZ08,KF. Marissa,Jl. Trans Sulawesi Desa. Marisa Utara Kec. Marisa,082194918266,0.467726927,121.9388198,96466
3126,UNIT BISNIS GORONTALO,AZ09,KF. Sudirman,-,08117808270,-2.96864,104.749524,30126
3126,UNIT BISNIS GORONTALO,AZ10,KF PEL RSUD ALOEI SABOE,"Jl. Prof. DR Aloei Saboe Kel. Wongkaditi, Kec. Kota Utara",082195697315,0.55517734,123.0839755,96122
3126,UNIT BISNIS GORONTALO,AZ11,KF MADURA GORONTALO,Jl. Madura Kelurahan Liluo Kec. Kota Tengah,081110678520,0.567135,123.054532,96129
3126,UNIT BISNIS GORONTALO,AZ13,KF Pel RSUD Toto Kabila,"Jl. Kesehatan No.25, Permata, Kabila, Kabupaten Bone Bolango, Gorontalo 96129",082195587731,0.57423447,123.0987356,96585
3126,UNIT BISNIS GORONTALO,AZ14,KF Pel RSUD Dunda,Jl. Ahmad A Wahab Kel Hunggaluwa,081236954789,0.623846,122.976757,96525
3144,UNIT BISNIS GRESIK,BR01,KF.0164 RA Kartini,Jl. RA kartini No.150-152,081110678508,-7.16867,112.647623,54391
3144,UNIT BISNIS GRESIK,BR02,KF.0321,Jl. Lamongrejo No. 125,081110678509,-7.1130403,112.4172092,62364
3144,UNIT BISNIS GRESIK,BR03,KF.0492 IBNUSINA,Jl. Ruko Green Garden Regency.A2-5,081110678492,-7.167271,112.5978893,61124
3144,UNIT BISNIS GRESIK,BR04,KF.0643 Manyar,Jl. Raya Manyar 55,081110678510,-7.121803,112.603475,61151
3144,UNIT BISNIS GRESIK,BR05,KF.0668 Menganti,Jl. Raya Menganti 169,081110678511,-7.29403,112.586573,62292
3144,UNIT BISNIS GRESIK,BR06,KF Usman Sadar,Jl. Usman Sadar No. 98,0895622273949,-7.156466,112.649016,57455
3144,UNIT BISNIS GRESIK,BR07,KF GKB,"Jl. Sumatra No.31B, GKB, Yosowilangun, Manyar",085733501540,-7.156354,112.615265,61151
3144,UNIT BISNIS GRESIK,BR08,KF 906 Cangkir,"Jl. Raya Cangkir KM. 22, Kel. Bambe, Kec. Driyorejo, Kab. Gresik, Jawa Timur, Indonesia Kode Pos",085853422006,-7.3663584,112.6312878,61177
3144,UNIT BISNIS GRESIK,BR09,Apotek KF Driyorejo,"Jl. Batu Mulia, Mulung, Driyorejo, Kab. Gresik, Jawa Timur",082260555502,-7.335539,112.637301,61177
3144,UNIT BISNIS GRESIK,BR10,KF. Babat,"Jl. Raya Babat, Banaran, Kab. Lamongan, Jawa Timur",081110678512,-7.10462,112.165982,62271
3144,UNIT BISNIS GRESIK,BR11,Apotek KF Bojonegoro,"Jl. Diponegoro No. 77 Sukorejo, Kab. Bojonegoro, Jawa Timur",081110678516,-7.154136,111.882342,68411
3144,UNIT BISNIS GRESIK,BR1101,Klinik KF Bojonegoro,JL. DIPONEGORO NO. 77,0353881539,,,62111
3144,UNIT BISNIS GRESIK,BR12,KF Blimbing Lamongan,Jl. Raya Daendels 117 Blimbing - Lamongan,082228058626,-6.874436,112.29798,52364
3144,UNIT BISNIS GRESIK,BR13,KF Sukomulyo Gresik,"Jl. Kalimantan No. 17, GKB, Sukomulyo, Gresik",082139810709,-7.136917,112.617041,56163
3144,UNIT BISNIS GRESIK,BR14,Apotek KF Cerme Gresik,Jl. Raya Cerme Lor No. 1 Kec. Cerme Kab. Gresik,081335771734,-7.228468,112.567973,61171
3144,UNIT BISNIS GRESIK,BR15,KF Balongpanggang Gresik,"Jl. Raya Balongpanggang No. 14, Kec. Balongpanggang, Kab. Gresik",081110678515,-7.268008,112.446553,61173
3144,UNIT BISNIS GRESIK,BR16,KF Sidayu,Jl. Raya Sidayu Panceng Gresik,,-6.990797,112.563578,61153
3133,UNIT BISNIS JAMBI,BG01,KF.0117,Jl. Abunjani No.78,082289669996,-1.616497,103.59261,22465
3133,UNIT BISNIS JAMBI,BG02,KF.0208,jln. Sultan agung Rt.10,,,,36133
3133,UNIT BISNIS JAMBI,BG03,KF.0244,Jl. H. Adam Malik No. 189RT. 23Beringin - Jambi - 36138,082373475672,-1.6324787,103.624243,36138
3133,UNIT BISNIS JAMBI,BG04,KF.0299,Jl. R. Mattaher No.40,081110678493,-1.5941569,103.6142818,25584
3133,UNIT BISNIS JAMBI,BG05,KF.Pel027 RSUD dr. Mataher,Jl. Let.Jend. Suprapto No.31,081233189499,-1.602014,103.579903,36122
3133,UNIT BISNIS JAMBI,BG06,KF.Mayang,Jl. Skrd Syahbudin No.50 Kel. Mayang,085380208297,-1.638698,103.580871,36129
3133,UNIT BISNIS JAMBI,BG07,KF Thehok,Jl. Jenderal Sudirman No. 27 - 28 Thehok - Jambi,0813 68013816,-1.615632,103.627492,36139
3133,UNIT BISNIS JAMBI,BG08,KF. Muara Bungo,Jl. Muhammad Yamin - Muara Bungo,082281818491,-1.484239,102.116665,37211
3133,UNIT BISNIS JAMBI,BG09,KF. Nusa Indah,Jl. Kapten Pattimura No. IC Rt,082114525741,-1.6205495,103.5834553,21273
3133,UNIT BISNIS JAMBI,BG10,KF SIMPANG RIMBO,Jl. Patimura Rt02,082289390599,-1.619241,103.557187,
3133,UNIT BISNIS JAMBI,BG11,Apotek KF Talang Banjar,"Jl. Orang Kayo Hitam - Sulanjana, Pasar Jambi - Kota Jambi",082299980484,-1.596377,103.624097,36144
3133,UNIT BISNIS JAMBI,BG13,KF Kebun Handil,"Jl. D.I. Panjaitan No. 16 RT 19 Kebun Handil, Kel. Jelutung, Kec. Jelutung, Jambi",081271608855,-1.6173116,103.6172428,36137
3133,UNIT BISNIS JAMBI,BG15,KF Sudirman Jambi,Jl. Jenderal Sudirman No. 13 RT 4 Jelutung – Kota Jambi,081110678575,-1.6026944,103.6187277,36133
3133,UNIT BISNIS JAMBI,BG16,KF Pasir Putih,Jl. RB. Siagian No. 16 RT 09,082181461006,-1.6223659,103.6401151,36131
3117,UNIT BISNIS JAYA I,AQ01,KF.0042 Blok M,Jl. St.Hasanuddin No. 1,082111137613,-6.2439459,106.7961223,12160
3117,UNIT BISNIS JAYA I,AQ0123,PPO Tokopedia Marketplace Blok M,Jl. St.Hasanuddin No. 1,0895324874355,-6.2439459,106.7961223,12110
3117,UNIT BISNIS JAYA I,AQ0126,PPO KF First Care,Jl. Panglima Polim III No.5 Melawai,,-6.252142245,106.800453,12110
3117,UNIT BISNIS JAYA I,AQ03,KF.0055 Keb Lama,Jl. Kebayoran Lama 18 A RT. 02 RW. 11,081294703845,-6.229435,106.778917,12210
3117,UNIT BISNIS JAYA I,AQ0311,PPO Klinik KF PLN Gambir,"Jl. M.I. Ridwan Rais No.1, RT.7/RW.Jl. M.I. Ridwan Rais No.1, RT.7/RW.1, Gambir, Jakarta Pusat",082299781278,-6.243996,106.798324,10110
3117,UNIT BISNIS JAYA I,AQ0312,PPO KF PLN Gandul,Kuttab Ar-Rahman . Jl. Ehave No. 01,,-6.345732743,106.7853707,16512
3117,UNIT BISNIS JAYA I,AQ04,KF.0096 Kemanggisan Raya,"Jl. Kemanggisan Raya No. 26C, Jakarta Barat, DKI Jakarta",081219689796,-6.1972642,106.7800805,11610
3117,UNIT BISNIS JAYA I,AQ05,KF.0152 Ps Minggu,Jl. Pasar Minggu Raya Km 19 No,081219110241,-6.275327,106.845688,12510
3117,UNIT BISNIS JAYA I,AQ06,KF.0254 Pos Pengumben,Jl. Raya Pos Pengumben Blok I No.11,081219112426,-6.216876,106.76983,11560
3117,UNIT BISNIS JAYA I,AQ0611,PPO Klinik KF 254,Jl. Pos Pengumben Raya Blok I No 11 Kebon Jeruk,087877241405,-6.2168789,106.769828,11510
3117,UNIT BISNIS JAYA I,AQ07,KF.0267 Bintaro,Jl. Bintaro Utama V Blok EB I,082116323140,-6.270478,106.730668,15412
3117,UNIT BISNIS JAYA I,AQ08,KF.0282 Ks Tubun,Jl.Aipda KS Tubun No.83 Rt.02 Rw.07,085774808087,-6.19926,106.80121,11410
3117,UNIT BISNIS JAYA I,AQ10,KF.0364 Cilandak KKO,"Jl. Cilandak KKO No. 7 RT.04 RW 05, Ragunan",081219400280,-6.295584,106.81565,12550
3117,UNIT BISNIS JAYA I,AQ11,KF.0006 Pejompongan,Jl. Danau Tondano No. 1,081219412557,-6.20757,106.806802,10210
3117,UNIT BISNIS JAYA I,AQ12,KF.0298 Benhil,"Jl. Bendungan Hilir Raya No.60. Tanah Abang, Kota Jakarta Pusat. DKI Jakarta - 10270",081229990298,-6.213179,106.812559,10210
3117,UNIT BISNIS JAYA I,AQ13,KF.0219 St Gintung,Jl. Ir. H. Juanda No. 111 A,087771236790,-6.3052446,106.7576303,34159
3117,UNIT BISNIS JAYA I,AQ14,KF.0452 Cilandak,"Jl. Wijaya Kusuma No.2 , Jakarta Selatan",082125973747,-6.301513299,106.7955118,12430
3117,UNIT BISNIS JAYA I,AQ15,KF.0447 Cirendeu,Jl. Cirendeu Raya No. 27C Cipu,085779684084,-6.323555,106.767183,15419
3117,UNIT BISNIS JAYA I,AQ16,KF.0510 Lt.Ag,Jl. Raya Lenteng Agung No. 131 E Rt 01 Rw 08,081292317334,-6.334739,106.835751,12630
3117,UNIT BISNIS JAYA I,AQ17,KF.0527 Srengseng,Jl. Srengseng Sawah No.99,081219101247,-6.345324,106.826097,12640
3117,UNIT BISNIS JAYA I,AQ18,KF.0535 Ciputat Raya,"Jl. Ciputat Raya BB No. 5 , Jakarta Selatan 12310",085779684071,-6.278081,106.772742,12310
3117,UNIT BISNIS JAYA I,AQ19,KF.0550 Taman Palem,City Resort Residence Rukan Miami Blok C 17 E RT 007 RW 014,081219354363,-6.136956,106.73253,11730
3117,UNIT BISNIS JAYA I,AQ20,KF.0563 Utama,Jl. Utama Raya No. 44 Cengkareng,082125951089,-6.149728,106.723855,11730
3117,UNIT BISNIS JAYA I,AQ21,KF.0581 Bangka Raya,"Jl. Raya Bangka No. 50, Mampan",081110678582,-6.248275,106.815053,12720
3117,UNIT BISNIS JAYA I,AQ22,KF.0652 Ceger,Jl.Ceger Raya No.9B Pondok Are,081776952673,-6.26289,106.734752,15222
3117,UNIT BISNIS JAYA I,AQ23,KF.Karang Tengah,Jl. Raden Saleh No. 4 B Karang,082140662677,-6.222763,106.705643,16810
3117,UNIT BISNIS JAYA I,AQ24,APT.055 OSHCS,"Jl.Kebayoran Lama No 50,RT/RW. 001/001",081212365088,-6.226488,106.778291,11560
3117,UNIT BISNIS JAYA I,AQ2402,Optik KF.055 OSHCS,Jln. Raya Kebayoran Lama No. 50,,-6.226541,106.776118,12210
3117,UNIT BISNIS JAYA I,AQ2411,PPO OPTIK KF.0055 OSHCS,Jln. Raya Kebayoran Lama No. 50,,-6.2265514,106.7781906,12210
3117,UNIT BISNIS JAYA I,AQ26,KF. Greenlake,Jl.Boulevard Raya Ruko Cordoba Blok B No.8-9,081219529196,-6.185539,106.702718,70815
3117,UNIT BISNIS JAYA I,AQ2916,PPO VM Halte Transjakarta Puri Beta 2,"Karang Tim., Kec. Karang Tengah, Ko",,-6.2192305,106.7167935,15157
3117,UNIT BISNIS JAYA I,AQ34,KF. Warung Buncit,"Jl. Warung Buncit Raya No.502, RT.10/RW.5",081327762446,-6.2706717,106.8306511,12740
3117,UNIT BISNIS JAYA I,AQ35,Klinik Mandiri KF Kampung Sawah,Jl. Ki Hajar Dewantoro No. 189 Kamp,0217446549,,,15412
3117,UNIT BISNIS JAYA I,AQ37,KLINIK MANDIRI KF BPOM,Jl. Percetakan Negara No. 23 Jakarta Pusat,,,,10530
3117,UNIT BISNIS JAYA I,AQ39,Klinik Mandiri KF Joglo,"Jl. Joglo Raya No 117, Kembangan -",02125680447,,,11610
3117,UNIT BISNIS JAYA I,AQ42,KLINIK MANDIRI KF PLN GAMBIR,"Jl. M.I. Ridwan Rais No.1, RT.7/RW.1, Gambir, Jakarta Pusat",,,,10110
3117,UNIT BISNIS JAYA I,AQ44,KF Duren Tiga,Kindo Square Blok A1+ Jl. Duren Tiga Raya No.101 RT 012 RW 005,081287800597,-6.2542,106.834167,12760
3117,UNIT BISNIS JAYA I,AQ45,KF 1088 Fatmawati,"Jl. RS Fatmawati, Cipete Selatan,",0212354874,,,12110
3117,UNIT BISNIS JAYA I,AQ47,KF 47 PREMIER,Jl. Radio Dalam Raya No. 1S RT 02 RW 08,081110678579,-6.255766,106.790451,12140
3117,UNIT BISNIS JAYA I,AQ4711,PPO KF Pakubuwono,"Apartemen Pakubuwono Residence, Jl.",,-6.2372927,106.7866479,12110
3117,UNIT BISNIS JAYA I,AQ4811,PPO Klinik KF Lions Club,"Jl. Raya Pluit Timur Kav B2 Pluit,",,,,14310
3117,UNIT BISNIS JAYA I,AQ49,KF KAHFI I,"Jl. Mohammad Kahfi I, Rt.005/001, Jakarta Selatan",081110678577,-6.329418,106.808901,12630
3117,UNIT BISNIS JAYA I,AQ58,Klinik Mandiri KF Season City,Seasons City mall lantai 2 Jl Professor Dr.Latumeten No.33,022638081,-6.1690266,106.7290939,11210
3117,UNIT BISNIS JAYA I,AQ63,Klinik Mandiri KF Mutiara Cawang,"Jl. Cawang Baru Utara No. 18, Cipinang Cempedak, Jatinegara, Jakarta Timur",0218507050,,,13310
3117,UNIT BISNIS JAYA I,AQ66,KF H&B Mall PIM 3,Jl. Sultan Iskandar Muda/Jl. Kartika Utama blok V/TA Pondok Indah,02127813987,-6.26375,106.78236,12310
3117,UNIT BISNIS JAYA I,AQ67,KF H&B Mall Gandaria City,"Gandaria City Mall,Lantai UG,Jl. Sultan Iskandar Muda, RT.10/RW.6, Kebayoran Lama Utara, Kebayoran Lama, Jakarta Selatan",085876861055,-6.244172366,106.78353,12240
3117,UNIT BISNIS JAYA I,AQ68,Apt. KF. MERUYA,JL. Meruya Selatan Raya No. 47 RT. 05 RW. 01,085219542305,-6.216658451,106.7374571,11610
3117,UNIT BISNIS JAYA I,AQ6816,PPO VM Halte Transjakarta Puri Beta 2,"Karang Tim., Kec. Karang Tengah, Ko",,-6.2192305,106.7167935,15157
3117,UNIT BISNIS JAYA I,AQ69,Apt. KF. CITRA GARDEN,Jl. Citra Garden 1 Blok I1 No. 14 K,081396664397,-6.145106655,106.6958049,
3117,UNIT BISNIS JAYA I,AQ70,KF RS Brawijaya Saharjo,"Jl. Dr. Saharjo No. 199, Rt.1/Rw.1, Tebet Barat, Kec. Tebet, Jakarta Selatan",02139700451,-6.224545,106.8469848,12810
3118,UNIT BISNIS JAYA II,AR01,APT. KF.0345 TEBET,Jl. Prof. Soepomo No. 45 BZ,08112222695,-6.239565,106.845725,12810
3118,UNIT BISNIS JAYA II,AR02,KF.Ciracas,"JL PKP RAYA NO 4, KELAPA DUA WEATAN, CIRACAS, JAKARTA TIMUR, DKI Jakarta",08112222873,-6.339794,106.880158,13740
3118,UNIT BISNIS JAYA II,AR03,APT. KF.0001 KEMAYORAN,Jl. Garuda No. 47,08111201001,-6.161874,106.843747,10610
3118,UNIT BISNIS JAYA II,AR0317,PPO PRJ Reguler KF Kemayoran,Gedung Pusat Niaga Arena Jiexpo Kem,,-6.146707213,106.8445543,10610
3118,UNIT BISNIS JAYA II,AR0318,PPO PRJ Flash Sale KF Kemayoran,Gedung Pusat Niaga Arena Jiexpo Kem,,-6.146707213,106.8445543,14410
3118,UNIT BISNIS JAYA II,AR04,APT. KF.0002 SENEN,Jl. Senen Raya No. 66,081110678177,-6.178325,106.841541,10410
3118,UNIT BISNIS JAYA II,AR05,APT. KF.0004 RAWAMANGUN,"Jl. Pegambiran No. 33 C, RT 09, RW 08, Rawamangun, Pulogadung, Jakarta Timur, DKI Jakarta",08112222704,-6.199403,106.889917,13220
3118,UNIT BISNIS JAYA II,AR06,APT. KF.0005 CIKINI,Jl. Cikini Raya No. 121,08111201005,-6.196867,106.840513,10330
3118,UNIT BISNIS JAYA II,AR07,APT. KF.0046 RAWA BADAK,"Lorong 104 No.5B, Rawa Badak Utara, Koja, Jakarta Utara, DKI Jakarta",08112221916,-6.114081,106.894138,14230
3118,UNIT BISNIS JAYA II,AR08,APT. KF.0048 MATRAMAN,"Jl. Matraman Raya No. 85, Pal Meriem,",08112223048,-6.20498,106.858195,13140
3118,UNIT BISNIS JAYA II,AR09,APT. KF.ANGKASA PURA II,"Jl. Bandara Soekarno Hatta, Kel Benda",085156509158,-6.127326,106.655326,15320
3118,UNIT BISNIS JAYA II,AR0902,Optik KF.Angkasa Pura II,"Jl. Bandara Soekarno Hatta, Gedung 600 Kantor Pusat Bandara Seokarno Hatta",0215507981,,,15310
3118,UNIT BISNIS JAYA II,AR10,APT. KF.0049 PONDOK BAMBU,Jl. Pahlawan Revolusi No. 53,08112223049,-6.220213,106.899703,13470
3118,UNIT BISNIS JAYA II,AR1002,Optik - KF.0049 - Optik,Jl. Pahlawan Revolusi No. 53,,,,13430
3118,UNIT BISNIS JAYA II,AR11,APT. KF.0147 DUREN SAWIT,Jl. Duren Sawit Raya No. 29,081110678120,-6.22115,106.910561,13470
3118,UNIT BISNIS JAYA II,AR12,APT. KF.0193 UTAN KAYU,Jl. Utan Kayu No. 105B,08112221999,-6.196201,106.872342,13120
3118,UNIT BISNIS JAYA II,AR13,APT. KF.0198 PERCETAKAN NEGARA,Jl. Percetakan Negara No. 34A,081110678122,-6.187816,106.864026,10520
3118,UNIT BISNIS JAYA II,AR14,APT. KF.0295 JATIWARINGIN,Jl. Raya Jatiwaringin Blok H3,08112222278,-6.253005,106.909665,13620
3118,UNIT BISNIS JAYA II,AR15,APT. KF.0346 PONDOK KELAPA,"Jl. Pondok Kelapa Raya Blok I-14 No.1B-1C, Kec. Duren Sawit, Jakarta Timur, DKI Jakarta, 13450",08112221836,-6.237681,106.934125,13450
3118,UNIT BISNIS JAYA II,AR16,APT. KF.0350 KELAPA GADING,Jl. Kelapa Gading Boulevard J4,08112222750,-6.17027,106.899579,14240
3118,UNIT BISNIS JAYA II,AR17,APT. KF.0359 JOHAR,"Jl. Percetakan Negara II Blok B No 12, Johar Baru Jakarta Selatan, DKI Jakarta, 10560",0811222351,-6.185045,106.855894,10560
3118,UNIT BISNIS JAYA II,AR18,APT. KF.0399 KEBON BAWANG,Jl. Bugis No. 25 C,08112221939,-6.115826,106.88635,14320
3118,UNIT BISNIS JAYA II,AR19,APT. KF.450 CIBUBUR LT,"Jl. LAwu Blok B No.1 , Cibubur, Ciracas, Jakarta Timur, DKI Jakarta, 13120",08112221843,-6.35222,106.885572,13720
3118,UNIT BISNIS JAYA II,AR1902,OPTIK  KF.450 CIBUBUR LT,Jl. Lawu B1 No.01,,,,13720
3118,UNIT BISNIS JAYA II,AR21,APT. KF.MENTENG HUIS,Jl. Cikini Raya No. 2,08112221906,-6.187611,106.836483,10330
3118,UNIT BISNIS JAYA II,AR2101,Klinik - KF Menteng Huis,Jl. Cikini Raya No. 2,,,,10310
3118,UNIT BISNIS JAYA II,AR22,APT. KF.512 MALAKASARI,Jl. Teratai Putih blok 28/9 L,08112223041,-6.217460495,106.931285,13460
3118,UNIT BISNIS JAYA II,AR23,APT. KF.451 TUGU,Jl. Kramat Jaya No. 20 Tanjung,08112221893,-6.124794,106.918344,16750
3118,UNIT BISNIS JAYA II,AR25,APT. KF.529 CIPINANG JAYA,"Jl. Cipinang Jaya No.74, Jatinegara, Jakarta Timur, DKI Jakarta, 13410",08112222690,-6.220205,106.886529,13410
3118,UNIT BISNIS JAYA II,AR26,APT. KF.CONDET,"Jl. Condet Raya No.30B, Kramat Jati,Kota Jakarta Timur, DKI Jakarta, 13530",08112221820,-6.290734,106.855769,76136
3118,UNIT BISNIS JAYA II,AR27,APT. KF.562 SUNTER,Jl. Danau Sunter Utara Blok F,081110678128,-6.138774,106.865775,14350
3118,UNIT BISNIS JAYA II,AR28,APT. KF.617 PONDOK KOPI,Jl. Pondok Kopi Raya No.54 Ja,08112222716,-6.223243,106.942256,13460
3118,UNIT BISNIS JAYA II,AR29,APT. KF.616 BUARAN,Jl. Buaran Raya No.91 Jakarta,08112221822,-6.220304,106.922021,13440
3118,UNIT BISNIS JAYA II,AR30,APT. KF.PONDASI,Jl.  Pondasi No. 27 D,081110678473,-6.185714,106.884807,85111
3118,UNIT BISNIS JAYA II,AR31,APT. KF.SALEMBA,Jl.  Salemba Raya No.17,08112221955,-6.1938008,106.8494707,57462
3118,UNIT BISNIS JAYA II,AR32,APT. KF.CEMPAKA PUTIH,Jl.  Cempaka Putih Raya No 14,08112223043,-6.176152,106.871181,10510
3118,UNIT BISNIS JAYA II,AR33,APT. KF.PUSDIKLAT,Jl.  Pusdiklat depnaker no 2 kec makasar,081110678123,-6.282273,106.877868,13570
3118,UNIT BISNIS JAYA II,AR34,APT. KF.BAMBU APUS,Jl.  Raya Bambu Apus Raya Blok F No. 49 Cilangkap,08112221835,-6.315098,106.899594,13890
3118,UNIT BISNIS JAYA II,AR35,APT. KF.PAHLAWAN REVOLUSI 2,Jl. Pahlawan Revolusi No.125 E Jakarta Timur,081110678124,-6.238433,106.89957,13430
3118,UNIT BISNIS JAYA II,AR36,KF Express Terminal 3 Internasional,"Jl. P-2, Terminal 3 Ultimate Bandara Internasional Soekarno Hatta, Pajang, Benda, Kota Tangerang, 15126",081224984872,-6.118921,106.66317,15123
3118,UNIT BISNIS JAYA II,AR38,KF H&B Green Pramuka Square,Jl. Letjend A. Yani Kav 49,08112223053,-6.188961335,106.8739925,10510
3118,UNIT BISNIS JAYA II,AR41,Klinik Mandiri KF Plaza Danamon,Jl. HR Rasuna Said Kav.C No.10 Jakar,,,,12740
3118,UNIT BISNIS JAYA II,AR42,Apotek Kimia Farma Cililitan Besar,Jl. Cililitan Besar No.12,08112223042,-6.265434,106.875995,13560
3118,UNIT BISNIS JAYA II,AR47,APT. KF.HOTEL HOLIDAY IN EXPRESS,"Jl. Matraman Raya No. 55, Pal Meriem, Matraman, Kota Jakarta Timur, DKI Jakarta - 13140",08112221831,-6.203059,106.857366,13140
3118,UNIT BISNIS JAYA II,AR48,APT. KF. TEBET RAYA,"Jl. Tebet Raya No. 17, Jakarta Selatan",08112222868,-6.229966,106.851063,12810
3118,UNIT BISNIS JAYA II,AR50,KF H&B Mall Sarinah,"Mall Sarinah, Jl. M.H. Thamrin No.11 RT.008 RW.04 GONDANGDIA, Menteng, Kota Jakarta Pusat, DKI Jakarta, 10350",081398330019,-6.187543,106.823631,10310
3118,UNIT BISNIS JAYA II,AR51,KF Kelapa Gading 2,Jl.Boulevard Kelapa Gading QA-05/05,085210115800,-6.151469,106.909034,14240
3118,UNIT BISNIS JAYA II,AR52,KF Kalisari,"Jl. Kalisari II, RT.13/RW.1,Pekayon",081391763914,-6.341976,106.857709,13710
3118,UNIT BISNIS JAYA II,AR53,KF Bina Marga Cipayung,"Jl. Bina Marga No. 94A, Cipayung",082312481193,-6.329375,106.888239,13810
3118,UNIT BISNIS JAYA II,AR54,KF Cempaka Putih Tengah,JL. Cempaka Putih Tengah XXX NO.5D,085216970779,-6.170541,106.871513,10510
3118,UNIT BISNIS JAYA II,AR55,KF Danau Indah Sunter,"Jl. Danau Indah Raya No.C-2/2, RW.13, Sunter Jaya,",081110500255,-6.149832,106.882787,14310
3118,UNIT BISNIS JAYA II,AR56,KF Pantai Indah Kapuk,"Rukan crown golf Jl. Pantai Indah Kapuk No.b2, Kamal Muara",081113000255,-6.111441,106.741701,14440
3118,UNIT BISNIS JAYA II,AR57,KF Pel. Pav. Kencana,"Jl. Pangeran Diponegoro, Kel. Kenar",081382420148,-6.1988,106.8455801,96468
3118,UNIT BISNIS JAYA II,AR58,KF Pel. RS Kartika Pulomas,JL.Pulomas Timur K No.2 Jakarta Timur,,-6.176012,106.885015,85111
3119,UNIT BISNIS JAYAPURA,AS01,KF.0172,Jl koti no 36,081110678561,-2.543552,140.706641,99221
3119,UNIT BISNIS JAYAPURA,AS02,KF.0194,Jl. A.Yani No. 29,081110678497,-2.542819,140.702836,99111
3119,UNIT BISNIS JAYAPURA,AS03,KF.Ab Pura,"Jl. Raya Abepura, Kotaraja, Vi",085290692745,-2.603883,140.673293,99351
3119,UNIT BISNIS JAYAPURA,AS04,KF.Hola,"Jl. Raya Abepura Padang Bulan,",082397704213,-2.606683,140.649294,99351
3119,UNIT BISNIS JAYAPURA,AS05,KF.Pel062 RSUD Jayapura,"Jl. Kesehatan Dok II, Komp. RS",081247885363,-2.534403,140.710864,99111
3119,UNIT BISNIS JAYAPURA,AS0511,PPO Apotek KF Kamkey,"Jl.Gerilyawan No. 3C,Kamkey-Abepura",,-2.613519,140.672648,99221
3119,UNIT BISNIS JAYAPURA,AS06,KF Grand Allison Sentani,JL. RAYA KEMIRI NO. 282 KOMPLEKS MISI SENTANI JAYAPURA,,,,99359
3119,UNIT BISNIS JAYAPURA,AS07,KF.Merauke,Jl. Raya Mandala,081248729647,-8.485106,140.389318,72275
3119,UNIT BISNIS JAYAPURA,AS08,KF. Sentani,Jl. Raya Sentani No. 127,081248613356,-2.5658624,140.5198272,99352
3119,UNIT BISNIS JAYAPURA,AS09,KF Tanah Hitam,Jl. Flamboyan No 3C,082114549238,-2.613519,140.672648,99351
3119,UNIT BISNIS JAYAPURA,AS10,KF Imam Bonjol Biak,Jl. Imam Bonjol No.16 Biak,081248848277,-1.182887,136.08228,98112
3119,UNIT BISNIS JAYAPURA,AS11,KF Waena Jaya,"Jl. Raya Sentani, Waena, Abepura Jayapura",081240074314,-2.597182,140.634881,99221
3119,UNIT BISNIS JAYAPURA,AS12,KF Mimika Baru,Jl.Budi Utomo No.8b Kel. Timika Ind,082262270143,-4.54238,136.88374,99910
3119,UNIT BISNIS JAYAPURA,AS13,KF Nabire,"Jl. RE. Martadinata, Kel Oyehe, Kec Nabire, Kab. Nabire - Papua Tengah",,-3.354138,135.508184,98811
3120,UNIT BISNIS JEMBER,AT01,KF.0062,Jl. Gajah Mada No. 171,081110678565,-8.1735574,113.6896921,68131
3120,UNIT BISNIS JEMBER,AT0111,PPO Klinik KF Gajah Mada,Jl. Gajah Mada 103 Jember,,-8.1734167,113.6876432,68131
3120,UNIT BISNIS JEMBER,AT0112,PPO Klinik KF Tanggul,Jl. PB. Sudirman 99 Tanggul Wetan J,,-8.1638791,113.4547532,68155
3120,UNIT BISNIS JEMBER,AT03,KF.0121,Jl. Let. Jen. Suprapto No. 76,081110678564,-8.182303,113.703213,56553
3120,UNIT BISNIS JEMBER,AT04,KF.0241,Jl. Panglima Sudirman No. 46,081110678566,-8.165579,113.705356,68118
3120,UNIT BISNIS JEMBER,AT05,KF.0307,"Jl. Ahmad Yani No. 40B Penganjuran, Banyuwangi",081110678567,-8.217613996,114.369262,68416
3120,UNIT BISNIS JEMBER,AT07,KF.0470 Blambangan,Jl. Basuki Rahmat No.69,081110678568,-8.201898,114.37428,68414
3120,UNIT BISNIS JEMBER,AT08,KF.0522 Probolinggo,Jl. dr. Sutomo No. 213,081259846397,-7.7449,113.2186,54363
3120,UNIT BISNIS JEMBER,AT09,KF.Genteng,"Jl. Hasanudin No.40, Dusun Krajan",081112420001,-8.3649691,114.1630281,68465
3120,UNIT BISNIS JEMBER,AT10,KF.Sudirman,Jl. Panglima Sudirman No.339 P,081110678532,-7.757369,113.224612,67214
3120,UNIT BISNIS JEMBER,AT11,KF.Rambi,Jl. Gajah Mada No. 9,081110678531,-8.2048,113.611552,68152
3120,UNIT BISNIS JEMBER,AT12,KF.0853,"Selatan lampu merah lincing RT 02 RW 04, Dusun Lugonto, Desa Lemahbangdewo, Kec. Rogojampi, Kabupaten Banyuwangi, Jawa Timur",081112420002,-8.3144389,114.2887615,68462
3120,UNIT BISNIS JEMBER,AT13,KF Situbondo,Jl.Basuki Rahmat No.126 B.Situbondo,081112420004,-7.703244,114.013537,68322
3120,UNIT BISNIS JEMBER,AT16,KF Jajag,"Jl. PB Sudirman No.54, Dusun Kp. Baru",081112420003,-8.4396852,114.1877179,68486
3120,UNIT BISNIS JEMBER,AT17,KF.Bondowoso,"Jalan Letnan Sudiono Nomor 27 (Jalan Olahraga), Kelurahan Dabasah",081110678540,-7.914950232,113.8228634,68211
3120,UNIT BISNIS JEMBER,AT21,KF Elizabeth Situbondo,Jl. WR. Supratman No. 2 Situbondo,081110678536,-7.707845,113.997235,67261
3120,UNIT BISNIS JEMBER,AT22,KF Lumajang,"JL. Brigjen Katamso 29, Tompokerasa",,-8.12041623,113.2259339,67311
3120,UNIT BISNIS JEMBER,AT23,KF Ambulu Jember,Jl. Watu Ulo No.2,081112420006,-8.3480792,113.6056303,68132
3111,UNIT BISNIS KARAWANG,AK01,KF.0343 Kertabumi,Jl. Kertabumi No. 12A,081284182306,-6.307838,107.292798,41311
3111,UNIT BISNIS KARAWANG,AK02,KF.0368 Galuh,Jl. Galuh Mas Kompl.Ruko Acadi,085161789944,-6.320968,107.29176,45587
3111,UNIT BISNIS KARAWANG,AK03,KF.0440 Veteran,Jl. Veteran No. 97 Desa/Kelurahan Nagri Kaler,081294768307,-6.527799,107.447204,41115
3111,UNIT BISNIS KARAWANG,AK04,KF.0079 Dewi Sartika,Jl. Dewi Sartika II No. 30,085161742882,-6.307258,107.302413,41312
3111,UNIT BISNIS KARAWANG,AK05,KF.0465 Cikampek,Jl. A Yani Ruko Claster Primad,081319954688,-6.406656,107.455411,41373
3111,UNIT BISNIS KARAWANG,AK06,KF Grahayana,Jl. Bharata Raya Perum Bumi Telukjambe Blok O No. 1,085161788616,-6.329397,107.289326,45587
3111,UNIT BISNIS KARAWANG,AK07,KF.0691 Singadilaga,Jl. Ibrahim Singadilaga No.68,085211722336,-6.537017,107.440729,41119
3111,UNIT BISNIS KARAWANG,AK08,KF SUKASEURI,H. Juanda Ruko Sari Mulya Sukaseuri,085161733367,-6.419673,107.471451,41374
3111,UNIT BISNIS KARAWANG,AK09,KF KOSAMBI,Jln Raya Telagasari Kosambi No 58,085161873337,-6.35333,107.377758,15123
3111,UNIT BISNIS KARAWANG,AK10,KF A YANI,Jl. AHMAD YANI BY PASS NO 43 BY PASS KARAWANG,085173123831,-6.295415,107.293583,45283
3111,UNIT BISNIS KARAWANG,AK11,KF 0768 Lamaran,"JL Syech Quro Kelurahan Karawang Wetan, Kec. Karawang Timur, Kab. Karawang",085161763773,-6.30544,107.32266,41314
3111,UNIT BISNIS KARAWANG,AK12,KF CIKAMPEK2,Jl Raya A YANI NO 4,085161888711,-6.401614,107.447345,41373
3111,UNIT BISNIS KARAWANG,AK13,KF GALUH MAS2,Jl. Panglima Polim Ruko Courtyard C 16,082117075520,-6.330525,107.298153,41361
3111,UNIT BISNIS KARAWANG,AK14,KF MUNJUL,Jl. Ipik Gandamanah Munjul,085161777322,-6.530295455,107.4535871,41117
3111,UNIT BISNIS KARAWANG,AK19,KF TANJUNGMEKAR,Jl. Raya Proklamasi No. 6 Tj.Mekar,,-6.27078,107.27222,41311
3111,UNIT BISNIS KARAWANG,AK20,KF Rengas Dengklok,"Jl.Proklamasi No.115, Rengasdeng, Rengasdengklok,Kab. Karawang, Jawa Barat",085156074326,-6.1640736,107.2956773,41352
3111,UNIT BISNIS KARAWANG,AK21,KF PAMANUKAN,Jl. Ion Martasasmita Pamanukan Subang,085161924446,-6.291162,107.82063,45272
3111,UNIT BISNIS KARAWANG,AK22,KF TUPAREV,Jl. Tuparev No.360 Karawang Wetan Karawang Kota,085211487500,-6.308839,107.310561,41314
3111,UNIT BISNIS KARAWANG,AK23,KF KLARI,"Jl. Raya Klari Desa Anggadita, Kec. Klari, Kab, Karawang",085161758809,-6.350755,107.344464,41371
3111,UNIT BISNIS KARAWANG,AK24,KF Cibatu 2,"Jl. Sriwijaya Cibatu Cikarang Selatan, Bekasi",087771644858,-6.340843,107.153593,41181
3111,UNIT BISNIS KARAWANG,AK25,KF. Plered,Jl.Kp.Sindang palay Kel. Sindang sari Kec. Plered Kab Purwakarta,085161418003,-6.642184,107.38754,46383
3111,UNIT BISNIS KARAWANG,AK26,KF. Perumnas,Jl.Raya Perumnas Karawang,085161882227,-6.334733,107.281953,40123
3111,UNIT BISNIS KARAWANG,AK27,KF Cilamaya,Jl. Raya Cilamaya Karawang,081211671307,-6.248695,107.590858,41384
3111,UNIT BISNIS KARAWANG,AK29,KF Express Rest Area KM72A,"Rest Area Km 72 Tol Purbaleunyi Desa Cigelam Kec. Babakancikao, Kab. Purwakarta, Jawa Barat",08990836810,-6.466098501,107.4448316,41151
3111,UNIT BISNIS KARAWANG,AK30,KF Pinayungan,Jalan Pinayungan Dusun Sukadana RT010/04 Desa Pinayungan Kec Teluk Jambe,02676486952,-6.346489,107.303546,
3111,UNIT BISNIS KARAWANG,AK31,KF Express Rest Area KM 88A,"Rest Area Km 88 A, Tol Cipularang Rest Area KM. 88A, Cipularang, Jl. Tol Purbaleunyi Rest Area Tol No.Km 88 A",085174184557,-6.60237,107.42737,17630
3111,UNIT BISNIS KARAWANG,AK32,KF Wirabrata,"Jl. Berlian Kel. Cikampek Utara, Ke",,-6.39038,107.46657,41374
3121,UNIT BISNIS KENDARI,AU01,KF.0104,Jl. Moh. Hatta No. 77,085337519349,-3.968639,122.573256,93124
3121,UNIT BISNIS KENDARI,AU02,KF.0288,Jl. A. Yani No. 84,081110678552,-3.987247,122.507256,93117
3121,UNIT BISNIS KENDARI,AU03,KF.0338,Jl. Betoambari. No.4,081110678527,-5.4621158,122.5993157,93721
3121,UNIT BISNIS KENDARI,AU04,KF.0479 Mt Haryono,Jl. MT Haryono 40,081110678523,-3.97042,122.520129,93111
3121,UNIT BISNIS KENDARI,AU05,KF.Pel045 RSUD Kendari,Jl. Kapten Piere Tendean Kel.,082345601895,-4.035772,122.492293,91414
3121,UNIT BISNIS KENDARI,AU06,KF.Pel071 RSAD dr. Ismoyo,Jl. Laute No. 1,085320880938,-3.969647,122.515503,93111
3121,UNIT BISNIS KENDARI,AU07,KF.Ondonohu,"Jl. AH. Nasution No. …,Kel: Ka",081110678538,-4.001779,122.531076,93231
3121,UNIT BISNIS KENDARI,AU08,KF.Kolaka,Jl. Pramuka No. 30,081110678529,-4.056509,121.5963803,93511
3121,UNIT BISNIS KENDARI,AU09,KF.DIP,"Jl. DI Panjaitan No. 104, Kend",081110678535,-4.026455,122.50267,93116
3121,UNIT BISNIS KENDARI,AU10,KF 748 Sao-Sao,"JL. SAO – SAO NO. 243, Kel. Bende Kec. Kadia, Kendari, Sulawesi Tenggara",085298008305,-3.9854512,122.511662,93117
3121,UNIT BISNIS KENDARI,AU11,KF 773 Poasia,"JL. Bunggasi PorosKel. Andonohu, Kec. Poasia, Kendari, Sulawesi Tenggara",085333650106,-3.99978,122.54203,93231
3121,UNIT BISNIS KENDARI,AU12,KF. KARTIKA KENDARI,Jl. Letjen. S. Parman No. 82,082214929550,-3.96123,122.532516,93121
3121,UNIT BISNIS KENDARI,AU13,KF Pemuda,"Jl. Pemuda Kel. Balandete Kec. Kolaka Sulawesi Tenggara, 93511",085333624483,-4.069333,121.622453,93511
3121,UNIT BISNIS KENDARI,AU14,KF BULOG,Jl. Abd. Silondae No.1 Kendari,085333373609,-3.972545,122.514467,93111
3121,UNIT BISNIS KENDARI,AU15,KF Hasanuddin Kendari,"JL. Sultan Hasanuddin No.6 Rt.1/Rw.3, Kel. Batulo, Kec. Wolio",085333375206,-5.459114,122.614612,93717
3121,UNIT BISNIS KENDARI,AU16,APT. KIMIA FARMA UNAAHA,Jl. Sapati No. 27,085333375164,-3.862967,122.051429,93413
3121,UNIT BISNIS KENDARI,AU18,KF Fatufia,Jl. Trans Sulawesi,082324643622,-2.814948,122.157487,94974
3122,UNIT BISNIS KUPANG,AV01,KF.0101,Jl. Herewila No. 38,081339533174,-10.173266,123.598793,85118
3122,UNIT BISNIS KUPANG,AV02,KF.0135,Jl. Dr. Moh. Hatta No. 46,081110678098,-10.1686223,123.5827043,85112
3122,UNIT BISNIS KUPANG,AV03,KF.0159,Jl. Suharto No. 74,081110678110,-10.183114,123.602615,85142
3122,UNIT BISNIS KUPANG,AV04,KF.0500 Lalamentik,Jl. W.J Lalamentik No. 95 D-E,081110678094,-10.172314,123.611515,85111
3122,UNIT BISNIS KUPANG,AV05,KF.Kelimutu,Jl. Kelimutu Ende,082144173876,-8.844872,121.657779,86319
3122,UNIT BISNIS KUPANG,AV06,KF.Pel018 RSU Dr.W.Z.Johanes,Jl. Dr. M. Hatta No. 19,081338244338,-10.167316,123.585544,85112
3122,UNIT BISNIS KUPANG,AV07,KF.Pel061 RSUD Dr.TC Hillers,Jl. Wair klau No.1,082144225018,-8.622716,122.204945,86113
3122,UNIT BISNIS KUPANG,AV08,KF.A Yani Kupang,Jl.A.Yani No.12 Rt 010 Rw 003,082210088468,-10.157914,123.591696,85226
3122,UNIT BISNIS KUPANG,AV09,KF.A Yani Maumere,Jl.A.Yani No.68 Rt 05 Rw 04 Ke,082339418370,-8.6245531,122.2158488,86112
3122,UNIT BISNIS KUPANG,AV10,KF.Lippo,Jl.W.R. Monginsidi Rt 014 Rw 0,081239111244,-10.1567058,123.6107484,85111
3122,UNIT BISNIS KUPANG,AV11,KF.Cak Doko,Jl. Cak Doko No.43B Rt 015 Rw,087763348835,-10.165089,123.592226,85112
3122,UNIT BISNIS KUPANG,AV13,KF. OESAPA,Jl. Timor Raya - Oesapa Kupang,081353030863,-10.145162,123.655068,85228
3122,UNIT BISNIS KUPANG,AV14,KF.0810,"Jl. Eltari No.KM 3, RT.017/RW.005,",081110678525,-9.463465,124.480256,85611
3122,UNIT BISNIS KUPANG,AV15,KF. CENTRAL ATAMBUA,Jl. Soekarno No.2,081110678533,-9.100566,124.896392,85718
3122,UNIT BISNIS KUPANG,AV16,KF. TDM KUPANG,Jl. Bundaran PU,081110678537,-10.165358,123.629863,85111
3122,UNIT BISNIS KUPANG,AV17,KF. SOE,Jl. Gajah Mada No. X,081110678528,-9.862347,124.273404,94663
3122,UNIT BISNIS KUPANG,AV18,KF Ruteng,"Jl. Slamet Riyadi, Langke Rembong,",081936603976,-8.612875267,120.4663163,86581
3122,UNIT BISNIS KUPANG,AV20,KF Express Labuan Bajo,"Jl. Soekarno Hatta, Labuan Bajo",081110678526,-8.4908768,119.8736987,86754
3123,UNIT BISNIS LAMPUNG,AW01,KF.0131,Jl. Kartini No. 44-45,081110678131,-5.417978,105.25339,35116
3123,UNIT BISNIS LAMPUNG,AW0111,PPO Klinik KF Kotabumi,Jl. Raya Candimas Samping Gang Simp,,-4.85283606,104.9193519,34581
3123,UNIT BISNIS LAMPUNG,AW02,KF.0222,Jl. Gajah Mada No. 56,081110678112,-5.415719,105.266853,99351
3123,UNIT BISNIS LAMPUNG,AW04,KF.0285 Way Halim,Jl. Kimaja No. 40 C Way Halim,08154073373,-5.379252,105.271946,35148
3123,UNIT BISNIS LAMPUNG,AW05,KF.0318 KMC,Jl. ZA. Pagar Alam No. 77,081110678130,-5.374105,105.242062,35145
3123,UNIT BISNIS LAMPUNG,AW06,KF.0327 Anda,Jl. Gatot Subroto No. 5A,081110678113,-5.422953,105.272363,32382
3123,UNIT BISNIS LAMPUNG,AW07,KF.0467 Antasari,Jl. P. Antasari No. 137 B,08154073376,-5.402369,105.283159,34811
3123,UNIT BISNIS LAMPUNG,AW08,KF 553,"Jl. AH. Nasution  No. 1 Kel. Imopuro Kec. Metro Pusat, Kota Metro",08154073377,-5.113852,105.306419,34111
3123,UNIT BISNIS LAMPUNG,AW09,KF.0647 Teuku Umar,Jl Imam bonjol no.10 c/d sukajawa,08154073378,-5.4016192,105.253059,34876
3123,UNIT BISNIS LAMPUNG,AW10,KF.0648 Wolter M,Jl. Woltermonginsidi No. 7 (15,08154073379,-5.433239,105.254144,35215
3123,UNIT BISNIS LAMPUNG,AW11,KF. Tirtayasa,Jl. Tirtayasa No.11,081541138333,-5.3982,105.304842,34881
3123,UNIT BISNIS LAMPUNG,AW1111,PPO Klinik KF 0256,Jl. Arif Rahman Hakim TR 2 Way Hali,,-5.286928,105.190994,35123
3123,UNIT BISNIS LAMPUNG,AW14,KF RS DKT,Jl. Dr A Rivai No. 6 Kedaton Bandar Lampung,081541333325,-5.401266,105.258359,34878
3123,UNIT BISNIS LAMPUNG,AW15,KF PRINGSEWU LAMPUNG,Jl. Ahmad Yani No. 26A Pringsewu,081110678174,-5.357285,104.985204,35373
3123,UNIT BISNIS LAMPUNG,AW17,KF Kedaton,"Jl. Teuku Umar No.15 A-B, Sidodadi",081540333325,-5.3961357,105.2614717,35112
3171,UNIT BISNIS MADURA,CS01,KF.0163,Jl. Jokotole No. 5 Kraton Bang,081294970055,-7.028535,112.754313,68167
3171,UNIT BISNIS MADURA,CS02,KF.0274 PAMEKASAN,Jl. Trunojoyo 92 Pamekasan Bar,,-7.159516,113.481658,69317
3171,UNIT BISNIS MADURA,CS03,KF.0419 Trunojoyo,Jl. Trunojoyo No.75A Bangkalan,081110678214,-7.027838,112.756417,68261
3171,UNIT BISNIS MADURA,CS04,KF.Sumenep,Jl. KH Mansyur No. 42 Desa Pan,,-7.010641,113.870566,69412
3171,UNIT BISNIS MADURA,CS05,KF.Sampang,Jl.  Rajawali No.25 A Karang D,082337657988,-7.199265,113.241939,69216
3171,UNIT BISNIS MADURA,CS06,KF.KHM. KHOLIL BANGKALAN,Jl. KHM. Kholil No. 102 A Bang,082233592886,-7.037084,112.741898,69115
3171,UNIT BISNIS MADURA,CS07,KF.Sumenep 2,"Jl. Trunojoyo No.91, Labangsen",082228260168,-7.018030512,113.8578097,69412
3124,UNIT BISNIS MAKASSAR,AX01,KF.0033,Jl. Jend A.Yani 17 - 19,085240859840,-5.132714,119.409522,90174
3124,UNIT BISNIS MAKASSAR,AX02,KF.0038,Jl. St. Hasanuddin 46,08114133173,-5.1412159,115.4104802,90112
3124,UNIT BISNIS MAKASSAR,AX03,KF.0199 Erlina,Jl. Urip Sumoharjo 32,08114127234,-5.135079,119.430799,90144
3124,UNIT BISNIS MAKASSAR,AX05,KF Gelora,Jl. Pettanarajeng 5,08114147234,-4.015032,119.622223,91111
3124,UNIT BISNIS MAKASSAR,AX06,KF.0250 Rexa,Jl. Dr. Ratulangi 59,08114152234,-5.1579167,119.4147433,92574
3124,UNIT BISNIS MAKASSAR,AX07,KF.0410 Boulevard,Jl. Boulevard komplek Ruby No. 17,08114146234,-5.155371,119.442026,90231
3124,UNIT BISNIS MAKASSAR,AX08,KF.0462 Hertasening,Jl. Hertasning,081110678194,-5.161671,119.438471,90222
3124,UNIT BISNIS MAKASSAR,AX09,KF Belopa,"Jl. Sungai Pareman No.70, Kel Sabe,",,-3.380129034,120.3679478,91966
3124,UNIT BISNIS MAKASSAR,AX11,KF.Andi Pare-Pare,Jl. Nurussamawati 3 No. 151,08114154234,-4.008276,119.626959,70852
3124,UNIT BISNIS MAKASSAR,AX12,KF.0502 Pettarani,Jl. Pettarani No.18 Makassar,08114118456,-5.163027,119.435257,90222
3124,UNIT BISNIS MAKASSAR,AX13,KF.0501 Tata,Jl. Daeng Tata No.69-69A Makas,08114143234,-5.184279,119.422665,90224
3124,UNIT BISNIS MAKASSAR,AX14,KF.Cendrawasih,Jl. Cendrawasih No. 233,08114415234,-5.1709,119.41081,90131
3124,UNIT BISNIS MAKASSAR,AX15,KF Telkomas,"Jl. Perintis Kemerdekaan KM 13, Ruko Telkomas",08114181345,-5.12233,119.50745,
3124,UNIT BISNIS MAKASSAR,AX16,KF.Sudiang,Jl. Perintis Kemerdekaan km 19,08114145345,-5.073754,119.520356,90242
3124,UNIT BISNIS MAKASSAR,AX17,KF.Alaudin,Jl. Sultan Alaudin No. 222,08114148234,-5.1778125,119.438222,90221
3124,UNIT BISNIS MAKASSAR,AX18,KF.Maros,"Jl. Polos Maros Maccopa, Taroa",08114142345,-5.038889,119.569875,90516
3124,UNIT BISNIS MAKASSAR,AX19,KF.Gowa,"Jl. Sultan Hasanuddin No. 8, K",08114603170,-5.202985,119.446759,92115
3124,UNIT BISNIS MAKASSAR,AX20,KF. Sengkang,Jl. Mesjid Raya No.2,08114144345,-4.139173,120.031661,90914
3124,UNIT BISNIS MAKASSAR,AX23,KF. Bulukumba,Jl. Lanto Dg. Pasewang No. 80,0811 4419234,-5.548595,120.190012,92517
3124,UNIT BISNIS MAKASSAR,AX24,KF. LACASINO,Jl. Adhyaksa Baru No. 45,08114144234,-5.15439,119.448103,90231
3124,UNIT BISNIS MAKASSAR,AX25,KF. Pengayoman,Jl. Pengayoman No. C2 16,08114142234,-5.15864,119.444161,90231
3124,UNIT BISNIS MAKASSAR,AX26,KF. Perintis,Jl. Perintis Kemerdekaan KM 11,08114139345,-5.134998,119.496515,92854
3124,UNIT BISNIS MAKASSAR,AX27,KF. Urip Sumohardjo,Jl. Urip Sumoharjo No. 36,08114191345,-5.1353262,119.4339592,90232
3124,UNIT BISNIS MAKASSAR,AX28,KF Padaidi,Jl. Perintis Kemerdekaan 9 no.13,08114145456,-5.1407841,119.4855452,90245
3124,UNIT BISNIS MAKASSAR,AX29,KF. BTP,Jl. Tamalanrea Raya Kompleks BTP,08114148345,-5.133437,119.50434,92854
3124,UNIT BISNIS MAKASSAR,AX30,KF. BONE,Jl. Ahmad Yani,08114426234,-4.540086,120.322422,92732
3124,UNIT BISNIS MAKASSAR,AX31,KF. PINRANG,Jl. Jend Sudirman Po,081110678199,-3.798275,119.651718,91651
3124,UNIT BISNIS MAKASSAR,AX32,Apotek KF Palangga,Jl. Raya Palangga No.23 Gowa,08114603152,-5.215016,119.449715,90156
3124,UNIT BISNIS MAKASSAR,AX33,Apotek KF Maros 2,Jl. Jend Sudirman No.228 Maros,081110678179,-5.013023,119.573625,90516
3124,UNIT BISNIS MAKASSAR,AX37,KF Rolling Hills,Jl. Metro Tanjung Bunga Ruko Rolling Hills No. 63,,-5.9532,119.23326,90221
3124,UNIT BISNIS MAKASSAR,AX38,KF Andi Djemma,JL. Andi Djemma no 27,081110678215,-5.163777,119.424456,90222
3124,UNIT BISNIS MAKASSAR,AX39,KF Pangkep,"Jl. Kemakmuran No.59, Mappasaile",081144303632,-4.832119,119.546428,90617
3124,UNIT BISNIS MAKASSAR,AX40,KF Palopo,Jl. Kelapa,081110678183,-3.00382,120.196528,91911
3124,UNIT BISNIS MAKASSAR,AX41,Klinik Mandiri KF Bantaeng,-,,,,92411
3124,UNIT BISNIS MAKASSAR,AX42,KF Antang,Jl. Antang raya no.30-31,081144701877,-5.158871,119.478114,90234
3124,UNIT BISNIS MAKASSAR,AX43,KF Polewali,JL. MR. MUH. YAMIN,081110678182,-3.4087032,119.309055,91315
3124,UNIT BISNIS MAKASSAR,AX45,KF Aroepala,Jl. Hertasning Aroepala,081110678175,-5.1698735,119.4509744,90222
3124,UNIT BISNIS MAKASSAR,AX49,KF Takalar,"jln kemakmuran no 39, des/kec pattallassang kab Takalar.",08114425111,-5.431082,119.438666,92171
3124,UNIT BISNIS MAKASSAR,AX50,KF Express Bandara Sultan Hasanuddin,"Jalan Airport No.1, Kec. Makassar, Kabupaten Maros, Sulawesi Selatan 90552",082255842805,-5.077747,119.5494844,90552
3125,UNIT BISNIS MALANG,AY01,KF.0036,Jl. Raya Ijen No. 88,08113279387,-7.96387,112.62547,65119
3125,UNIT BISNIS MALANG,AY02,KF.0053,"Jl. Kawi No, 22 A",081110678192,-7.978873,112.625129,67153
3125,UNIT BISNIS MALANG,AY03,KF 0075 Mojoroto,"Jl. Jaksa Agung Suprapto no. 25, Mojoroto,Kota Kediri, Jawa Timur",081110678267,-7.807152,112.004412,64111
3125,UNIT BISNIS MALANG,AY04,KF.0077,Jl. Sukarjo Wiryopranoto No. 2,08113279397,-7.984579,112.6287453,34581
3125,UNIT BISNIS MALANG,AY05,KF.0116,Jl. Laksda Adi Sucipto No.148,08113279401,-7.944032,112.64853,52364
3125,UNIT BISNIS MALANG,AY06,KF.0150,Jl. Selat Sunda I/D2 No. 25 Ma,08113279403,-7.981164,112.655739,56163
3125,UNIT BISNIS MALANG,AY07,KF.0151,Jl. Stasiun No. 47,081110678265,-7.817003,112.013507,64129
3125,UNIT BISNIS MALANG,AY08,KF.0187,Jl. M.T. Haryono No. 110,081110678251,-7.941988,112.609379,62291
3125,UNIT BISNIS MALANG,AY09,KF.0210 Bengawan Solo,Jl. Tumenggung suryo No. 25,081110678270,-7.9608213,112.6413568,65122
3125,UNIT BISNIS MALANG,AY10,KF.0245 Batu,Jl. Diponegoro No.93,081110678264,-7.874261,112.529773,65314
3125,UNIT BISNIS MALANG,AY11,KF SMAN II PARE,"Jl. Pahlawan Kusuma Bangsa No. 28,",08113279413,-7.759489,112.176771,64211
3125,UNIT BISNIS MALANG,AY12,KF.0392 Tulung Agung,Jl. I.G.Ngurah Rai No.10,081110678248,-8.065994,111.906996,67283
3125,UNIT BISNIS MALANG,AY13,KF.0453 Sutoyo,Jl. Letjen Sutoyo No. 107,081110678256,-7.955926,112.638016,65141
3125,UNIT BISNIS MALANG,AY14,KF.Blitar,Jl. Mawar No.64 Blitar,08113279421,-8.101571,112.15634,68487
3125,UNIT BISNIS MALANG,AY15,KF.Pare II,Jl. Pahlawan kusuma bangsa no.,08113279419,-7.761235,112.179464,56271
3125,UNIT BISNIS MALANG,AY16,KF Sukun Malang,Jl. Sudanco Supriadi No. 41A,08113279399,-7.990671,112.621589,65147
3125,UNIT BISNIS MALANG,AY17,KF.Hasanuddin,Jl. Hasanuddin No. 53,081110678250,-7.812202,112.019973,64122
3125,UNIT BISNIS MALANG,AY18,KF Tulungagung 2,"Jl. Pahlawan No. 35, Kedungwaru,Kab. Tulungagung, Jawa Timur, - 66224",08113279425,-8.053238,111.908122,66221
3125,UNIT BISNIS MALANG,AY19,KF Kebonsari Malang,Jl. Raya Kebonsari No.12,08113279429,-8.01898,112.619615,56553
3125,UNIT BISNIS MALANG,AY20,KF Agus Salim,"Jl. KH. Agus Salim No. 32, Bandar, Mojoroto,Kota Kediri, Jawa Timur, - 64122",08113279435,-7.8274345,112.0030552,64111
3125,UNIT BISNIS MALANG,AY21,KF. KEPANJEN,"Jl. Jend. A. Yani D-48, Kec. Kepanjen",08113279433,-8.125209,112.572415,65163
3125,UNIT BISNIS MALANG,AY22,KF. MONDOROKO,"Jl. Raya Mondoroko No. 3 KAV A-B, Kec. Singosari",08113279431,-7.906383,112.6599,55672
3125,UNIT BISNIS MALANG,AY24,KF. SUHAT,Jl. Soekarno Hatta Ruko GRIYA SHANTA MP-51,08113279437,-7.94198,112.62145,54352
3125,UNIT BISNIS MALANG,AY25,KF. TRENGGALEK,Jl. Soekarno Hatta No. 213,08113279439,-8.074669,111.706223,64395
3125,UNIT BISNIS MALANG,AY26,KF. WLINGI,"Jl. Bromo No. 46, Kec Wlingi",08113279441,-8.07573,112.327904,63491
3125,UNIT BISNIS MALANG,AY27,KF. LAWANG,"Jl. Dr.Wahidin No.20 KAV.14, Kec. Lawang",08113119872,-7.85098,112.694632,65215
3125,UNIT BISNIS MALANG,AY28,KF VETERAN MALANG,"Jl. Veteran No.172, Plosokerep, Kec. Sananwetan, Kota Blitar, Jawa Timur",081133341315,-8.1087085,112.1674467,66117
3125,UNIT BISNIS MALANG,AY31,KF Kalpataru,Jl. Kalpataru No. 92 Kota Malang,082117634592,,,65153
3125,UNIT BISNIS MALANG,AY32,KF Katang,"Jl. Airlangga No. 33 Katang, RT:2 RW:4 Desa Sukorejo, Kecamatan Ngasem, Kabupaten Kediri, 64122",081133341324,-7.809417,112.045075,68487
3125,UNIT BISNIS MALANG,AY33,KF Asrikaton,"Jl. Raya Asrikaton No 31-33 Kecamatan Pakis, Kabupaten Malang",081132220645,-7.952693,112.691483,65154
3125,UNIT BISNIS MALANG,AY35,KF Ahmad Yani Malang,"Jl. Ahmad yani no. 20 c, kec. Blimbing - Malang",081132231044,-7.94274,112.641861,52364
3125,UNIT BISNIS MALANG,AY36,KF Kepuharjo,"Jl. Raya Ngijo Karangploso No.27, Krajan",03415060109,-7.899930477,112.6030884,65152
3127,UNIT BISNIS MANADO,BA01,KF.0074,Jl. Sam Ratulangi No. 31,08114305574,1.485997,124.837703,95111
3127,UNIT BISNIS MANADO,BA02,KF.0129,Jl. A.Yani No. 26 Sario Manado,08124539975,1.465736,124.830227,95114
3127,UNIT BISNIS MANADO,BA03,KF.0262,Jl. Adampe Dolot No. 22,082188785424,0.73814,124.308247,95716
3127,UNIT BISNIS MANADO,BA04,KF 290 Martadinata,"Jl. R.E Martadinata No.35, Dendengan Luar",081343865990,1.487098,124.856691,95127
3127,UNIT BISNIS MANADO,BA05,KF.0309,JL.B.W. LAPIAN NO.54,085394307244,1.483049,124.847027,95124
3127,UNIT BISNIS MANADO,BA06,KF.0331 Malalayang,Jl. Wolter Monginsidi No. 24 M,082154323235,1.460867,124.823316,95115
3127,UNIT BISNIS MANADO,BA07,KF.0332,Jl. Sam Ratulangi No. 388,082196161406,1.465001,124.839701,95117
3127,UNIT BISNIS MANADO,BA08,KF.0396 Tuminting,Jl. Hasanuddin No. 137,082196656448,1.506677,124.845966,95239
3127,UNIT BISNIS MANADO,BA09,KF.0411 Telling,Jl. 14 Februari No. 38,081110678295,1.473763,124.844484,95119
3127,UNIT BISNIS MANADO,BA10,KF.Pel005 RSUP Malayang Kandau,Jl. Wolter Monginsidi,082194754501,1.453628,124.808188,95163
3127,UNIT BISNIS MANADO,BA14,KF.0602 MAPANGET,Jl. A.A. Maramis No.,085256786602,1.500797,124.892726,95254
3127,UNIT BISNIS MANADO,BA15,KF. Sario 2,"Jl. Bethesda No. 72, Sario Tumpaan, Sario, Manado",082190712009,1.463618,124.831094,95114
3127,UNIT BISNIS MANADO,BA16,KF.Rswm RSUD Walanda Maramis,"Jl. Arnold Monomutu, RSUD Mari",081110678272,1.4362064,124.9719695,95371
3127,UNIT BISNIS MANADO,BA17,KF.Bandara Mapanget2,Jl. AA Maramis No.,081245085384,1.514805,124.917801,95257
3127,UNIT BISNIS MANADO,BA20,KF.Bitung,Jl. Raya Kelurahan Madidir Unet Kota Bi,085256297254,1.443427,125.164431,95514
3127,UNIT BISNIS MANADO,BA21,KF.Kota Baru A. Yani,Jl. Ahmad Yani Kotamobagu,082192900064,0.745777,124.314611,95713
3127,UNIT BISNIS MANADO,BA23,KF.Tomohon,Jl. Raya Bethesda No.  Tomohon,081341463844,1.325047,124.838639,95352
3127,UNIT BISNIS MANADO,BA24,KF.Pel Liunkendage RSUD Liunke,Jl. Tatehe Kelurahan Apengsemb,043222219,3.607724,125.480585,95811
3127,UNIT BISNIS MANADO,BA25,KF.APOTEK KIMIA FARMA BOULEVAR,"Jl, Piere Tendean, Bouelvard M",082291818820,1.481356,124.835137,95111
3127,UNIT BISNIS MANADO,BA26,KF.KOMPLEX RSU. NOONGAN,Jl. Raya Noongan Komp RSUD Noo,082189677579,1.123137,124.806944,95694
3127,UNIT BISNIS MANADO,BA27,KF MALALAYANG,"Jl.  Raya TANAWANGKO, MALALAYANG I",082346941400,1.456573,124.808925,95163
3127,UNIT BISNIS MANADO,BA28,KF GIRIAN,"Jl.  Raya Girian Bawah, Kec. Girian, Bitung",085395675131,1.440018,125.131242,95542
3127,UNIT BISNIS MANADO,BA29,KF SININDIAN,Jl.  KS Tubun,085395669242,0.733861,124.314709,95718
3127,UNIT BISNIS MANADO,BA30,KF SINGKIL,Jl. Arie lasut Wawonasa,082192640227,1.4971021,124.8477396,95234
3127,UNIT BISNIS MANADO,BA31,KF Talaud,"Jalan Raya Mala- melonguane, kec. Melonguane, Kab. Kepulauan Talaud (Pulau karakelong)",081343846913,3.999279,126.689882,95885
3127,UNIT BISNIS MANADO,BA3111,PPO KF RSUD Talaud,Jl. Raya Mala Kecamatan Melengwane,082291149476,4.006106887,126.7079407,95885
3127,UNIT BISNIS MANADO,BA32,KF AMURANG,Jl. Trans Sulawesi Buyungon,081350724990,1.1828084,124.572186,95954
3127,UNIT BISNIS MANADO,BA33,KF ADIPURA (BANDARA3),Jl. AA Maramis Simpang GPI,082192640241,1.529381,124.921118,95256
3127,UNIT BISNIS MANADO,BA34,KF PEL POBUNDAYAN,Jl.Ahmad Yani Kotamobago,081329595763,0.716316,124.306414,95717
3127,UNIT BISNIS MANADO,BA35,KF Tataaran,"Jl. Tataaran, Mansarang - Minahasa",082192639200,1.288727,124.878791,95616
3127,UNIT BISNIS MANADO,BA36,KF  TAHUNA,Jl. Samratulangi,081229667266,3.612155,125.491851,95813
3127,UNIT BISNIS MANADO,BA3611,PPO KF RSUD Liunkendage,"JF5J+889, Apeng Sembeka, Kec. Tahuna",082165624743,3.607724,125.480585,95811
3127,UNIT BISNIS MANADO,BA37,KF AIRMADIDI,Jl. Manado Bitung,082192640309,1.422103,124.985948,95371
3127,UNIT BISNIS MANADO,BA38,KF PERKAMIL,Jl. Manguni,082192640320,1.474659,124.872919,95129
3127,UNIT BISNIS MANADO,BA39,KF MAHAWU,"Jl. Pogoidon Kel. Tumumpa I, Kec. Tuminting, Manado",082192640242,1.521281,124.850492,95239
3127,UNIT BISNIS MANADO,BA41,KF 1027 Bitung Tengah,"Jl. Sam Ratulangi No.23, Pakadoodan",08114336499,1.445167,125.181178,95511
3127,UNIT BISNIS MANADO,BA42,KF TONDANO,"Jl. Walanda Maramis No. 155 Kendis - Tondano Timur, Kab. Minahasa",082192640203,1.306566,124.91332,95613
3127,UNIT BISNIS MANADO,BA43,KF Motoboi,"Jl. Veteran No.46A, Kel. Motoboi Kecil, Kec. Kotamobagu Selatan",081110678271,0.724616,124.303239,95717
3127,UNIT BISNIS MANADO,BA44,KF Motoling,"Jl. Amurang - Kotamobagu, Motoling, Minahasa Selatan, Sulawesi Utara",082344713226,1.039567,124.479729,95956
3127,UNIT BISNIS MANADO,BA45,KF Langowan,"Jl. Raya Langowan, Toraget, Langowan Utara, Kab. Minahasa, Sulawesi Utara",081243977635,1.1542293,124.8397014,95694
3127,UNIT BISNIS MANADO,BA4511,PPO KF RSUD Noongan,Jl. Marintek,082189677579,1.123137,124.806944,95694
3127,UNIT BISNIS MANADO,BA47,KF Citra Land,"Jl. Ring Road, Komp. Meridian Residance, Wanea, Kota Manado, Sulawesi Utara",082196656821,1.443779,124.85342,95117
3127,UNIT BISNIS MANADO,BA48,KF Maumbi,"Jl. Lintas Bitung Manado Kecamatan Maumbi, Kab. Minahasa,Utara Sulawesi Utara",081110678294,1.471594,124.917558,95378
3127,UNIT BISNIS MANADO,BA49,KF Pineleng,"Jl. Raya Manado Tomohon, Kecamatan Pineleng, Kabupaten Minahasa, Sulawesi Utara",085340342038,1.427916,124.838668,95661
3127,UNIT BISNIS MANADO,BA50,KF Matani Tomohon,"Jl. Raya Tomohon, Matani Tiga",085395669237,1.317149,124.83834,95443
3127,UNIT BISNIS MANADO,BA51,KF Kawangkoan,"Jl. Manado - Kawangkoan, Kec. Kawangkoan, Kab. Minahasa, Sulawesi Utara",0895395264487,1.205179,124.787285,95692
3127,UNIT BISNIS MANADO,BA52,KF Pelengkap RSUD Talaud,Jl. Raya Mala Kecamatan Melengwane Timur Kep.Talaud,082291149476,4.006106887,126.7079407,95885
3129,UNIT BISNIS MATARAM,BC01,KF.0134,Jl. Pejanggik No. 48,081138007801,-8.586423,116.120048,83239
3129,UNIT BISNIS MATARAM,BC02,KF.0189,Jl. Sriwijaya No. 295 Mataram,081138007802,-8.59516,116.106005,83127
3129,UNIT BISNIS MATARAM,BC0211,PPO KF RS Unram,-,081110678289,,,83117
3129,UNIT BISNIS MATARAM,BC03,KF.0231,Jl. Saleh Sungkar No. 33 Ampenan,081138007803,-8.569152,116.076379,67271
3129,UNIT BISNIS MATARAM,BC04,KF.0234,"Jl Selaparan Sweta Timur, Mayura, Cakranegara",081138007804,-8.590117468,116.1432659,83239
3129,UNIT BISNIS MATARAM,BC05,KF.0263,Jl. Soekarno Hatta No.3,081138007805,-8.455191,118.727275,84111
3129,UNIT BISNIS MATARAM,BC06,KF.0302,Jalan jendral sudirman no 19,081138007806,-8.709915,116.27716,67292
3129,UNIT BISNIS MATARAM,BC07,KF.0303,"Jl. Cendrawasih No. 1, BRANG BIJI",081138007807,-8.48821,117.418182,84318
3129,UNIT BISNIS MATARAM,BC08,KF.0458 Catur Warga,Jl. Catur Warga No. 17,081138007808,-8.586522,116.113806,83126
3129,UNIT BISNIS MATARAM,BC09,KF.Ex Pel 55 RSUD Selong,Jln pejanggik no 56,081138007809,-8.6498696,116.5224442,83619
3129,UNIT BISNIS MATARAM,BC10,KF.0626 Gajah Mada,Jl.  Gajah Mada No. 24,081138007810,-8.600426,116.101459,60233
3129,UNIT BISNIS MATARAM,BC11,KF.0633 Panji Tilar,Jl. Panji Tilar 99 Mataram,081138007811,-8.592611,116.085169,83116
3129,UNIT BISNIS MATARAM,BC12,KF.0660 Senggigi,Jl. Senggigi KM 8,081138007812,-8.4988769,116.0495707,83355
3129,UNIT BISNIS MATARAM,BC13,KF ABIAN TUBUH,Jl.  AA Gede Ngurah No. 77,081138007813,-8.602243,116.128616,83237
3129,UNIT BISNIS MATARAM,BC15,KF. Sumbawa II,JL. Hassanuddin No. 32,081138007814,-8.497202,117.421604,45256
3129,UNIT BISNIS MATARAM,BC1501,KLINIK SUMBAWA II,"Jln. Hasanuddin No. 32 Sumbawa Besar, SUMBAWA,Kab. Sumbawa, Nusa Tenggara Barat",,,,84311
3129,UNIT BISNIS MATARAM,BC16,KF. BUIN BATU,Jl. Desa Sekongkang Atas,081138007815,-8.983565,116.767151,84457
3129,UNIT BISNIS MATARAM,BC17,KF Rembiga,Jl. Dr Wahidin No. 80C - 80D Mataram,081138007816,-8.5604447,116.1099794,83124
3129,UNIT BISNIS MATARAM,BC18,KF Bima 2,Jl. Buya Hamka Dusun Suka Maju Rt:Rw : 05/02,081138007817,-8.588852,118.695312,84116
3129,UNIT BISNIS MATARAM,BC19,KLINIK MANDIRI KF ALAS.,JL. PENDIDIKAN NO.,03729293089,,,84454
3129,UNIT BISNIS MATARAM,BC20,KF TALIWANG,"Jl. Cendrawasih No. 4 Kec. Kijang, Taliwang, Kab. Sumbawa Barat",081138007818,-8.743791,116.849229,84455
3129,UNIT BISNIS MATARAM,BC21,KF Gerung,"Jl. Raya Gerung No. Kabupaten Lombok Barat, NTB",081139000371,-8.687137,116.122375,83363
3129,UNIT BISNIS MATARAM,BC22,KF Dompu,Jl. Jendral Sudirman No.27,081337628355,-8.539521355,118.4594215,84211
3129,UNIT BISNIS MATARAM,BC23,KF Aikmel,JL. Koperasi No. 100 Aikmel,082340599930,-8.5695403,116.5265024,83653
3130,UNIT BISNIS MEDAN,BD01,KF.0027,Jl. Palang Merah No. 32,08116533153,3.584705,98.679853,20111
3130,UNIT BISNIS MEDAN,BD0111,KF. 27 (M3/ALKES),Jl. Palang Merah No.32,08116533148,,,20111
3130,UNIT BISNIS MEDAN,BD03,KF.0029,Jl. Sutomo No. 63,081110678205,2.955778,99.062935,21117
3130,UNIT BISNIS MEDAN,BD04,KF.0030,Jl. Let.Jend.Soeprapto No. 56,081110678203,3.3282916,99.1616387,20632
3130,UNIT BISNIS MEDAN,BD0412,PPO2  KF. 0030,Jln. Let.Jend.Soeprapto No. 56,,,,20613
3130,UNIT BISNIS MEDAN,BD05,KF.0039,Jl. Jend. Gatot Subroto No. 37 A/C  Kel. Sei Sikambing D Kec. Medan Petisah Medan - 20119 Sumatera Utara,081110678190,3.5899008,98.650614,20119
3130,UNIT BISNIS MEDAN,BD06,KF.0041 Ketaren,Jl. Selamet Ketaren Blok C/Kav-12,08116533193,3.098542,98.491383,22111
3130,UNIT BISNIS MEDAN,BD07,KF.0085,Jl. Diponegoro No. 15/87 Kel. Karo,081110678207,2.953365,99.064689,21122
3130,UNIT BISNIS MEDAN,BD08,KF.0107,Jl. Gato Subroto No. 72C,081110678213,3.590701,98.660399,20118
3130,UNIT BISNIS MEDAN,BD09,KF.0160,Jl. Setia Budi No. 94 B-C,081110678209,3.575937833,98.64275558,34883
3130,UNIT BISNIS MEDAN,BD10,KF.0162,Jl. Kartini No. 19,08116533205,2.956977,99.055253,32367
3130,UNIT BISNIS MEDAN,BD11,KF.0312 Prapat,Jl. A Yani No. 128,081110678247,2.095863,99.833733,20713
3130,UNIT BISNIS MEDAN,BD12,KF.0315 Sipuan,Jl. Merdeka No. 5 P.Sidempuan,081110678206,1.377125,99.271483,22715
3130,UNIT BISNIS MEDAN,BD13,KF.Pel014 RS Umum dr. Pirngadi,Jl. Prof.H.M Yamin Sh No.47,08116533151,3.597657,98.688283,20231
3130,UNIT BISNIS MEDAN,BD14,KF.Pel041 RS Umum Kota Tebing,Jln. Kumpul Pane NO.226,,,,20613
3130,UNIT BISNIS MEDAN,BD15,KF.Pel054 RSUD Rantau Prapat,Jl. Kihajar Dewantara No. 129,08116533215,2.095883,99.846536,21428
3130,UNIT BISNIS MEDAN,BD16,KF 84 Tanjungbalai,Jl. Sudirman No. 25 B Kel. Karya,08116533211,2.9641164,99.8038151,21311
3130,UNIT BISNIS MEDAN,BD17,KF.0542 Percut,Jl. Medan Batang Kuis Psr 9 Percut Sei Tuan,081110678280,3.606347,98.757819,20371
3130,UNIT BISNIS MEDAN,BD18,KF.0545 Cemara,Jl. Boulevard No. 86 Cemara Asri,081110678204,3.632141,98.697943,20371
3130,UNIT BISNIS MEDAN,BD19,KF.0557 Marelan,Jl. Marelan Raya No. 193 - 195 Link. XVIII Psr. 2 Marelan,081110678210,3.69905,98.657275,20255
3130,UNIT BISNIS MEDAN,BD20,KF.0586 Sb Squere,Jl. Cactus Raya No. 2 Komplek Tasbi Square,081110678253,3.56461,98.637946,36365
3130,UNIT BISNIS MEDAN,BD21,KF.J CITY,Jl. Karya Wisata J Square B3,08116533173,3.535108,98.662448,20143
3130,UNIT BISNIS MEDAN,BD22,KF.A YANI,Jl. Ayani No. 80/82 Pematang Siantar,08116533207,2.964432,99.075478,22732
3130,UNIT BISNIS MEDAN,BD23,KF.M YAMIN,Jln. M Yamin No.282 B Medan,,,,20232
3130,UNIT BISNIS MEDAN,BD24,KF DENAI,"Jl. Denai, Komplek Grand Denai No. 185 D Medan",08116533180,3.581785,98.718728,20226
3130,UNIT BISNIS MEDAN,BD25,KF ZEIN,Jl. M Zein Hamid Komplek Flora Kuning Mas No. 52A,08116533182,3.53516,98.68384,20146
3130,UNIT BISNIS MEDAN,BD26,KF RING ROAD,"Jl. Ringroad No. 4019 - 4020, Kel. Tanjung Rejo",08116533175,3.577129,98.626251,20128
3130,UNIT BISNIS MEDAN,BD27,KF. SISINGAMANGARAJA R. PRAPAT,Jl.  Sisingamangaraja No. 117,081110678186,2.088032,99.84755,20372
3130,UNIT BISNIS MEDAN,BD28,KF. SISINGAMANGARAJA MEDAN,Jl. Sisingamangaraja No. 446,08116533184,3.55058,98.698011,20219
3130,UNIT BISNIS MEDAN,BD29,KF. Dr Basri,Jalan Jumhana No. 39/440,08116533186,3.5866062,98.7019138,20216
3130,UNIT BISNIS MEDAN,BD30,ApotekKualanamu,"Jl. Sultan Serdang Pasar 6, Kel. Telaga Sari, Kec. Tanjung Morawa, Deli Serdang",08116533189,3.547367,98.784697,71452
3130,UNIT BISNIS MEDAN,BD31,Apotek KF Lubuk Pakam,"Jl. Imam Bonjol No. 47, Kel. Tanjung Garbus Satu",081110678208,3.56489,98.873135,20511
3130,UNIT BISNIS MEDAN,BD32,Apotek KF Jamin Ginting,Jl. Jamin Ginting Komplek Royal Gardenia No.6-7 Medan,081110678266,3.525512,98.631001,20135
3130,UNIT BISNIS MEDAN,BD33,KF Binjai,JL Soekarno Hatta No. 83,081110678269,3.6085857,98.5006734,20736
3130,UNIT BISNIS MEDAN,BD34,KF Bandara Kualanamu,"Bandara Kualanamu Lt.Ii No.11-6B Pasar Vi, Deli Serdang",08116533230,3.633825,98.877304,34558
3130,UNIT BISNIS MEDAN,BD3411,PPO KF Bandara Kualanamu,medan,,,,10610
3130,UNIT BISNIS MEDAN,BD35,KF A Yani T. Tinggi,Jl. Ahmad Yani No.200B,08116533235,3.32564,99.154854,20626
3130,UNIT BISNIS MEDAN,BD36,KF HM Joni,"Jl. HM Joni, Medan",081110678185,3.568506,98.699595,20217
3130,UNIT BISNIS MEDAN,BD3611,KF HM Joni (PPO Basri),Jl. Kapt. Jumhana No. 39/440,08116533186,3.5866062,98.7019138,20211
3130,UNIT BISNIS MEDAN,BD37,KF Iskandar Muda,JL Iskandar Muda No. 204 F,081110678200,3.581108,98.661258,20153
3130,UNIT BISNIS MEDAN,BD38,KF Setia Budi 2,"Jl. Setia Budi No.96, Kel. Tanjung",081110678211,3.5602,98.6367,20131
3130,UNIT BISNIS MEDAN,BD39,KF Karya,"Jl. Karya No. 167 B-C Kel. Karang Berombak, Medan",081110678201,3.616346,98.665776,20117
3130,UNIT BISNIS MEDAN,BD40,KF Padang Bulan,Jl. Jamin Ginting No. 406-407,08116533308,3.55643,98.66192,20153
3130,UNIT BISNIS MEDAN,BD41,KF Sibolga,"Jl. Sisingamangaraja, Kel. Aek Mani",08116533075,1.729912,98.793664,22533
3115,UNIT BISNIS NUSADUA,AO01,KF.0082,"Jl. Dewi Sartika No.67, Kuta",081139607717,-8.738069,115.1659323,57188
3115,UNIT BISNIS NUSADUA,AO02,KF.0126,Jl. By Pass Ngurah Rai No.890,08113803386,-8.796092,115.219354,80361
3115,UNIT BISNIS NUSADUA,AO03,KF.0157,Jl. Raya Tuban No.15,089624059165,-8.73308,115.177854,57188
3115,UNIT BISNIS NUSADUA,AO04,KF.0232 Seminyak,Jl. Raya Kerobokan No.140,081139607730,-8.682299,115.164309,80361
3115,UNIT BISNIS NUSADUA,AO05,KF.0236 Taman Griya,Jl. Danau Batur No.1 C,081995119438,-8.784818,115.18763,50661
3115,UNIT BISNIS NUSADUA,AO06,KF.0242 Kuta,Jl. Raya Kuta No.102,089694342489,-8.721976,115.178513,52352
3115,UNIT BISNIS NUSADUA,AO07,KF.0376 Tj. Benoa,"Jl. Pratama No.79A Lingkungan Banjar Terora, Benoa",081110678092,-8.774458,115.222642,80361
3115,UNIT BISNIS NUSADUA,AO08,KF.0384 BERAWA,Jl. Raya legian No.139,082114696984,-8.658641,115.139917,80361
3115,UNIT BISNIS NUSADUA,AO09,KF.0412 Dsix,Jl. Raya Legian No.154 Seminya,081339200021,-8.697011,115.168741,80361
3115,UNIT BISNIS NUSADUA,AO10,KF.0415 Petitenget,Jl. Petitenget No.7 Kerobokan,081337880952,-8.673028,115.158976,80361
3115,UNIT BISNIS NUSADUA,AO11,KF.0424 Jimbaran,"Jl. Bukit Permai ,Ling Pesalak",081139607714,-8.783456,115.166439,50661
3115,UNIT BISNIS NUSADUA,AO12,KF.0579 Kerobokan,Jl. Raya Kerobokan No.15,081139607731,-8.668739,115.150305,80361
3115,UNIT BISNIS NUSADUA,AO13,KF.0589 Dewi Sri,Jl. Dewi Sri No.888,081110678090,-8.701218,115.176711,80361
3115,UNIT BISNIS NUSADUA,AO14,KF.0598 Kedonganan,Jl. Raya Uluwatu No.24 Jimbara,085739865507,-8.771627,115.173085,50661
3115,UNIT BISNIS NUSADUA,AO15,KF.Bypass,Jl. By Pass Ngurah Rai No.74,085792304864,-8.765966,115.178172,80361
3115,UNIT BISNIS NUSADUA,AO16,KF.P. Jelantik,Jl.P.Jelantik No.58 Legian-Kut,089692412681,-8.710091,115.174211,80361
3115,UNIT BISNIS NUSADUA,AO17,KF.Legian II,Jl. Legian No.204 Legian Kuta,081139607720,-8.715821,115.174011,52352
3115,UNIT BISNIS NUSADUA,AO18,KF.Pantai Kuta,Jl. Pantai Kuta No .22,081139607721,-8.722647,115.172487,52352
3115,UNIT BISNIS NUSADUA,AO19,KF.PADMA,Jl. Padma Utara No. 9,081139607791,-8.701524,115.166308,80361
3115,UNIT BISNIS NUSADUA,AO20,KF.POPULAR BATU BELIG,"Jl. Subak Sari, Br. Tegal Gundul, Desa Tibubeneng, Kuta Utara",081110678080,-8.668926,115.146452,64217
3115,UNIT BISNIS NUSADUA,AO21,KF PEPITO CANGU,"Jl. Raya Canggu, Kuta Utara",089695350190,-8.644013,115.15769,80361
3115,UNIT BISNIS NUSADUA,AO22,KF ULUWATU UNGASAN,"Jl. Raya Uluwatu, Desa Ungasan",089535558384,-8.818732,115.153649,80361
3115,UNIT BISNIS NUSADUA,AO23,KF SEMPIDI,"Jl. Raya Sempidi No. 12 Kel. Sempidi, Kec. Mengwi",08999967888,-8.603484,115.186037,80351
3115,UNIT BISNIS NUSADUA,AO24,KF.0838,"JL. PANTAI BERAWA NO 16,BR. PELAMBINGAN, DESA TIBUBENENG,KECAMATAN KUTA UTARA, KABUPATEN BADUNG, PROVINSI BALI",085739001063,-8.6449074,115.1528273,80361
3115,UNIT BISNIS NUSADUA,AO26,KF MELASTI,Jl. PANTAI MELASTI,081139607722,-8.708726,115.169805,80361
3115,UNIT BISNIS NUSADUA,AO27,KF PEPITO ND,Jl. Raya SILIGITA NUSA DUA,082146585373,-8.799947,115.217547,80361
3115,UNIT BISNIS NUSADUA,AO28,KF PEPITO GWK,"Jl. Raya Uluwatu, Desa Ungasan",081237670817,-8.806771,115.158986,80361
3115,UNIT BISNIS NUSADUA,AO29,KF Bintang Seminyak,Jl.Raya Seminyak Kuta -Bali,087860165371,-8.694899,115.168186,80361
3115,UNIT BISNIS NUSADUA,AO30,KF 940 Canggu,"JL. Raya Canggu No. 77 Canggu, Kuta Utara",081110678159,-8.6370401,115.1474197,80361
3115,UNIT BISNIS NUSADUA,AO31,ApotekKFPepitoPrerenan,Jl. Prerenan Canggu,081139607740,-8.630628,115.13299,80351
3115,UNIT BISNIS NUSADUA,AO32,ApotekKFEchoBeach,Jl. Pantai Echo Beach Canggu,08113800222,-8.653872,115.126503,64217
3115,UNIT BISNIS NUSADUA,AO33,KF PEPITO AYANA,"Jl. Karang Mas No. 89, Br./Lingk. Bhuana Gubug",081237900345,-8.791927,115.153311,50661
3115,UNIT BISNIS NUSADUA,AO34,KF CAMPLUNG TANDUK,Jl. Camplung Tanduk,087866854884,-8.690863,115.164792,80361
3115,UNIT BISNIS NUSADUA,AO35,KF Kartika Plaza II,Jl. Kartika No. 12X Kuta,081139607739,-8.730236,115.167843,52352
3115,UNIT BISNIS NUSADUA,AO37,KF Kerobokan II,Jl. Gn. Tangkuban Perahu Kerobokan,081139607768,-8.672552,115.169957,80361
3115,UNIT BISNIS NUSADUA,AO38,KF Umalas,"Jl. Ulamas II, Kuta Utara",081339459634,-8.666227,115.155889,80361
3115,UNIT BISNIS NUSADUA,AO39,KF Kapal,"Jl. Raya Abianbase, Kapal, Mengwi, Badung",081243485930,-8.579788,115.181193,80351
3115,UNIT BISNIS NUSADUA,AO43,KF Health & Beauty Seminyak,"Jl. Kayu Aya No. 29 Seminyak, Badung Bali",081337953396,-8.682985,115.163965,80361
3115,UNIT BISNIS NUSADUA,AO44,KF Udayana,"Jl. Raya Kampus Unud Jimbaran, Kuta Selatan",082146888120,-8.789527,115.177016,50661
3115,UNIT BISNIS NUSADUA,AO45,KF Semer,"Jl. Raya Anyar No.30, Kerobokan, Kuta Utara",085792304864,-8.648134,115.161462,80361
3115,UNIT BISNIS NUSADUA,AO46,KF H&B Batu Bolong,"Jl. Pantai Batu Bolong No.37, Canggu, Kuta Utara",081238413737,-8.6477464,115.1371046,64217
3115,UNIT BISNIS NUSADUA,AO47,KF Express Bandara I Gusti Ngurah Rai,"Jl Raya Ngurah Rai, Tuban, Kuta, Badung",08197888886,-8.7450589,115.1627288,80361
3115,UNIT BISNIS NUSADUA,AO48,KF Pecatu,"Jl. Raya Uluwatu Pecatu No.78, Pecatu, Kec. Kuta Sel., Kabupaten Badung, Bali",081337803374,-8.8296964,115.1361158,80361
3115,UNIT BISNIS NUSADUA,AO49,KF PADMA 2,Jl. Raya Padma Utara No. 4,,,,80361
3115,UNIT BISNIS NUSADUA,AO50,KF Pepito Sawangan,"Jl. Raya Nusa Dua Selatan, Benoa Ke",082322624525,,,80361
3131,UNIT BISNIS PADANG,BE02,KF.0146,Jl. Jend. Sudirman No. 14,081277222146,-0.311677,100.372577,26117
3131,UNIT BISNIS PADANG,BE04,KF.0372,Jl. Jendral Sudirman No. 8 Payakumbuh Utara,082174846240,-0.223447,100.632851,27561
3131,UNIT BISNIS PADANG,BE05,KF.0386,Jl. S. Parman No.161,081110678547,-0.913799,100.349907,25134
3131,UNIT BISNIS PADANG,BE0502,Optik KF 386 Fortuna,Jl. S Parman No. 171 B,,,,25132
3131,UNIT BISNIS PADANG,BE06,Apotek Kimia Farma RSUP Dr. M. Djamil Pa,Jl. Perintis Kemerdekaan No. 24,07514788361,,,25121
3131,UNIT BISNIS PADANG,BE07,KF.0530 Alai,Jl. Tengku Umar No. 12 CD Alai,082171166256,-0.9287266,100.366821,25139
3131,UNIT BISNIS PADANG,BE09,KF.Andalas,"Jl. Azizi No.159, Andalas",081374331007,-0.938132629,100.3871443,25126
3131,UNIT BISNIS PADANG,BE10,KF.Siteba,Jl. Raya Siteba No. 12,082293087912,-0.898961,100.370444,25146
3131,UNIT BISNIS PADANG,BE11,KF.Solok,Jl. Kh Ahmad Dahlan No. 121 Solok,081110678544,-0.789734,100.658536,27322
3131,UNIT BISNIS PADANG,BE16,KF SOETA,Jl. Soekarno hatta payakumbuh,081110678551,-0.2325545,100.6203113,26224
3131,UNIT BISNIS PADANG,BE17,KF TABING,Jl. Adinegoro No 8,081110678548,-0.868007,100.34341,25171
3131,UNIT BISNIS PADANG,BE18,KF HAMKA,Jl. Prof. Dr. Hamka No. 44 Padang,081110678543,-0.895308,100.352209,25132
3131,UNIT BISNIS PADANG,BE20,KF Cengkeh,Jl.Raya Cengkeh No.4 Padang,081398353313,-0.953364771,100.4134281,25225
3131,UNIT BISNIS PADANG,BE21,KF PEL RS BHAYANGKARA,Jl. Jati No.1,081270417973,-0.933028,100.366021,28763
3131,UNIT BISNIS PADANG,BE22,KF LAPAI,"Jl. Jhoni Anwar No.5, Kp. Lapai",083181180805,-0.902854348,100.3607955,27111
3131,UNIT BISNIS PADANG,BE23,KF Manggie,Komplek J&T Soekarno Hatta No. 110-112 Manggie Gantiang Bukittinggi,081110678550,-0.2984,100.380356,26129
3131,UNIT BISNIS PADANG,BE25,KF Zam Zam,Jl. dr. Abdul Rivai No. 23,085322221251,-0.305085706,100.3624201,
3132,UNIT BISNIS PALANGKARAYA,BF01,KF.0069,Jl. Tambun Bungai No. 19,081110678102,-2.209696,113.923551,73111
3132,UNIT BISNIS PALANGKARAYA,BF02,KF.0103,Jl. H.M. Arsyad No. 120 D-E,081110678106,-2.541614,112.949288,74322
3132,UNIT BISNIS PALANGKARAYA,BF03,KF.0112,Jl. Diponegoro No. 8,085346873241,-2.214683,113.922038,73111
3132,UNIT BISNIS PALANGKARAYA,BF04,KF.0156,Jl. Yetro Sinseng No. 1,081110678105,-0.962089,114.889719,73812
3132,UNIT BISNIS PALANGKARAYA,BF05,KF.0373,Jl. Rajawali KM. 4.5 Gg Patin No. 1,082254283108,-2.185479,113.886434,73112
3132,UNIT BISNIS PALANGKARAYA,BF06,KF.0483 G OBOS,Jl. G. Obos Ruko No. 4,0811584834,-2.225474,113.902178,16111
3132,UNIT BISNIS PALANGKARAYA,BF07,KF A Yani (KF.0020),"Jl. A Yani No 63 B , Pahandut, Kota Palangkaraya",081345536130,-2.210527,113.92248,73111
3132,UNIT BISNIS PALANGKARAYA,BF08,KF Pangkalan Bun,Jl.  Raya Iskandar No. 45,08115287272,-2.6929011,111.6375079,74112
3132,UNIT BISNIS PALANGKARAYA,BF09,KLINIK KIMIA FARMA KUMAI,Jl. Masjid RT. 03 RW. 01,05322075288,,,74181
3132,UNIT BISNIS PALANGKARAYA,BF11,Apotek KF. 971,Jl. Tjilik Riwut Palangkaraya,081110678093,-2.200773,113.912284,73111
3132,UNIT BISNIS PALANGKARAYA,BF12,KF Tjilik Riwut Sampit,Jl. Tjilik Riwut KM2.5 Baamang Tengah,081255284016,-2.521893,112.945349,74312
3132,UNIT BISNIS PALANGKARAYA,BF13,KF SETHADJI,Jl. Sethadji No. 08 Palangkaraya,082353159429,-2.226858,113.93077,73111
3132,UNIT BISNIS PALANGKARAYA,BF14,KF BUNTOK,Jl. Patianom No. 33 Buntok,085245106920,-1.724979,114.83356,73712
3132,UNIT BISNIS PALANGKARAYA,BF15,KF RTA Milono,"Jl.Rta Milono KM 3.5 Kel. Menteng, Kec: Jekan Raya",081110678103,-2.236815,113.919768,16111
3132,UNIT BISNIS PALANGKARAYA,BF16,KF Antasari Palangkaraya,"Jl.Pangeran Antasari RT.003 Kel. Raja, Kec. Arut Selatan Kobar",082253468107,-2.675713,111.630148,74114
3134,UNIT BISNIS PALEMBANG,BH01,KF.0072,Jl. Suprapto No.64,0811730720,-3.794867,102.264513,38221
3134,UNIT BISNIS PALEMBANG,BH02,KF.0080,Jl. Kol. Atmo No.1250,08117853168,-2.980792,104.756987,30125
3134,UNIT BISNIS PALEMBANG,BH03,KF.0118,Jl. Jend. A. Yani No.96,08117847841,-2.122221,106.10865,33121
3134,UNIT BISNIS PALEMBANG,BH04,KF.0209 Rosarum,Jl. Iskandar Muda No.222,08117853170,-2.983886,104.756115,30134
3134,UNIT BISNIS PALEMBANG,BH05,KF.0220,Jl. Jati No.3,08117853181,-3.803051,102.276498,38224
3134,UNIT BISNIS PALEMBANG,BH06,KF.0239 Diatari,Jl. MP. Mangkunegara No.1,08117853171,-2.947385,104.767878,30114
3134,UNIT BISNIS PALEMBANG,BH09,KF.0471 Sukabangun,Jl. Sukabangun 2 No. 2298,08117853178,-2.942696,104.7308807,78813
3134,UNIT BISNIS PALEMBANG,BH10,KF.Pel029 RSUD Pangkal Pinang,Jl. Mayor Syafri Rahman Komp. RSU Pangkal Pinang,08117853184,-2.143688,106.125029,33146
3134,UNIT BISNIS PALEMBANG,BH11,KF.0480 Prabumulih,Jl. Jend.Sudirman No.758,08117853179,-3.424899,104.243494,31125
3134,UNIT BISNIS PALEMBANG,BH12,KF.0503 Suta,Jl. S Soekarno Hatta BB Tower No. 7 B,08117853185,-2.13311,106.106911,75559
3134,UNIT BISNIS PALEMBANG,BH13,KF.0478 Symphoni,Jl. Mangkunegara No.14,08117853177,-2.940362,104.767066,30114
3134,UNIT BISNIS PALEMBANG,BH14,KF.0537 Lubuk Linggau,Jl. Yos Sudarso No. 86,081110678084,-3.275757,102.900736,31628
3134,UNIT BISNIS PALEMBANG,BH15,KF.0538 Rama,Jl. Kapt A. Rivai No.1384 Kel 26 Ilir Kec. Ilir Barat I,081110678268,-2.98605,104.744448,30136
3134,UNIT BISNIS PALEMBANG,BH17,KF.0539 Sudirman S Liat,Jl. Jend Sudirman Sungai Liat kel. Parit padang Kec. Sungai Liat,08117853187,-1.880442,106.114429,33215
3134,UNIT BISNIS PALEMBANG,BH18,KF.0558 Merdeka,Jl. Merdeka Rt.17 Rw.06 Talang Semut,08117853176,-2.992021,104.755547,30135
3134,UNIT BISNIS PALEMBANG,BH19,KF.0573 Amalia,Jl. D.I. Panjaitan No. 5203,08117124890,-2.9956241,104.8131443,30266
3134,UNIT BISNIS PALEMBANG,BH22,KF. Sumpah Pemuda,Jl.Sumpah Pemuda J4 No.5 Palembang,081110678086,-2.973964,104.737964,30137
3134,UNIT BISNIS PALEMBANG,BH23,KF. Burlian,Jl. Kolonel H.Burlian,081110678085,-2.935041,104.718405,38571
3134,UNIT BISNIS PALEMBANG,BH24,KF Sultan M. Mansyur,Jl. Sultan M. Mansyur Komplek Green Forest Residence No.780-814,08117124894,-3.0028685,104.7342466,30131
3134,UNIT BISNIS PALEMBANG,BH26,KF. Plaju,Jl.A .Yani-Plaju Palembang,081110678087,-2.990796,104.786254,30264
3134,UNIT BISNIS PALEMBANG,BH27,KF. Sudirman,JL. Jend. Sudirman No 85,08117808270,-2.9710762,104.7509782,30126
3134,UNIT BISNIS PALEMBANG,BH28,KF LEMABANG PALEMBANG,Jl. RE Martadinata No. 162 Ilir,08117896022,-2.96875,104.786678,30111
3134,UNIT BISNIS PALEMBANG,BH36,KF Baturaja,Jl.Jenderal A.Yani No.319 Kemalaraj,07357455029,-4.1250647,104.1691456,32383
3135,UNIT BISNIS PALU,BI01,KF.0328 Megatama,Jl. Palola Ruko No. 3,082194840184,-0.901384,119.847387,94226
3135,UNIT BISNIS PALU,BI02,KF.0390,Jl. Setiabudi No. 65 D,085242095350,-0.8896,119.8785,94111
3135,UNIT BISNIS PALU,BI03,KF.0449 Tatura,Jl. Wolter Monginsidi no 145,081361681924,-0.907476,119.875657,94235
3135,UNIT BISNIS PALU,BI04,KF.0490 DEWI,Jl. Dewi Sartika no 37,081259737062,-0.921665,119.894172,94231
3135,UNIT BISNIS PALU,BI05,KF.Pel025 RSUD Undata,Jl. R.E.Martadinata Ruko Square Blok A/2 Kompleks Martadinata,081110678189,-0.856716,119.884016,94976
3135,UNIT BISNIS PALU,BI07,KF.0636 Towua,Jl. Towua Ruko No. 1,082259114441,-0.931227,119.885162,94236
3135,UNIT BISNIS PALU,BI08,KF.Simpong,Jl. Jendral Sudirman No. 03 Simpong Luwuk,085299902900,-0.969189,122.787573,94717
3135,UNIT BISNIS PALU,BI09,KF. PARIGI,"Jl. Trans Sulawesi No. 152 Parigi,  Bantaya, Kec. Parigi, Kabupaten Parigi Moutong",082150642998,-0.809458,120.1717242,94471
3135,UNIT BISNIS PALU,BI10,KF. Toli Toli,Jl. Usman Binol,085214073930,1.041115,120.814652,84353
3135,UNIT BISNIS PALU,BI11,KF BASUKI RAHMAT,Jl. Basuki Rahmat No.21A,081110678197,-0.918887,119.878868,94236
3135,UNIT BISNIS PALU,BI12,KF RSUD TORABELO SIGI,Jl. Trans Palu - Palolo Sigi,085240939621,-1.007539,119.930192,94364
3135,UNIT BISNIS PALU,BI13,KF POS Sudirman,Jl. Sudirman No. 11 Palu,081110678245,-0.894152,119.869738,94111
3135,UNIT BISNIS PALU,BI14,KF Mongonsidi Palu,Jl. Monginsidi No. 46 Palu,082259169013,-0.901984,119.874119,94235
3135,UNIT BISNIS PALU,BI15,KF I Gusti Ngurah Rai,Jln I Gusti Ngurah Rai Ruko No.03 (Samping SPBU),081110678191,-0.922849,119.863501,94237
3135,UNIT BISNIS PALU,BI16,KF Veteran Palu,"Jl. Veteran No. 79, Kec. Tanamondidi, Kota Palu",081216357498,-0.898837,119.895681,94234
3135,UNIT BISNIS PALU,BI17,KF Kamonji,"Jl. Imam Bonjol No. 46 A,Kel. Kamon",082194485854,-0.895393,119.857525,94221
3135,UNIT BISNIS PALU,BI18,KF Tadulako,"Jl. Soekarno Hatta, Kel. Talise,",,-0.850079,119.89184,94111
3140,UNIT BISNIS PEKALONGAN,BN01,KF.0016,Jl. Imam Bonjol No.32,08112608913,-6.886173,109.669618,57373
3140,UNIT BISNIS PEKALONGAN,BN02,KF.0097,Jl. Mayjend. Sutoyo No.44,08112608914,-6.86918,109.129773,70243
3140,UNIT BISNIS PEKALONGAN,BN03,KF.0145,Jl. Sultan Agung No.99,08112608916,-6.884412,109.136151,52361
3140,UNIT BISNIS PEKALONGAN,BN04,KF.0183,"Jl. jend A Yani no 39 Kebondalem, Mulyoharjo, Kec. Pemalang Kab. Pemalang, jawa Tengah",08112608915,-6.89201,109.38245,59431
3140,UNIT BISNIS PEKALONGAN,BN05,KF.0430 Slawi,Jl. Dr.Sutomo No.54,08112608917,-6.992784,109.138668,52419
3140,UNIT BISNIS PEKALONGAN,BN06,KF.0323,Jl. Urip Sumoharjo No.61,08112608918,-6.9028,109.6642,51111
3140,UNIT BISNIS PEKALONGAN,BN07,KF.0567 A. Yani,Jl. Ahmad Yani No. 55 B,08112608919,-6.871678,109.042888,52212
3140,UNIT BISNIS PEKALONGAN,BN08,KF.Mejasem,"Jl. Pala Raya  , Ruko 4-5 Mejasem",08112608920,-6.884668,109.151121,52181
3140,UNIT BISNIS PEKALONGAN,BN09,KF Comal,"Jl. A.Yani Balutan, Purwoharjo Comall",082324854484,-6.900152,109.533544,63491
3140,UNIT BISNIS PEKALONGAN,BN13,KF SUDIRMAN KETANGGUNGAN,"Jl. Sudirman Ketanggungan, Brebes",08112923244,-6.935388,108.891692,52192
3140,UNIT BISNIS PEKALONGAN,BN15,KF 1125 Kedungwuni,"Jl. Urip Sumoharjo, Jebegan, Podo,",,-6.961033279,109.6470829,51173
3140,UNIT BISNIS PEKALONGAN,BN16,Apotek KF Batang,"Jl. A Yani No. 22, Kab. Batang",08112600092,-6.91123,109.728482,67153
3140,UNIT BISNIS PEKALONGAN,BN17,KF POSO PEKALONGAN,Jl: Raya utara no:11A Banjaran - Adiwerna Kab Tegal,08112755921,-6.934391,109.135198,52125
3140,UNIT BISNIS PEKALONGAN,BN18,KF BUMIAYU,"Jl. Pangeran Diponegoro No. 159, Bumiayu, Kab. Brebes",08112755923,-7.247194,109.00655,52273
3140,UNIT BISNIS PEKALONGAN,BN19,KF Express Rest Area 260B Banjaratma,"Rest Area 260B Banjaratma, Ruas Jalan Tol Pejagan - Pemalang KM 260B arah Jakarta Banjaratma, Kecamatan Bulakamba, Kabupaten Brebes Jawa Tengah",081127038888,-6.905956306,108.9834645,52253
3136,UNIT BISNIS PEKANBARU,BJ01,KF.0093,Jl. Jend. Sudirman No. 175,081110678258,0.530415,101.447702,28112
3136,UNIT BISNIS PEKANBARU,BJ02,KF.0122,Jl. Jend. A. Yani No. 118 C,081110678101,0.523833,101.44209,28127
3136,UNIT BISNIS PEKANBARU,BJ03,KF.0229,Jl. Sudirman No. 724,081110678173,0.498962,101.454232,28282
3136,UNIT BISNIS PEKANBARU,BJ04,KF.0393 Panam,Jl. HR Subrantas No. 99,081110678153,0.464405,101.40166,28293
3136,UNIT BISNIS PEKANBARU,BJ05,KF.0395 Melur,Jl. Melur No. 4,081267922204,0.52814,101.434255,50661
3136,UNIT BISNIS PEKANBARU,BJ06,KF.0518 Nangka,Jl. Nangka No.59,081110678252,0.503121,101.42851,28282
3136,UNIT BISNIS PEKANBARU,BJ07,KF.0614 Harapan,Jl. H. Imam Munandar No. 227 RT.01/11 Kel. Tangkerang Kec. Bukit Raya,081219989149,0.499915,101.467152,28289
3136,UNIT BISNIS PEKANBARU,BJ08,KF.0597 Simpang Tiga,Jl. Kaharudin Nasution No. 185 Rt.001/003  Kel. Simpang Tiga Kec. Bukit Raya,082169872657,0.45535,101.452848,71452
3136,UNIT BISNIS PEKANBARU,BJ09,KF.0596 Subrantas II,Jl. H.R. Subrantas (Depan Unri) Rt.005/005 Kel.Tuah Karya Kec. Tampan,082285472245,0.463875,101.379596,28291
3136,UNIT BISNIS PEKANBARU,BJ11,KF.0692 Bangkinang,Jl. Prof.H.M.Yamin Sh. No.1-2 Bangkinang,082284619022,0.34648,101.026623,28411
3136,UNIT BISNIS PEKANBARU,BJ12,KF. PKL KERINCI,Jl. Maharaja Indra No.289-290 Pangkalan Kerinci,085263886151,0.403909,101.857833,28381
3136,UNIT BISNIS PEKANBARU,BJ13,KF Sudirman Duri,Jl.Jend. Sudirman Batang Serosa Bengkalis-Riau,081372916421,1.270356,101.201584,28784
3136,UNIT BISNIS PEKANBARU,BJ15,KF TEMBILAHAN,Jl. M. Boya No.12 Rt.001 Rw.11 Kel Tembilahan Kota Kec. Tembilahan Kab. Indragiri Hilir 29212,081267521166,-0.319808,103.155968,29212
3136,UNIT BISNIS PEKANBARU,BJ17,Klinik Mandiri KF Hemodialisa RS Lancang Kuning,"Jl. Ronggo Warsito Ujung No. 5-A Kel. Sukamaju, Kec. Sail Pekanbaru",,,,28131
3136,UNIT BISNIS PEKANBARU,BJ18,KF 1105 Paus,"Jl. Paus No.55, Rt.003/Rw.007, Tengkerang",081110678165,0.497237199,101.4390103,28125
3136,UNIT BISNIS PEKANBARU,BJ20,Apotek KF Bukit Barisan,"Jl. Bukit Barisan No.7A, Kel. Tangkerang Timur, Kec. Tenayan Raya, Pekanbaru",081110678152,0.492092,101.48586,28289
3136,UNIT BISNIS PEKANBARU,BJ22,Apotek KF Hangtuah,"Jl. Hang Tuah No. 158B, Kel. Rejosari Timur, Kec. Tenayan Raya, Pekanbaru",081110678164,0.524092,101.475423,50125
3136,UNIT BISNIS PEKANBARU,BJ23,Apotek KF Delima,Jl. Delima No.175,081363024984,0.479323,101.406939,28291
3136,UNIT BISNIS PEKANBARU,BJ24,KF Sudirman Dumai,"Jl. Jend. Sudirman No.168, Tlk. Binjai, Kec. Dumai Tim., Kota Dumai, Riau 28826",08117606038,1.668781,101.448043,28811
3137,UNIT BISNIS PONTIANAK,BK01,KF.0032,Jl. Tanjung Pura No. 419,081110678162,-0.036767,109.346656,78122
3137,UNIT BISNIS PONTIANAK,BK0111,PPO Klinik KF Danau Sentarum,Jl. Danau Sentarum No. 1 samping Gg. Waris Sui bangkong Pontianak,05638175874,-0.044858799,109.310591,78111
3137,UNIT BISNIS PONTIANAK,BK02,KF 333 Ayani 2,Jl. Ahmad Yani 2 No.8D/8E Kel. Sungai Raya Kec. Sungai Raya Kab. Kuburaya,081110678217,-0.087045,109.369342,78391
3137,UNIT BISNIS PONTIANAK,BK0211,PPO Klinik KF Sintang,Jl. YC Oevang Oeray RT.29/03 Baning Kota Kec. Sintang Kab. Sintang,05652030018,-0.06342,111.48698,78611
3137,UNIT BISNIS PONTIANAK,BK03,KF.0371,Jl. A Yani No. 5,0817880371,-0.062463,109.355749,78124
3137,UNIT BISNIS PONTIANAK,BK04,KF.0477,Jl. Sungai Raya Dalam,081250142081,-0.076015,109.357812,78391
3137,UNIT BISNIS PONTIANAK,BK05,KF 525 SSA,Jl. M Yamin No. A7 Pontianak,089525890150,0.30957,109.24789,78111
3137,UNIT BISNIS PONTIANAK,BK0512,PPO Klinik KF Landak,Jl. Agus Salim No.31 Ketapang,05632020737,-0.38046,109.95265,79357
3137,UNIT BISNIS PONTIANAK,BK06,KF 565 Urip,Jl. Jend. Urip No. 11A,081110678161,-0.024288,109.336291,16914
3137,UNIT BISNIS PONTIANAK,BK08,KF.DIPO,Jl. P Diponegoro No. 27 Rt 56/18 Kel Pasiran Kec Singkawang Barat,081110678167,0.900999,108.98202,28754
3137,UNIT BISNIS PONTIANAK,BK10,KF SERUNI,Panglima Aim No. 2. Kelurahan Tanjung Hulu. Kecamatan Pontianak Timur,082148460104,-0.029307,109.36744,77457
3137,UNIT BISNIS PONTIANAK,BK1012,PPO Klinik KF Ketapang,Jl. Agus Salim No.31 Ketapang,05343035521,-1.835323,109.973836,78811
3137,UNIT BISNIS PONTIANAK,BK13,KF JERUJU,Jl. Kom Yos Sudarso Ruko No.3 Pontianak,081250142090,-0.007571,109.297855,78117
3137,UNIT BISNIS PONTIANAK,BK16,KF Purnama,"Jl. Purnama Gg. Purnama Patra No. 2 Rt.04/10 Kel. Akcaya, Kec. Pontianak Selatan",082255407087,-0.052447,109.32988,78121
3137,UNIT BISNIS PONTIANAK,BK20,KF Sintang,JL. Lintas Melawi Rt.03/01,081345847887,-0.06476,111.48899,78611
3137,UNIT BISNIS PONTIANAK,BK21,KF Yos Sudarso Singkawang,Jl. Yos Sudarso No.40A,089614839473,0.912185,108.986736,79121
3137,UNIT BISNIS PONTIANAK,BK22,KF Delta Pawan,JL. R. Suprapto No. 67,,1.8400936,109.9689465,78811
3170,UNIT BISNIS PURWOKERTO,CR01,KF.0089,Jl. Gatot Subroto No. 59 Sidan,08112795989,-7.715266,109.015598,53223
3170,UNIT BISNIS PURWOKERTO,CR02,KF 0206,Jl. Gatot Subroto No. 115 A Gu,081110678233,-7.697905,109.028047,53224
3170,UNIT BISNIS PURWOKERTO,CR03,KF 0437 Fajar,Jl. RA Wiraatmaja No. 37 Kedun,081110678296,-7.420942,109.2242063,53371
3170,UNIT BISNIS PURWOKERTO,CR04,KF 0133 Purwokerto,Jl. Jend. Sudirman Timur No. 4,081110678231,,,53147
3170,UNIT BISNIS PURWOKERTO,CR05,KF PBLG,Jl. Mayjend Sungkono No. 22 Pu,081110678292,-7.399976,109.349806,53321
3170,UNIT BISNIS PURWOKERTO,CR06,KF Akasia,Jl. Jend Sudirman No. 80A Soka,081110678232,-7.4573218,109.2931024,53181
3139,UNIT BISNIS SAMARINDA,BM01,KF M. Yamin (KF 105),"Jl. M Yamin Ruko M Yamin Square No.6, Kel. Gunung Kelua, Samarinda Ulu, Kota Samarinda, Kalimantan Timur 75123",08115583901,-0.120958483,117.1271692,75122
3139,UNIT BISNIS SAMARINDA,BM0112,PPO Klinik KF Sutomo,"Jl. Dr Sutomo No.52, Samarinda Ulu,",,,,75122
3139,UNIT BISNIS SAMARINDA,BM02,KF Hidayatullah (KF 114),Jl. P. Hidyatullah No. 46,08115583902,-0.50195,117.155618,75112
3139,UNIT BISNIS SAMARINDA,BM03,KF Agus Salim (KF 138),Jl. KH.Agus Salim No. 30,08115583903,-0.494367,117.150761,75117
3139,UNIT BISNIS SAMARINDA,BM04,KF Slamet Riyadi (KF 176),"Jl. Slamet Riyadi RT 05 RW 02, Kel. Karang Asam Ilir, Kec. Sungai Kunjang, Kota Samarinda",08115583904,-0.507002,117.118889,75126
3139,UNIT BISNIS SAMARINDA,BM05,KF Antasari (KF 177),Jl. P. Antasari No. 3,08115583905,-0.492612,117.127111,20856
3139,UNIT BISNIS SAMARINDA,BM06,KF Bhayangkara Btg (KF 257),Jl. Bhayangkara No. 18,08115583906,0.137912,117.465629,29355
3139,UNIT BISNIS SAMARINDA,BM07,KF Cendrawasih (KF 273),Jl. Basuki Rahmat No. 22,08115583907,-0.476171,117.160084,75119
3139,UNIT BISNIS SAMARINDA,BM08,KF Bung Tomo (KF 354),Jl. Bung Tomo No. 50,08115583908,-0.514783,117.127877,75131
3139,UNIT BISNIS SAMARINDA,BM09,KF A. Yani Btg (KF 361),Jl. Ahmad Yani No. 37,08115583909,0.132577,117.488599,75311
3139,UNIT BISNIS SAMARINDA,BM10,KF Diponogoro (KF 378),Jl. Diponegoro No. 68,08115583910,-0.500738,117.151797,75112
3139,UNIT BISNIS SAMARINDA,BM11,KF PMI (KF 385),"Jl. Palang Merah Indonesia No.25 Sidodadi, Samarinda Ulu",08115583911,-0.4786521,117.1433891,34876
3139,UNIT BISNIS SAMARINDA,BM12,KF AW. Syahranie (KF 439),"Jl. A.Wahab Syahranie, Ruko Syahranie Center No.6 Kel. Air Hitam, Kec. Samarinda Ulu Samarinda Kalimantan Timur",08115583912,-0.4580999,117.139978,20856
3139,UNIT BISNIS SAMARINDA,BM13,KF Juanda (KF 443),Jl. Ir. H. Juanda No.6 Kel. Air Putih Samarinda Kalimantan Timur,08115583913,-0.482657,117.131685,28711
3139,UNIT BISNIS SAMARINDA,BM1311,PPO Klinik KF Amanah,Jl. Pm Noor  Rt.50 No.4 Sempaja Sam,08115801582,,,75118
3139,UNIT BISNIS SAMARINDA,BM15,KF Patimura (KF 523),"Jl. Pattimura No. 49, Baqa,Samarinda Seberang",08115583914,-0.520113,117.146656,75131
3139,UNIT BISNIS SAMARINDA,BM16,KF W. Hasyim (KF 528),Jl. W Hasim No. 23,08115583915,-0.443183,117.155691,75119
3139,UNIT BISNIS SAMARINDA,BM17,KF Timbau (KF 725),Jl. Wolter Mongonsidi Tenggarong,08115583916,-0.435798,116.996719,75572
3139,UNIT BISNIS SAMARINDA,BM18,KF Sambutan (KF 823),Jl.Sultan Alimuddin No.6 Sambutan,08115583917,-0.517027,117.163774,75114
3139,UNIT BISNIS SAMARINDA,BM19,KF Sukarame (KF 824),Jl.Awang Long Senopati No.27,08115583918,-0.406009,116.989853,75572
3139,UNIT BISNIS SAMARINDA,BM20,KF Rapak Indah (KF 860),Jl. Rapak Indah RT.01 No. 6,08115583919,-0.504286,117.10912,75126
3139,UNIT BISNIS SAMARINDA,BM21,KF Kadrie Oening (KF 854),Jl. Kadrie Oening RT.18 No. 89B,08115583920,-0.473146,117.126395,75122
3139,UNIT BISNIS SAMARINDA,BM22,KF Loa Janan (KF 907),"Jl. Cipto Mangunkusumo No. 2C RT.19, Kel. Simpang Tiga, Kec. Loa Janan Ilir, Kota Samarinda",08115583921,-0.569968927,117.0872837,75391
3139,UNIT BISNIS SAMARINDA,BM23,KF Palaran (KF 930),JL. TRIKORA RT.004,08115583922,-0.560338999,117.1683869,75241
3139,UNIT BISNIS SAMARINDA,BM24,KF. Sangatta,JL.YOS SUDARSO SANGATTA,054925190,,,75683
3139,UNIT BISNIS SAMARINDA,BM25,Klinik Mandiri KF Amanah,JL. PM. NOOR NO 4 RT. 50,0541220286,,,75118
3139,UNIT BISNIS SAMARINDA,BM26,KF DI Panjaitan,Jl. DI. Panjaitan Ruko Segiri 2 No. B-5,08115583923,-0.4591031,117.1884252,75119
3139,UNIT BISNIS SAMARINDA,BM27,KF Gunung Cermai (KF 1038),"Jl. Gunung Cermai Rt.01, Samarinda",08115583924,-0.498776233,117.1357971,75122
3139,UNIT BISNIS SAMARINDA,BM28,KF Gerilya (KF 1020),Jl. Gerilya Ruko 1B/1C Rt.10,08115583925,-0.484107162,117.1740023,30661
3139,UNIT BISNIS SAMARINDA,BM29,KF Barong Tongkok (KF 1290),Jl. Naras Gunaaq RT 4,08115583926,-0.244783362,115.6888618,75776
3139,UNIT BISNIS SAMARINDA,BM30,KF Yos Sudarso (KF 1265),Jl. Yos Sudarso II RT.16 NO.41,08115583927,0.505241054,117.534354,75683
3139,UNIT BISNIS SAMARINDA,BM33,KF PM NOOR,Jl. PM. Noor,08115801582,-0.4533358,117.164977,75118
3141,UNIT BISNIS SEMARANG,BO01,KF.0017,Jl. Tentara Pelajar No. 16A,08112922301,-7.009127,110.433964,50249
3141,UNIT BISNIS SEMARANG,BO02,KF Pandanaran Semarang,"Jl. Pandanaran No. 66, Semarang Tengah",08112922302,-6.986907,110.416113,50132
3141,UNIT BISNIS SEMARANG,BO03,KF.0019,Jl. ST. Agung No. 1 A Komp.Pertokoan R. A/15,08112922303,-7.007774,110.415696,50232
3141,UNIT BISNIS SEMARANG,BO04,KF.0071,Jl. Dr. Soetomo No. 3,06281110678071,-6.985427,110.408685,44161
3141,UNIT BISNIS SEMARANG,BO05,KF.0153,Jl. Jati Raya Banyumanik No.1,081110678154,-7.069452,110.418169,50263
3141,UNIT BISNIS SEMARANG,BO06,KF.0178,Jl. Brigjend. Sudiarto No.462,081110678068,-7.011276,110.474587,50192
3141,UNIT BISNIS SEMARANG,BO07,KF.0182,Jl. Brigjen Sudiarto No.30,08112922307,-7.334678,110.498096,50227
3141,UNIT BISNIS SEMARANG,BO08,KF.0203,Jl. Diponegoro No.212,08112922308,-7.137899,110.405282,50512
3141,UNIT BISNIS SEMARANG,BO09,KF.0237,Jl. Dr. Susanto No.31,08112922309,-6.746902,111.041386,59119
3141,UNIT BISNIS SEMARANG,BO10,KF.0259,Jl. Fatmawati No. 42,08112922310,-7.034063,110.467578,59255
3141,UNIT BISNIS SEMARANG,BO11,KF.0260,Jl. DI Panjaitan No.47,08112922311,-6.985381,110.418786,50134
3141,UNIT BISNIS SEMARANG,BO12,KF.0271,"Jl. Dokter Cipto No. 49, Semarang Timur",08112922312,-6.976839,110.43495,62182
3141,UNIT BISNIS SEMARANG,BO13,KF.0279,Jl. Lukmonohadi No.10,08112922313,-6.818779,110.837105,59343
3141,UNIT BISNIS SEMARANG,BO14,KF.0324,Jl. Raya Ngaliyan No. 1B,08112922314,-6.991996,110.352912,50185
3141,UNIT BISNIS SEMARANG,BO15,KF.0374,Jl. Rsu No. 13,08112922315,-7.147903,111.593742,58312
3141,UNIT BISNIS SEMARANG,BO16,KF.0441 Anjasmoro,Jl. Anjasmoro Raya No. 4-B,081110678155,-6.973774,110.390367,45365
3141,UNIT BISNIS SEMARANG,BO17,KF.0469 Majapahit,Jl. Brigjen Sudiarto No. 321 C,08112922319,-7.007578,110.459761,50246
3141,UNIT BISNIS SEMARANG,BO18,KF.0468 Gajah,Jl. Bridgen Sudiarto No. 226,62 8112922320,-7.004781,110.452905,50248
3141,UNIT BISNIS SEMARANG,BO1811,PPO Klinik KF Medoho Gajah,Jl. Medoho 1 No. 18 Rt.001 Rw.001 K,08139871998,-6.98183471,110.40928,50162
3141,UNIT BISNIS SEMARANG,BO1812,PPO Klinik KF USM Gajah,"Jl. Soekarno Hatta, Tlogosari, Sema",08112886398,-6.982372,110.453054,50113
3141,UNIT BISNIS SEMARANG,BO19,KF.0445 Citarum,Jl. Citarum Raya No. 60,08112922317,-6.969453,110.436192,50122
3141,UNIT BISNIS SEMARANG,BO20,KF.0442,"Jl. Ahmad Yani RT 02 RW 01 Sidomulyo Ungaran Timur, Ungaran Timur,Kab. Semarang, Jawa Tengah, - 50514",08112922318,-7.133228854,110.4095353,21455
3141,UNIT BISNIS SEMARANG,BO21,KF.0584 Abdurahman,Jl. Abdul Rahman Saleh No. 82,08112922321,-6.991536,110.38116,50149
3141,UNIT BISNIS SEMARANG,BO22,KF.0593 Purwodadi,Jl. Let.Jend R Suprapto No. 12,08112922322,-7.09399,110.913491,35674
3141,UNIT BISNIS SEMARANG,BO23,KF. 0699 Ngesrep Banyumanik,Jl. Ngesrep Timur V No. 69 RT,081110678096,-7.05094,110.425233,50269
3141,UNIT BISNIS SEMARANG,BO24,KF. JEPARA,Jl. Wahid Hasyim,08112898607,-6.604751,110.679871,59426
3141,UNIT BISNIS SEMARANG,BO2411,PPO Klinik KF Mayong Jepara,"Jl. Raya Jepara-Kudus KM. 22, No 05",02917517102,-6.695083,110.771323,59465
3141,UNIT BISNIS SEMARANG,BO25,KF Tlogosari,"Jl. Tlogosari Raya II No. 46, Kel.",08112780177,-6.98249,110.46018,50113
3141,UNIT BISNIS SEMARANG,BO26,KF. VETERAN,Jl. Veteran 30-30A,06281110678070,-6.995694,110.412841,45588
3141,UNIT BISNIS SEMARANG,BO27,KF KENDAL SEMARANG,Jl. Laut No 16 A Kel. Patukangan Kendal,08112882043,-6.91868,110.20521,51311
3141,UNIT BISNIS SEMARANG,BO28,KF 1042 Pemuda Pati,"Jl. Pemuda No.288 DS. Kalidoro, Kec",08112962823,-6.75347,111.04953,59111
3141,UNIT BISNIS SEMARANG,BO29,KF SRONDOL,Jl. Perintis Kemerdekaan No. 178B Semarang,08112882042,-7.063208,110.413067,50263
3141,UNIT BISNIS SEMARANG,BO30,KF BANJARSARI,Jl. Timoho Raya,081110678069,-7.060462,110.443685,68455
3141,UNIT BISNIS SEMARANG,BO31,KF Mijen,Jl. MR. Moch. Ichsan Rt.01/Rw.10,08112886396,-7.019311,110.337398,56258
3141,UNIT BISNIS SEMARANG,BO32,KF Ambarawa,Jl. Jendral Sudirman No.88 C,081110678095,-7.255842,110.406954,50612
3141,UNIT BISNIS SEMARANG,BO33,KF Pamularsih,Jl. Pamularsih No. 71 F,081110678156,-6.987487,110.392111,50149
3141,UNIT BISNIS SEMARANG,BO34,Apotek KF USM,Jl Soekarno Hatta,08112886398,-6.9824726,110.4531148,50196
3141,UNIT BISNIS SEMARANG,BO35,KF Demak,"Jl. Pemuda, Demak",08112780114,-6.8902589,110.6401744,59511
3141,UNIT BISNIS SEMARANG,BO36,KF Prambatan,Jl. Kudus Jepara No 519 Prambatan Lor Kec Kaliwungu,081110678076,-6.801255,110.82214,59332
3141,UNIT BISNIS SEMARANG,BO37,KF Wonosobo,Jl. Veteran Kec Wonosobo,08112680117,-7.365579,109.902697,56317
3141,UNIT BISNIS SEMARANG,BO38,KF 18 OSHCS Pemuda,Jl. Pemuda No. 135,081110678067,-6.979936,110.413603,50132
3141,UNIT BISNIS SEMARANG,BO41,KF Unwahas,"Jl. Menoreh Raya No. 94, Kel. Sampa",08112886397,-7.011861,110.390744,50231
3145,UNIT BISNIS SIDOARJO,BS01,KF.0065,Jl. Gajah Mada No. 62,081252221865,-7.46434,112.439295,58253
3145,UNIT BISNIS SIDOARJO,BS0101,KLINIK - KF.0065,,,,,
3145,UNIT BISNIS SIDOARJO,BS02,KF.0119 Sidoarjo,Jl. Deltasari Blok AN No. 11,08113334119,-7.364575,112.7341,61256
3145,UNIT BISNIS SIDOARJO,BS03,KF.0124,Jl. Raya Sedati Gede No. 59,08113110124,-7.377854,112.762912,61253
3145,UNIT BISNIS SIDOARJO,BS0301,KF.0124,,,,,
3145,UNIT BISNIS SIDOARJO,BS04,KF.0165 Pasuruan,Jl. Dr.Wahidin sel. No. 59,081217373636,-7.659712,112.902369,67117
3145,UNIT BISNIS SIDOARJO,BS0401,KLINIK - KF.0165 Pasuruan,,,,,
3145,UNIT BISNIS SIDOARJO,BS05,KF.0180 Pahlawan,Jl. Pahlawan No. 10,081110678066,-7.44975,112.70835,61213
3145,UNIT BISNIS SIDOARJO,BS06,KF.0261,Jl. Majapahit No. 38,082231342520,-7.460989977,112.7172455,61234
3145,UNIT BISNIS SIDOARJO,BS0601,KLINIK - KF.0261,,,,,
3145,UNIT BISNIS SIDOARJO,BS07,KF.0521 Taman Pondok Jati,,,,,
3145,UNIT BISNIS SIDOARJO,BS08,KF.0603 Gedangan,Jl. Ahmad Yani No. 119,082331622300,-7.392035,112.727616,66272
3145,UNIT BISNIS SIDOARJO,BS09,KF.0604 Jombang,Jl. Pres. KH. Abdurrahman Wahid No. 43,08113000697,-7.538721,112.243584,61419
3145,UNIT BISNIS SIDOARJO,BS10,KF.0638 Puri Indah,Jl. Cemengkalang 35 A-B,08113599975,-7.44327,112.68892,61234
3145,UNIT BISNIS SIDOARJO,BS11,KF.Diponegoro,Jl. Diponegoro No. 104,081333313423,-7.45829,112.713626,61213
3145,UNIT BISNIS SIDOARJO,BS12,KF.Nganjuk,Jl. Abdul Rahman Saleh No. 105 Nganjuk,081132010111,-7.603226,111.893911,62181
3145,UNIT BISNIS SIDOARJO,BS1201,KLINIK - KF.Nganjuk,,,,,
3145,UNIT BISNIS SIDOARJO,BS13,KF Mojosari,Jl. Brawijaya No. 75 Mojosari,08113277575,-7.520788,112.566251,61384
3145,UNIT BISNIS SIDOARJO,BS1301,Klinik KF Mojosari,,,,,
3145,UNIT BISNIS SIDOARJO,BS14,KF Damarsi,,,,,
3145,UNIT BISNIS SIDOARJO,BS15,KF Krian,Jl. Surabaya-Mojokerto No. 71,0811332043,-7.40435,112.586025,61262
3145,UNIT BISNIS SIDOARJO,BS16,KF. REWWIN,Jl. Brigjen Katamso  No. 25,08113310209,-7.349717,112.748775,62292
3145,UNIT BISNIS SIDOARJO,BS17,KF. Kertosono,,,,,
3145,UNIT BISNIS SIDOARJO,BS18,KF. Bangil Pasuruan,Jl. Ahmad Yani No. 21,082335290139,-7.597694,112.780964,67153
3145,UNIT BISNIS SIDOARJO,BS19,KF Tropodo,Jl. Letjen Suprapto No. 57 Waru-Sidoarjo,085655222203,-7.355072,112.765794,61256
3145,UNIT BISNIS SIDOARJO,BS20,KF PANDAAN,Jl. Urip Sumoharjo Pandaan,08113301551,-7.653925,112.69544,67156
3145,UNIT BISNIS SIDOARJO,BS21,KF PEPELEGI,Ruko Pepiland Blok B No. 18. Pepelegi,082183141115,-7.35918,112.718968,61256
3145,UNIT BISNIS SIDOARJO,BS22,KF Gedangan 2,,,,,
3145,UNIT BISNIS SIDOARJO,BS23,KF CITRA MEDIKA,Jl. Ray Jetak No. 9 Pandaan Pasuruan,081232593458,-7.672301,112.702908,67156
3145,UNIT BISNIS SIDOARJO,BS2301,Klinik KF Citra Medika,,,,,
3145,UNIT BISNIS SIDOARJO,BS24,KF Panglima Sudirman,Jl. Panglima Sudirman No. 36 Pasuruan,08113780036,-7.650555,112.900745,59327
3145,UNIT BISNIS SIDOARJO,BS25,KF Kedawung,Jl. Raya Banyu Biru KM.1 Kedawung Pasuruan,081249314846,-7.705864,112.975251,67184
3145,UNIT BISNIS SIDOARJO,BS26,KF Safe N Lock,Jl.Lingkar Timur KM. 5.5 Rangkah Kidul,081138006644,-7.465073,112.739292,61234
3145,UNIT BISNIS SIDOARJO,BS27,KF Wage Sidoarjo,Jl. Aryo Babengah No. 240 Sidoarjo,081215314525,-7.36998,112.715742,61254
3145,UNIT BISNIS SIDOARJO,BS28,KF Basuni Mojokerto,,,,,
3145,UNIT BISNIS SIDOARJO,BS29,KF Sukodono,"Jl. Karang Nongko No. 18, Sukodono, Sidoarjo",081352322376,-7.410175,112.672905,59552
3143,UNIT BISNIS SORONG,BQ01,KF.0130,Jl. Jend. Sudirman No. 1,081110678168,-0.88626,131.286693,98415
3143,UNIT BISNIS SORONG,BQ02,KF.0205 Central,Jl. A. Yani No. 17,081148501969,-0.879479,131.264374,98414
3143,UNIT BISNIS SORONG,BQ04,KF.Jupiter,Jl. Sungai Maruni No.,081148501964,-0.891134,131.316292,98419
3143,UNIT BISNIS SORONG,BQ05,KF.Sanggeng,Jl. Yos Sudardo Sanggeng,081110678157,-0.862069,134.066292,98312
3143,UNIT BISNIS SORONG,BQ06,KF.A Yani A Yani,Jl. A. Yani No. 34 Depan Masji,081148501946,-0.882846,131.281976,98416
3143,UNIT BISNIS SORONG,BQ07,KF FAKFAK,Jl. Yos sudarso RT 06 Kel. dulanpokpok Kec. pariwari Kab.fakfak,081110678169,-2.931611,132.295181,98611
3143,UNIT BISNIS SORONG,BQ11,KF Aimas,"Jl. Sorong - Klamono, Samping Alun Alun Aimas, Kab. Sorong, Papua Barat",081110678158,-0.956822,131.336339,98456
3143,UNIT BISNIS SORONG,BQ12,KF Raja Ampat,Jl. Poros No. 30 Kota Waisai,081148501937,-0.42322,130.81724,98482
3147,UNIT BISNIS SUKABUMI,BU01,KF.0008,Jl. Veteran II No. 2,08111169730,-6.919213,106.927644,43114
3147,UNIT BISNIS SUKABUMI,BU0112,PPO Klinik KF Cimangkok,Jl. Raya Sukabumi Cianjur Kec. Suka,,,,43191
3147,UNIT BISNIS SUKABUMI,BU0113,PPO Klinik KF 008,Jl. Veteran II No.2,,,,43111
3147,UNIT BISNIS SUKABUMI,BU02,KF.0221,Jl. Jend. Sudirman No. 81B,08111169731,-6.919471,106.9175601,92352
3147,UNIT BISNIS SUKABUMI,BU03,KF.0317,Jl. Dr. Muardi No.150E,081110678556,-6.813278,107.136892,43216
3147,UNIT BISNIS SUKABUMI,BU0312,PPO Klinik KF PT Pratama Nike,"Jl. Raya Sukabumi Cianjur Km 13-14,",,,,43191
3147,UNIT BISNIS SUKABUMI,BU04,KF.0335 Cicurug,Jl. Siliwangi No. 416,08111169732,-6.779926,106.784035,43359
3147,UNIT BISNIS SUKABUMI,BU05,KF.0351 Cibadak,Jl. Siliwangi No. 70,08111169734,-6.894348,106.793093,40241
3147,UNIT BISNIS SUKABUMI,BU06,KF.0365 Selokopi,Jl. Ir. H. Juanda No. 15 Rt 01/13 Kel. Pamoyanan,08111169735,-6.817529,107.136425,16136
3147,UNIT BISNIS SUKABUMI,BU07,KF 0408 Ciamacan,Jl. Raya Cipanas - Cimacan Cianjur,081110678303,-6.7189197,107.0313202,41251
3147,UNIT BISNIS SUKABUMI,BU08,KF.0505 Cipanas,Jl. Raya Cipanas KM 81.3 RT 03/02 Desa Gadong Kecamatan Pacet,081110678306,-6.736725,107.04346,16770
3147,UNIT BISNIS SUKABUMI,BU09,KF.0549 Sukaraja,Jl.  Raya Ngaweng No. 35 RT 03/18 Desa Sukaraja Kec. Sukaraja,081110678569,-6.919618,106.953117,21256
3147,UNIT BISNIS SUKABUMI,BU10,KF 0686 Siliwangi,"JL. SILIWANGI NO 92, SELABATU, CIKOLE, SUKABUMI",08111169739,-6.91427,106.93585,43113
3147,UNIT BISNIS SUKABUMI,BU11,KF Pelabuhan Ratux,Jl.Siliwangi No.49 Pel Ratu -Sukab,08111169740,-6.988212,106.547653,34375
3147,UNIT BISNIS SUKABUMI,BU12,KF. Cisaat,Jl.Raya Cibolang Cisaat-Sukabumi,08111169741,-6.902617,106.88238,43152
3147,UNIT BISNIS SUKABUMI,BU13,KF. Karang Tengah,Jl. Raya Bandung Km 02 Desa Sabandar Kecamatan Karangtengah Kabupaten Cianjur 43281,08111169742,-6.804894,107.165392,43281
3147,UNIT BISNIS SUKABUMI,BU17,Apotek KF Cipoho,Jl. Pelabuhan II No.21 Kota Sukabumi,08111169745,-6.932841,106.925331,43283
3147,UNIT BISNIS SUKABUMI,BU18,Apotek KF Otista Sukabumi,Jl. Otista No.70 Kota Sukabumi,08111169746,-6.928553,106.933242,40558
3147,UNIT BISNIS SUKABUMI,BU20,KF CIRANJANG,"Jl. Raya Bandung No.170 Ciranjang, Kab. Cianjur",08111169747,-6.813852,107.246586,43282
3147,UNIT BISNIS SUKABUMI,BU22,KF Pasir Hayam,"JL. Raya Cianjur - Sukabumi, Desa Sirnagalih, Kec CIlaku, Kab Cianjur",0811118413,-6.845184,107.127021,46187
3147,UNIT BISNIS SUKABUMI,BU23,KF Ciaul,"Jl. RA Kosasih Rt 02 Rw 02, Kel. Subang Jaya, Kec. Cikole, Sukabumi, Jawa Barat",08111161120,-6.92258,106.942345,43113
3146,UNIT BISNIS SURABAYA,BT01,KF 0022 UPN,"Jl. Rungkut Madya No. 207 C, Surabaya",081216199699,-7.331628,112.787308,60293
3146,UNIT BISNIS SURABAYA,BT02,KF.0023 Kendangsari,Jl. Raya Kendangsari Blk.J/7,08113472525,-7.320861,112.749562,60292
3146,UNIT BISNIS SURABAYA,BT03,KF.0024 Dharmawangsa,Jl. Dharmawanagsa No. 24,08113290024,-7.26957,112.756204,60286
3146,UNIT BISNIS SURABAYA,BT04,KF.0025 Darmo 2-4,Jl. Raya Darmo No. 2-4,087797999007,-7.27755,112.7408,60264
3146,UNIT BISNIS SURABAYA,BT05,KF.0026,"Jalan Diponegoro No.26, Darmo, Surabaya, Jawa Timur",081217948826,-7.29249643,112.7376987,60264
3146,UNIT BISNIS SURABAYA,BT06,KF.0035 Ngagel,Jl. Ngagel Jaya Sel No.109,081110678255,-7.293473,112.756899,60283
3146,UNIT BISNIS SURABAYA,BT07,KF.0045 Darmo 94,Jl. Raya Darmo No. 94,08113214545,-7.288561,112.738871,60264
3146,UNIT BISNIS SURABAYA,BT0711,PPO Klinik KF Pratama Sebelas Medika,"Jl. Bung Tomo No. 5, Surabaya",,-7.290253909,112.7466953,60241
3146,UNIT BISNIS SURABAYA,BT08,KF.0052,Jl. Raya Dukuh Kupang No. 54,081216863450,-7.282888,112.71602,60225
3146,UNIT BISNIS SURABAYA,BT09,KF.0163,Jl. Jokotole No. 5,081294970055,-7.028535,112.754313,68167
3146,UNIT BISNIS SURABAYA,BT10,KF.0166,Jl. A. Yani No. 228,08113190166,-7.335556,112.729173,60235
3146,UNIT BISNIS SURABAYA,BT11,KF.0175,Jl. Karangmenjangan No. 9,085158050175,-7.2667394,112.7612327,57384
3146,UNIT BISNIS SURABAYA,BT12,KF.0243,Jl. Raya Arjuno No. 151,081110678243,-7.267541,112.728725,70571
3146,UNIT BISNIS SURABAYA,BT13,KF.0274 PAMEKASAN,Jl. Trunojoyo 92 Pamekasan,08113500274,-7.159516,113.481658,69317
3146,UNIT BISNIS SURABAYA,BT14,KF.0304,Jl. Perak Timur No. 166,08994000304,-7.223227,112.732499,60164
3146,UNIT BISNIS SURABAYA,BT15,KF.0407 MULYO,Jl. Mulyosari No. 157,082320866626,-7.269606,112.796761,68359
3146,UNIT BISNIS SURABAYA,BT16,KF.0419 Trunojoyo,Jl. Trunojoyo No.75A Bangkalan,081110678214,-7.027838,112.756417,68261
3146,UNIT BISNIS SURABAYA,BT17,KF 0432 Ampel,"Jalan K.H.M Mansyur No.77, Kel. Nyamplungan",08113393322,-7.2327564,112.741094,
3146,UNIT BISNIS SURABAYA,BT18,KF 485 Bukit Palma,Jln. Alas Malang no.171 Surabaya,08113140485,-7.26191,112.635756,60198
3146,UNIT BISNIS SURABAYA,BT19,KF.0460 Gwalk,Jl. Ruko Taman Gapuro B-2.G.Walk,08113289460,-7.287202,112.655805,15530
3146,UNIT BISNIS SURABAYA,BT20,KF.0511 Klampis,"Jl. Klampis Jaya no. 10 E ,,",082228970055,-7.2873895,112.7759524,60117
3146,UNIT BISNIS SURABAYA,BT21,KF.0526 RUNGKUT,"Jl. Rungkut Madya no. 97 ,",08113250526,-7.331324,112.77874,60293
3146,UNIT BISNIS SURABAYA,BT22,KF.0459 LIDAH WETAN,JL. Menganti no.854,081335999842,-7.306832,112.666022,60213
3146,UNIT BISNIS SURABAYA,BT23,KF.Manukan,Jl. Manukan Lor 3K No.6 Surabaya,081389998840,-7.259923,112.66533,60185
3146,UNIT BISNIS SURABAYA,BT25,KF.Lontar,"Jl. Raya Lontar No. 111, Ruko Villa Valensia",085732764800,-7.284933,112.674711,61173
3146,UNIT BISNIS SURABAYA,BT26,KF.Kallibokor,Jl. Raya Ngagel Jaya No. 1,08113280093,-7.287234,112.756038,60283
3146,UNIT BISNIS SURABAYA,BT27,KF Ketintang,Jl. Raya Ketintang No. 178,08113475656,-7.309888,112.731484,60231
3146,UNIT BISNIS SURABAYA,BT28,KF Sumenep,"Jl. KH Mansyur No. 42 Desa Pangarangan, Sumenep",081779859403,-7.010641,113.870566,69412
3146,UNIT BISNIS SURABAYA,BT29,KF Sampang,Jl.  Rajawali No.25A,082337657988,-7.199265,113.241939,69216
3146,UNIT BISNIS SURABAYA,BT35,KF KUPANG JAYA,Jl. Kupang Jaya Blok B - 4 Surabaya,081334714074,-7.276075,112.70672,60189
3146,UNIT BISNIS SURABAYA,BT36,KF 836 Estheva Jemursari,Jl. Raya Jemursari No.203,08113086866,-7.31661,112.75227,60239
3146,UNIT BISNIS SURABAYA,BT38,KF. Kusuma Bangsa,Jl. Kusuma Bangsa No. 27,081233523656,-7.255286,112.750117,60272
3146,UNIT BISNIS SURABAYA,BT39,KF. Banyu Urip II,Jl. Banyu Urip No. 137C,082130009735,-7.2703716,112.7201975,35373
3146,UNIT BISNIS SURABAYA,BT42,Apotek KF Bendul Merisi,Jl. Bendul Merisi No.53 Surabaya,081110678195,-7.30582,112.739915,60239
3146,UNIT BISNIS SURABAYA,BT43,Apotek KF HR Muhammad,Jl. HR Muhammad No.21 Surabaya,082332907438,-7.286402,112.700143,60226
3146,UNIT BISNIS SURABAYA,BT44,Apotek KF Balongsari Tama,Jl. Balongsari Tama No.73 Surabaya,08113524449,-7.262368,112.677859,58253
3146,UNIT BISNIS SURABAYA,BT45,KF 994 Sukolilo,"Jl. Nginden Semolo No.22, RT.002/RW.01, Nginden Jangkungan",081336394448,-7.299570588,112.764325,59172
3146,UNIT BISNIS SURABAYA,BT47,KF Dharmahusada,Jl. Raya Dharmahusada No. 117 C Surabaya,082141056544,-7.265498,112.76559,57384
3146,UNIT BISNIS SURABAYA,BT48,KF Manukan Tama II,Jl. Manukan Tama No. 139 Surabaya,085648345167,-7.264582,112.667022,15530
3146,UNIT BISNIS SURABAYA,BT49,KF Penjaringan,"Jl. Raya Pandugo No.72, Penjaringan Sari",087753423271,-7.321290924,112.7870442,60293
3146,UNIT BISNIS SURABAYA,BT50,KF Undaan,Jl. Undaan Kulon No. 69 Surabaya,03135976353,-7.249580825,112.7451109,60274
3146,UNIT BISNIS SURABAYA,BT51,KF Wiyung 2,"Jl. Menganti No.177, Wiyung, Kec. Wiyung, Kota SBY, Jawa Timur",08113241919,-7.313936,112.698459,60229
3146,UNIT BISNIS SURABAYA,BT52,KF Kebonsari,Jl. Kebonsari Manunggal No. 7 Surabaya,081259688288,-7.327709,112.713155,56553
3146,UNIT BISNIS SURABAYA,BT54,KF Tambak Rejo,Jl. Tambak Rejo No. 84 C - D Surabaya,081231241374,-7.245351,112.758601,54391
3146,UNIT BISNIS SURABAYA,BT56,KF Suramadu,Jl. Kedung Cowek No. 189 Surabaya,08113233232,-7.23327,112.7691902,60125
3146,UNIT BISNIS SURABAYA,BT58,Klinik Pratama KF Sebelas Medika,"Jl. Bung Tomo No. 5-7, Surabaya",03199022682,-7.290228,112.746707,60241
3146,UNIT BISNIS SURABAYA,BT60,Apotek KF H&B Pakuwon City Mall Surabaya,"Jl. Kejawan Putih Mutiara Surabaya, Lt. GF - 29 , Pakuwon City Mall",08113322819,-7.2771392,112.8060664,60112
3146,UNIT BISNIS SURABAYA,BT61,KF Express Bandara Juanda,"Jl. Ir. H. Juanda, Betro, Kec Sedati Kabupaten Sidoardjo Jawa Timur 61253",081336050656,-7.3788851,112.7851004,61353
3146,UNIT BISNIS SURABAYA,BT62,KF Kutisari,Jl. Kutisari Selatan. No.36,085174133204,-7.33570431,112.7467521,60291
3146,UNIT BISNIS SURABAYA,BT63,KF Babatan,Jl. Menganti No.722 Kel. Babatan,082331932518,-7.308562125,112.6749583,60222
3146,UNIT BISNIS SURABAYA,BT65,KF Lakarsantri,"Jl. Lidah Kulon No.16, Lakarsantri",089697009400,-7.305599174,112.6572329,
3146,UNIT BISNIS SURABAYA,BT66,KF Kedung Cowek,Jl. Kedung Cowek no.44 Tambaksari,08998160160,-7.24186622,112.7695,60126
3146,UNIT BISNIS SURABAYA,BT67,KF Karang Pilang,Jl. Mastrip no.185 Karang Pilang,082220295918,-7.33570431,112.7059855,
3146,UNIT BISNIS SURABAYA,BT68,KF Sumenep 2,Jl. Trunojoyo No.91 Sumenep,082228260168,-7.018030512,113.8578097,69412
3142,UNIT BISNIS SURAKARTA,BP01,KF.0063,Jl. L. U. Adisucipto No.70,081326183377,-7.551793,110.794434,57455
3142,UNIT BISNIS SURAKARTA,BP02,KF.0076,Jl. Jawa No. 14,081110678141,-7.623506,111.522182,56196
3142,UNIT BISNIS SURAKARTA,BP03,KF.0087,Jl. Kol. Sutarto No.57,081110678298,-7.558712,110.843996,57126
3142,UNIT BISNIS SURAKARTA,BP04,KF.0123,Jl. Anggrek No.201,081110678115,-7.53506,110.591345,57316
3142,UNIT BISNIS SURAKARTA,BP05,KF.0212 Sragen,Jl. Raya Sukowati No. 440 A,081110678136,-7.424075,111.031663,57214
3142,UNIT BISNIS SURAKARTA,BP06,KF.0228 Sukoharjo,Jl. Veteran No. 11,081110678116,-7.6819449,110.840013,57556
3142,UNIT BISNIS SURAKARTA,BP07,KF.0252,Jl. Yosodipuro No. III B,081110678135,-7.561816,110.811156,57139
3142,UNIT BISNIS SURAKARTA,BP08,KF.0326 Veteran,Jl. Veteran No. 25 C,081110678137,-7.584205868,110.8281678,57116
3142,UNIT BISNIS SURAKARTA,BP09,KF.0417 Madiun,Jl. Kol. Mahardi No.59,081110678144,-7.632583,111.533485,57528
3142,UNIT BISNIS SURAKARTA,BP0911,PPO KF Dolopo,"Jl. Raya Dolopo - Ngebel No.465, Kr",03513630846,-7.756970354,111.5273714,63174
3142,UNIT BISNIS SURAKARTA,BP10,KF.0418 Ngawi,Jl. Dr. Wahidin No.46,081110678145,-7.393039,111.445892,63211
3142,UNIT BISNIS SURAKARTA,BP11,KF.0420 Kartosuro,Jl. Adi Sumarmo No. 114,081110678138,-7.544646,110.744533,57164
3142,UNIT BISNIS SURAKARTA,BP12,KF.0564 Ponorogo,Jl. Jendral Sudirman No. 9,081110678146,-7.871945,111.463714,63316
3142,UNIT BISNIS SURAKARTA,BP13,KF.0619 Gentan,Jl. Songgolangit No. 2A,081110678139,-7.585014,110.784673,57556
3142,UNIT BISNIS SURAKARTA,BP14,KF Pandanaran,Jl.  Raya Pandanaran no. 198 Boyolali,082127396160,-7.528986,110.601675,62271
3142,UNIT BISNIS SURAKARTA,BP15,KF RAJIMAN,Jl. Rajiman No.439,089521435241,-7.5712134,110.8033345,57149
3142,UNIT BISNIS SURAKARTA,BP16,KF MAGETAN,Jl.  Raya A YANI No. 21 Magetan,085859880923,-7.6539614,111.3272068,63311
3142,UNIT BISNIS SURAKARTA,BP17,KF CARUBAN,jl. Ahmad yani no 106 caruban,03513822401,-7.541771,111.6585365,63112
3142,UNIT BISNIS SURAKARTA,BP18,KF MADIUN BARU,Jl. Trunojoyo No. 73,082143157535,-7.641812,111.517859,66363
3142,UNIT BISNIS SURAKARTA,BP21,ApotekKFSultanAgung,Jl. Sultan Agung No.63 Ponorogo,085175005463,-7.8653211,111.4726583,63583
3142,UNIT BISNIS SURAKARTA,BP22,KF 0896 Urip Sumoharjo,Jl. Urip Sumoharjo No. 52 Ponorogo,,-7.8651791,111.4645526,63411
3142,UNIT BISNIS SURAKARTA,BP23,KF SLAMET RIYADI,Jl. Slamet Riyadi No.150 Kartosuro,082134311134,-7.5574359,110.7456703,57169
3142,UNIT BISNIS SURAKARTA,BP24,KF Karanganyar,Jl. Lawu No. 304,06289691800341,-7.5969963,110.9481583,53271
3142,UNIT BISNIS SURAKARTA,BP26,KF Solo Baru,Jl. Raya Solobaru AC 22 Grogol Sukoharjo,085697459416,-7.610776,110.816543,57552
3142,UNIT BISNIS SURAKARTA,BP27,Apotek KF Kadipiro,Jl. Kimangun Sarkoro No. 60 Kadipiro Banjarsari,082136422554,-7.542104,110.814966,57136
3142,UNIT BISNIS SURAKARTA,BP28,KF Jaten,Jl. Raya Solo-Tawangmangu Km.7,085175237755,-7.57494,110.8874,57731
3149,UNIT BISNIS TANGERANG,BW01,KF 0003 LIPPO,Jl.Taman Permata No. 200 Pusat Perdagangan New Asia - Lippo Karawaci,081110678310,-6.2240987,106.5730614,40275
3149,UNIT BISNIS TANGERANG,BW02,KF 0078 PASAR ANYAR,Jl. Ahmad.Yani No. 31,081110678313,-6.173401,106.6344621,15560
3149,UNIT BISNIS TANGERANG,BW03,KF 0095 BSD,Jl. Raya Serpong Sektor VII Blok RP. 92 BSD,081110678366,-6.2824662,106.6641308,15322
3149,UNIT BISNIS TANGERANG,BW0311,PPO KF 95 (RSIA PUTRA DALIMA),"Jln. Raya Serpong Sektor VII BSD Blok RP. No. 92, ,,",,,,15320
3149,UNIT BISNIS TANGERANG,BW04,KF 0115 PAMULANG,Jl. Pamulang Permai Raya No. D2./1A,081197806667,-6.343946,106.7329702,15417
3149,UNIT BISNIS TANGERANG,BW0411,PPO Klinik KF Tiara,Jl. Pamulang Permai Raya Blok E No.,081280203299,,,15415
3149,UNIT BISNIS TANGERANG,BW05,KF 0278 VERSAILES,"Jl. Griya Loka, Ruko Versailes FB No. 15 Sektor 1.6",08118470278,-6.307686,106.673771,15318
3149,UNIT BISNIS TANGERANG,BW06,KF 0296 MODERNLAND,Jalan Hartono Raya Ruko Modern Walk Blok MW No. 57,081110678277,-6.199909,106.6394988,15117
3149,UNIT BISNIS TANGERANG,BW0611,PPO Klinik KF Cipondoh,"Jl. KH Hasyim Ashari No. 68, RT 003/RW 002",,-6.186325306,106.6576306,15141
3149,UNIT BISNIS TANGERANG,BW07,KF Siliwangi Tangerang,"Jl. Siliwangi No. 49 Rt.2/Rw.2, Benda Baru, Kec. Pamulang, Kota Tangerang Selatan, Banten 15415",082112919081,-6.344135,106.72095,15417
3149,UNIT BISNIS TANGERANG,BW08,KF 0457 ALAM SUTERA,Jl. Jalur Sutra Kav. 31A No. 3,081110678318,-6.236822,106.6597528,45372
3149,UNIT BISNIS TANGERANG,BW09,KF 0475 BERINGIN,"Jl. Beringin Raya No.45 A, Karawaci",081110678308,-6.19818,106.614809,15116
3149,UNIT BISNIS TANGERANG,BW10,KF 0473 BOULEVARD,"Jl. Raya Boulevard, Ruko Boulevard Raya Blok BA-3 No.7, Gading Serpong",081110678323,-6.233325,106.6330279,15810
3149,UNIT BISNIS TANGERANG,BW11,KF 0476 CITRA RAYA,"Boulevard Citra Raya Ruko Bellini Blok B10A No.17-18, Kab Tangerang, banten",081110678367,6.23326,106.52281,46383
3149,UNIT BISNIS TANGERANG,BW15,KF 0561 GRAHA RAYA,"Jl. Anggrek Loka A1 No.11 C, Graha Raya",081110678315,-6.2325,106.6796,93354
3149,UNIT BISNIS TANGERANG,BW16,KF 0560 KELAPA DUA,Jl. Mawaddah Raya Blok J 12 No.7-8,081110678322,-6.234765,106.619577,91315
3149,UNIT BISNIS TANGERANG,BW17,KF 0559 BALARAJA,Jl. Keresek Raya km.2 RT/RW.04/04 Kp. Saga Desa Tobat Kec. Balaraja,081110678320,-6.182955,106.4529338,15610
3149,UNIT BISNIS TANGERANG,BW18,KF 0576 PERIUK,Jl. Villa Regency No. 12 A,0895338684400,-6.170485,106.595162,77152
3149,UNIT BISNIS TANGERANG,BW20,KF 0590 PONDOK BENDA,"Jl.Raya Pamulang 2 Blok B 10,No.13 Pamulang",081218057894,-6.326069,106.708832,15416
3149,UNIT BISNIS TANGERANG,BW21,KF 0620 PORIS,Jl. Poris Indah Blok C 1 No. 3,081110678319,-6.172148,106.6832488,15122
3149,UNIT BISNIS TANGERANG,BW24,KF CISAUK,"Jl. Raya Cisauk Lapan N0.26, Serpong",081110678368,-6.327071,106.639505,41285
3149,UNIT BISNIS TANGERANG,BW26,KF THE ICON,Jl. BSD Raya Barat D5 Ruko Buspark Sampora Cisauk Tangerang,082122494006,-6.315256,106.652228,43367
3149,UNIT BISNIS TANGERANG,BW27,Apotek Grand Centro Bintaro,Jl. Ruko Grand Centro Bintaro Blok A 10 & 11 Bintaro Pesanggrahan,081219965421,-6.259136,106.7587988,65313
3149,UNIT BISNIS TANGERANG,BW28,KLINIK MANDIRI KF TIARA,"Jl. Pamulang Permai Raya Blok E No.8, Pamulang Barat",09182736,,,15415
3149,UNIT BISNIS TANGERANG,BW31,KF SETIA BUDI,"Jl. Setia Budi No.114 Pamulang, Tangerang Selatan",08119311445,-6.346875,106.748318,15417
3149,UNIT BISNIS TANGERANG,BW32,KF TELUK NAGA,"Jl. Kampung Melayu No.31 Kec. Teluk Naga, Tangerang",081999690775,-6.070451,106.646344,15510
3149,UNIT BISNIS TANGERANG,BW33,KF TELAGA BESTARI,"Jl. Aglonema Blok E No.14, Sindang Jaya, Tangerang",08551488440,-6.193687,106.4970938,15560
3149,UNIT BISNIS TANGERANG,BW36,KF MEDRISIO,"Jl. Gading Serpong Boulevard, Tangerang",081289502331,-6.270747,106.6294066,62292
3149,UNIT BISNIS TANGERANG,BW37,KF 0436 GOLDEN VIENNA,"Jl. Kencana Raya Ruko Golden Vienna Blok CA No. 30 Rawa Buntu, Tangerang Selatan",081110678317,-6.321,106.6824908,15318
3149,UNIT BISNIS TANGERANG,BW38,KF 0536 CISOKA,Jl. Raya Tiga Raksa - Cisoka No.50 Cisoka Tangerang,081110678311,-6.26259,106.425579,45466
3149,UNIT BISNIS TANGERANG,BW39,KF 0474 BLOSSOM,Jl. Citra Raya Boulevard Ruko Blossom Blok 1 No. 11 Tangerang,081110678312,-6.252145,106.519924,15710
3149,UNIT BISNIS TANGERANG,BW40,KF TAMAN TEKNO,"Jl. Tekno Widya Ruko Taman Tekno Blok I 2 & I 3, Tangerang Selatan",081110678316,-6.331319,106.6770498,13880
3149,UNIT BISNIS TANGERANG,BW41,KF KAMPUNG UTAN,"Jl. WR Supratman No. 05, Kampung Utan, Cempaka Putih, Ciputat Timur",081110678314,-6.299353,106.749478,34159
3149,UNIT BISNIS TANGERANG,BW4111,PPO Klinik KF Kedaung,"Jl. Keuangan Rt001/Rw002,  KEDAUNG",085947720857,,,15415
3149,UNIT BISNIS TANGERANG,BW43,KF PONPES MADINATUNNAJAH,"Jl. Sumatera No. 97, Jombang, Ciputat, Kota Tangerang Selatan, Banten",082112024952,-6.292341,106.695385,93354
3149,UNIT BISNIS TANGERANG,BW46,KF OSHCS GADING SERPONG,"Jl. Boulevard Gading Serpong Blok M5 No. 8B, Tangerang",081110678309,-6.2455,106.628,15810
3149,UNIT BISNIS TANGERANG,BW49,KF Tiga Raksa,"Jl. Syeh Mubarok No. 10, Matagara, Tiga Raksa Tangerang Banten",08111803993,-6.261363,106.47603,15720
3149,UNIT BISNIS TANGERANG,BW50,KF Alam Sutera 2,"JALAN SERPONG NOMOR 8C RT/RW 004/002, Desa/Kelurahan Pakulonan",081288041608,-6.2441088,106.6492788,15320
3109,UNIT BISNIS TANJUNG PINANG,AI01,KF.0031 TPI,Jl. Bintan No.656 - 658,08117005036,0.929426,104.441483,29111
3109,UNIT BISNIS TANJUNG PINANG,AI02,KF.0109 TPI,"Jl. MT. Haryono Km. 3,5",08117005038,0.919832,104.463818,29122
3109,UNIT BISNIS TANJUNG PINANG,AI03,KF.0169 TPI,Jl. Raja Ali Haji Km. 4 No. 7-8,08117005039,0.908925,104.463989,29124
3109,UNIT BISNIS TANJUNG PINANG,AI04,KF.0142 TBK,Jl. Ampera No.7,08117005029,0.992609,103.429445,29661
3109,UNIT BISNIS TANJUNG PINANG,AI05,KF.0300,Jl. Jend. A. Yani Sungai Lakam Barat,08117005030,0.998812,103.416059,29661
3109,UNIT BISNIS TANJUNG PINANG,AI06,KF.0454 Kijang,Jl. Hang Jebat Kijang No. 19 Kijang,08117005047,0.8502,104.6081,29151
3109,UNIT BISNIS TANJUNG PINANG,AI07,KF.0297 Bintan,Jl. D.I. Panjaitan Km. 9 Komp. Bintan Center,08117005043,0.91697,104.509754,29125
3109,UNIT BISNIS TANJUNG PINANG,AI08,KF.0599 Ganet,Jl. Ganet Km.11 Blok A No. 1-2,08117005045,0.931546,104.520735,29122
3109,UNIT BISNIS TANJUNG PINANG,AI09,KF.0646 Sutomo,Jl. Dr. Sutomo No. 9  Kampung Baru,08117005037,0.917504,104.451026,29111
3109,UNIT BISNIS TANJUNG PINANG,AI10,KF.0649 Batubatas,Jl. Raja Haji Fisabilillah Km. 8 Atas,08117005042,0.910967,104.493336,29125
3109,UNIT BISNIS TANJUNG PINANG,AI11,KF DABO SINGKEP,"Jl. Pahlawan, Dabo Singkep",08117005035,-0.491312,104.564494,29871
3109,UNIT BISNIS TANJUNG PINANG,AI12,KF. Tanjung Batu,Jl. Jendral Sudirman No.12,081267584950,0.660644,103.460189,29662
3109,UNIT BISNIS TANJUNG PINANG,AI13,KF. BT 16,Jl. Raya Tj. Uban Km. 16,08117005046,0.961756,104.526904,29151
3109,UNIT BISNIS TANJUNG PINANG,AI14,KF. BT 6,Jl. Gatot Subroto No. 92-93,08117005041,0.914489,104.475664,29122
3109,UNIT BISNIS TANJUNG PINANG,AI15,KF LIMAS,Jl. Raya Haji Fisabilillah Km.5 Atas,08117005040,0.906195,104.473156,29124
3109,UNIT BISNIS TANJUNG PINANG,AI16,KF BARAN,"Jalan Raja Oesman No.218-219, Sungai Lakam, Kec. Karimun, Kabupaten Karimun, Kepulauan Riau",08117005031,1.00293,103.408797,29664
3109,UNIT BISNIS TANJUNG PINANG,AI17,KF Batu 11,"Jl. Raya Uban Km. 11, Komp. Pinang Kencana No.18-19, Tanjung Pinang",08117005044,0.922823,104.511502,29122
3109,UNIT BISNIS TANJUNG PINANG,AI18,KF. Meral,"Jl. Ahmad Yani Meral No. 86, Rt.02 Rw.01 Tanjung Balai Karimun",08117005032,1.00035,103.392,30658
3109,UNIT BISNIS TANJUNG PINANG,AI19,KF TCC,Jl. Raja Haji Fisabilillah Komp. Ruko Metro Garden No. 17,08117005048,0.896826,104.480585,29124
3109,UNIT BISNIS TANJUNG PINANG,AI20,KF Taman Gurindam Permai,Jl. D.I. Panjaitan Km.9 No. 15,082276072560,0.916433,104.505214,29483
3109,UNIT BISNIS TANJUNG PINANG,AI21,KF Pemuda Tj Pinang,"Jl. Pemuda Blok A No. 3-4, Tanjung Pinang",082288212992,0.9054,104.464266,29124
3109,UNIT BISNIS TANJUNG PINANG,AI22,KF Natuna,JL. DATUK KAYA WAN MOH. BENTENG - RANAI,,3.940494,108.386575,29783
3105,UNIT BISNIS TASIKMALAYA,AE01,KF.0195,Jl. Sutisna senjaya No.26,081110678151,-7.327254,108.225698,46113
3105,UNIT BISNIS TASIKMALAYA,AE02,KF.0308,Jl. Cimanuk No. 619,081110678142,-7.202565,107.889446,43291
3105,UNIT BISNIS TASIKMALAYA,AE03,KF.0377 Garut 2,Jl. Cimanuk No.11A,081110678149,-7.216615,107.89948,44118
3105,UNIT BISNIS TASIKMALAYA,AE04,KF.0404 Tasik 2,Jl. RE. Martadinata No.87,082315916229,-7.315165,108.21476,45565
3105,UNIT BISNIS TASIKMALAYA,AE05,KF.0533 Garut 3,Jl. Jend Ahmad Yani No. 210,081110678150,-7.215696,107.909924,53266
3105,UNIT BISNIS TASIKMALAYA,AE06,KF.0543 Tasik 3,Jl. Hz. Mustapa No. 108 Tasikmalaya,081214110014,-7.330698,108.219692,46121
3105,UNIT BISNIS TASIKMALAYA,AE07,KF.0605 Ciamis,Jl. Ir. Juanda No. 168,082121233960,-7.3274,108.3527,46211
3105,UNIT BISNIS TASIKMALAYA,AE08,KF.0606 Banjar,Jl. Badan Keamanan Rakyat No.5,082132999965,-7.374119,108.540823,43273
3105,UNIT BISNIS TASIKMALAYA,AE10,KF Moch Hatta,Jl. Moch Hatta No 147 Kota Tasikmal,081110678143,-7.319605237,108.227397,46131
3105,UNIT BISNIS TASIKMALAYA,AE12,Apotek KF. Singaparna,Jl. Raya Timur No. 34 Kudang Singaparna,081110678147,-7.349272,108.118994,35373
3105,UNIT BISNIS TASIKMALAYA,AE13,KF Siliwangi Tasikmalaya,"Jl. Siliwangi Kel. Kahuripan, Kec. Tawang",082132999129,-7.348891,108.221283,46115
3105,UNIT BISNIS TASIKMALAYA,AE15,KF LELES,"Jl. Raya Leles, Kel. Leles, Kec. Leles, Kab. Leles",081110678148,-7.11003,107.898093,44152
3105,UNIT BISNIS TASIKMALAYA,AE17,KF Pangandaran,Jl. Merdeka No. 138 Karangsalam Ds. Pananjung,085921324382,-7.684473,108.653763,40238
3105,UNIT BISNIS TASIKMALAYA,AE18,KF Mangkubumi,Jl. Mayor Tobing No. 136 Rt.001/04,08112279797,,,46182
3105,UNIT BISNIS TASIKMALAYA,AE19,KF Ciledug Garut,"Jl. Raya Ciledug No.195, Kota Kulon, Kec. Garut Kota, Kabupaten Garut, Jawa Barat",0800000,-7.223426,107.9039993,44111
3128,UNIT BISNIS TERNATE,BB01,KF.0168,Jl. Hasan Esa No. 151,08114330824,0.780072,127.382797,97714
3128,UNIT BISNIS TERNATE,BB02,KF.PEL038 RSUD TERNATE,Jl. Tanah Tinggi No. 31 Komp.,081143005381,0.7820898,127.3757776,21256
3128,UNIT BISNIS TERNATE,BB03,KF.Pelrs Tobelo RSUD Tobelo,Jl. Landbouw Tobelo,081143005389,1.725507,127.997082,97754
3128,UNIT BISNIS TERNATE,BB04,KF.Tobelo,"Jl. Kemakmuran Desa Gamsungi,",081143005388,1.726146,128.011331,97754
3128,UNIT BISNIS TERNATE,BB05,KF.Ternate Mall,Jl. Merdeka no 19 Ternate,081110678558,0.791236,127.386547,97721
3128,UNIT BISNIS TERNATE,BB06,KF.Peltidore RS Tidore,Jl. Sultan Mansyur No. 11,081110678571,0.674671,127.448364,97761
3128,UNIT BISNIS TERNATE,BB07,KF.Bastiong,Jl. Raya Bastiong - Ternate,081110678108,0.76828,127.374438,97716
3128,UNIT BISNIS TERNATE,BB08,KF.Jatiland,Jl. Komp. Ruko Jati Land Ternate,081110678079,0.7921129,127.389766,97721
3128,UNIT BISNIS TERNATE,BB09,KF.Dufa-Dufa,"Jl. Batu Angus, Kel. Dufa-Dufa",081110678077,0.81609,127.385043,97727
3128,UNIT BISNIS TERNATE,BB10,KF. KALUMPANG,"Jl. Kapitan Pattimura RT,001 RW,001",081143005386,0.787313,127.381368,71153
3128,UNIT BISNIS TERNATE,BB11,KF. JATI LURUS,Jl. Jati Lurus,081143005382,0.7722798,127.3727702,97716
3128,UNIT BISNIS TERNATE,BB12,KF Kalumata,"Jl. Raya Kalumata Rt 002/001, Kel Kalumata. Kec. Ternate Sel",081110678570,0.761295,127.367472,97718
3128,UNIT BISNIS TERNATE,BB13,KF. Pelengkap RSUD Morotai,"Jl. Yayasan, Tahutu, Morotai S",08114330821,2.093641,128.313988,97771
3128,UNIT BISNIS TERNATE,BB14,Apotek KF Sofifi,"Jl. Lintas Halmahera, Kel Guraping, Kec Oba Utara - Sofifi",081143005390,0.752988,127.580682,97852
3128,UNIT BISNIS TERNATE,BB15,KF FITU,"Jl. Raya Gambesi, Kel. Fitu Kec. Ternate Selatan",081110678078,0.758548,127.343443,97718
3128,UNIT BISNIS TERNATE,BB16,APOTEK KF. BACAN,"Jl. Hidayat, Kec. Bacan, Kab. Halmahera Selatan, Maluku Utara",081110678109,-0.642338,127.493835,97791
3128,UNIT BISNIS TERNATE,BB17,APOTEK KF. JAILOLO,"Desa Soakonora Rt/Rw 002/001, Kec. Jailolo, Kab. Halmahera Barat, Maluku Utara",081110678073,1.0715,127.469667,97761
3128,UNIT BISNIS TERNATE,BB18,APOTEK KF DARAME,"Jl. Tugu Pancasila, Depan Telkom, Desa Darame, Kec. Morotai Selatan, Kab. Kep. Morotai, Maluku Utara",081110678541,2.0505552,128.2956814,97771
3128,UNIT BISNIS TERNATE,BB19,KF Bahari Berkesan,"Jl. Sultan M. Djabir Syah, Kel. Gamalama, Kec. Ternate Tengah, Ternate, Maluku Utara",081110678572,0.7874775,127.3897382,97721
3128,UNIT BISNIS TERNATE,BB20,KF Weda,"Jl. Dusun II, Desa Fidi Jaya",082121113400,0.3343889,127.8796317,97853
3128,UNIT BISNIS TERNATE,BB21,KF Bacan 2,"Jl. Oesman Syah, Labuha",081143104411,-0.634946275,127.4844801,97791
3150,UNIT BISNIS YOGYA,BX01,KF.0021,Jl. Malioboro No. 123,082264413643,-7.792581,110.365639,55271
3150,UNIT BISNIS YOGYA,BX03,KF.0070,Jl. L.U. Adisucipto No. 63A,081228129992,-7.7834277,110.3986805,55281
3150,UNIT BISNIS YOGYA,BX04,KF.0088,Jl. Pemuda Selatan No. 12,081110678239,-7.707884,110.598033,35372
3150,UNIT BISNIS YOGYA,BX05,KF.0089,Jl. Gatot Subroto No. 59,08112795989,-7.715266,109.015598,53223
3150,UNIT BISNIS YOGYA,BX06,KF.0206,Jl. Gatot Subroto No. 115A,081110678233,-7.697905,109.028047,53224
3150,UNIT BISNIS YOGYA,BX07,KF.0207,Jl. Parangtritis No. 130,081110678238,-7.822994,110.367626,55143
3150,UNIT BISNIS YOGYA,BX08,KF.0225,Jl.Godean kM 5 Modinan banyuraden Gamping sleman Yogyakarta,081128871188,-7.778343,110.336906,55293
3150,UNIT BISNIS YOGYA,BX09,KF.0275,Jl. Kaliurang Km 6 No. 48,081110678326,-7.752994,110.384289,55281
3150,UNIT BISNIS YOGYA,BX10,KF.0316,Jl. Palagan Tentara Pelajar No. 72,08112994393,-7.744458,110.373695,55581
3150,UNIT BISNIS YOGYA,BX11,KF.0334 UNY,Jl. Colombo No. 1,081110678220,-7.777512,110.387849,55281
3150,UNIT BISNIS YOGYA,BX12,KF.0401 Seturan,Jl. Seturan Raya Blok C/3B,081110678229,-7.769531,110.409782,55281
3150,UNIT BISNIS YOGYA,BX13,KF.0406 Jamal,Jl. Magelang No. 80,081110678225,-7.777118,110.361175,57283
3150,UNIT BISNIS YOGYA,BX14,KF 0416,"Jl. Taman Siswa No. 100, Wirogunan",081110678226,-7.809899,110.377022,55151
3150,UNIT BISNIS YOGYA,BX17,KF.0437 Fajar,Jl. RA Wiraatmaja No. 37,081110678296,-7.420942,109.2242063,53371
3150,UNIT BISNIS YOGYA,BX18,KF.0133 Purwokerto,Jl. Jend. Sudirman Timur No. 435,081110678231,,,53147
3150,UNIT BISNIS YOGYA,BX19,KF.0524 Banteng,Jl. Kaliurang KM 7.8,0812279800330,-7.740029,110.391823,55581
3150,UNIT BISNIS YOGYA,BX20,KF.0592 Wates,"Jl. Wates  KM 4, Banyuraden",081110678236,-7.799926,110.332074,55293
3150,UNIT BISNIS YOGYA,BX21,KF.0609 Tajem,"Jl. Raya Tajem, Stan No. 21A",081110678224,-7.760361,110.433009,55282
3150,UNIT BISNIS YOGYA,BX22,KF.0610 Condong Catur,"Jl. Nusa Indah Rt.05/12 Kel. Pendukuhan Dero, Kel. Condong Catur Kec.Depok Kab Sleman",081110678240,-7.753805,110.410872,55283
3150,UNIT BISNIS YOGYA,BX23,KF.Delanggu,"Jl. Raya Delanggu, Klaten",081110678278,-7.61658,110.6999976,57471
3150,UNIT BISNIS YOGYA,BX24,KF.PBLG,Jl. Mayjend Sungkono No. 22 Purbalingga,081110678292,-7.399976,109.349806,53321
3150,UNIT BISNIS YOGYA,BX25,KF PETANGPULUHAN,Jl. Patangpuluhan No. 32 Wirobrajan,082133972711,-7.807116,110.346768,55251
3150,UNIT BISNIS YOGYA,BX26,KF SOROSUTAN,"Jl. Sorogenen, Nitikan UH.9/312B Sorosutan",081391594562,-7.825127,110.382351,55162
3150,UNIT BISNIS YOGYA,BX27,KF MEGUWO,Jl. Solo Km. 9 Kembang Maguwoharjo Depok Sleman Yogyakarta,081110678235,-7.783303,110.430337,55282
3150,UNIT BISNIS YOGYA,BX28,KF. HAYAMWURUK,"Jl.Hayam Wuruk,Lempuyangan Yogyakarta",08882940146,-7.7927,110.373208,55212
3150,UNIT BISNIS YOGYA,BX29,KF. SIDOARUM,"Jl.Godean,Sidoarum Yogyakarta",08562521240,-7.775695,110.326066,55264
3150,UNIT BISNIS YOGYA,BX31,KF. Kota Gede,Jl. Kemasan No. 33 RT.009 RW.003 Purbayan Kota Gede,089665557880,-7.8223183,110.400745,57556
3150,UNIT BISNIS YOGYA,BX32,KF. Wonosari,Jl. KH. Agus Salim No.6 Kepek II Rt/Rw 001/009 Kepek Wonosari Gunung Kidul,081110678227,-7.963818,110.598655,55871
3150,UNIT BISNIS YOGYA,BX33,KF TITIBUMI,Jl. Godean KM 4 Komplek Ruko Tirta Mas Sleman,0811344384,-7.780039,110.343907,55592
3150,UNIT BISNIS YOGYA,BX34,KF KUSUMANEGARA,Jl. Kusumanegara No.24 Rt/Rw 002/001 Tahunan Umbulharjo,081110678230,-7.80198,110.385641,58183
3150,UNIT BISNIS YOGYA,BX35,KF BANTUL,Jl. Jend. Sudirman No. 54 Bantul D.I Yogyakarta,081110678221,-7.884021,110.331759,55711
3150,UNIT BISNIS YOGYA,BX36,KF Besi,"Jl. Kaliurang KM.13, Sardonoharjo,",088232765000,7.69826,110.41644,55581
3150,UNIT BISNIS YOGYA,BX37,KF WAHID HASYIM,Jl. Wahid Hasyim No. 44 Condong Catur Depok Sleman Yogyakarta,088232765000,-7.771982,110.401471,55283
3150,UNIT BISNIS YOGYA,BX38,KF PRAMBANAN,"Jl. Jogya - Solo No. 127 Srimulyo, Kebondalem Kidul, Prambanan, Klaten, Jawa Tengah 57454",081215951363,-7.754623,110.502432,57454
3150,UNIT BISNIS YOGYA,BX39,KF PALAGAN TENGAH,"Jl. Palagan Tentara Pelajar No. 202, Km.7 Sariharjo",085877679318,-7.73628,110.377026,55581
3150,UNIT BISNIS YOGYA,BX40,KF Jakal 3.5,"Jl. Kaliurang KM 3,5 Sleman, D.I Yogyakarta",02745019981,-7.763773,110.379257,55281
3150,UNIT BISNIS YOGYA,BX41,KF Purwomartani,"Jl. Raya Purwomartani Kalasan Sleman, D.I Yogyakarta",082134589065,-7.750695,110.448886,55571
3150,UNIT BISNIS YOGYA,BX42,KF Brebah,"Jl. Wonosari KM 10 Sendang Tirto Brebah, Sleman, D.I. Yogyakarta",081110678228,-7.827483,110.440445,55573
3150,UNIT BISNIS YOGYA,BX43,KF. SUGIYOPRANOTO,Jl. Sugiyopranoto 23 Purwosari,081548108958,-7.971101,110.606262,57663
3150,UNIT BISNIS YOGYA,BX48,KF Akasia,Jl. Jend Sudirman No. 80A Sokaraja,081110678232,-7.4573218,109.2931024,53181
3150,UNIT BISNIS YOGYA,BX49,KF. KUSMANTO,"Jl. Mayor Kusmanto, Kec. Klaten Tengah, Kab. Klaten",081110678237,-7.69829,110.601119,57415
3150,UNIT BISNIS YOGYA,BX50,KF Bhayangkara Kulon Progo,"Jl. Bhayangkara, Wates, Kab. Kulon Progo",081110678234,-7.8556638,110.162763,55652
3150,UNIT BISNIS YOGYA,BX51,KF Sudirman Magelang,"Jl. Jend Sudirman No. 75 -75, Magelang",083146479208,-7.4875367,110.2215231,56124
3150,UNIT BISNIS YOGYA,BX52,KF Jamal 5.5,"Jl. Magelang Km. 5,5 No.62, Kutu Tegal, Sinduadi, Kec. Mlati, Kab. Sleman, DIY",081110678223,-7.756204,110.362022,55284
3150,UNIT BISNIS YOGYA,BX53,KF Bandara YIA,"Pintu Masuk Yogyakarta International Airport, Jl. Nasional III, Area Kebun, Kebonrejo, Kec. Temon, Kabupaten Kulon Progo, Daerah Istimewa Yogyakarta",081515509175,-7.898075,110.059679,58253
3150,UNIT BISNIS YOGYA,BX54,KF Pandeyan,Jl. Pandeyan no. 22 RT 11/12 Umbulh,02744230810,-7.813776271,110.3862002,55161
